{"type":"FeatureCollection","features":[{"type":"Feature","id":"street-140","properties":{"id":"street-140","dataset":"street","gu":"중구","species":"왕벚나무","heightM":5.0,"crownWidthM":6.0,"rawHeight":5.0,"rawCrownWidth":6.0,"quality":"valid","sourceYear":2013},"geometry":{"type":"Point","coordinates":[126.99583764,37.55749954]}},{"type":"Feature","id":"street-156","properties":{"id":"street-156","dataset":"street","gu":"중구","species":"왕벚나무","heightM":5.0,"crownWidthM":6.0,"rawHeight":5.0,"rawCrownWidth":6.0,"quality":"valid","sourceYear":2013},"geometry":{"type":"Point","coordinates":[126.99595471,37.55728729]}},{"type":"Feature","id":"street-157","properties":{"id":"street-157","dataset":"street","gu":"중구","species":"왕벚나무","heightM":4.0,"crownWidthM":6.0,"rawHeight":4.0,"rawCrownWidth":6.0,"quality":"valid","sourceYear":2013},"geometry":{"type":"Point","coordinates":[126.99561898,37.55676472]}},{"type":"Feature","id":"street-203","properties":{"id":"street-203","dataset":"street","gu":"중구","species":"왕벚나무","heightM":6.0,"crownWidthM":5.0,"rawHeight":6.0,"rawCrownWidth":5.0,"quality":"valid","sourceYear":2013},"geometry":{"type":"Point","coordinates":[126.99573581,37.55671475]}},{"type":"Feature","id":"street-208","properties":{"id":"street-208","dataset":"street","gu":"중구","species":"은행나무","heightM":12.0,"crownWidthM":7.0,"rawHeight":12.0,"rawCrownWidth":7.0,"quality":"valid","sourceYear":2013},"geometry":{"type":"Point","coordinates":[126.99234017,37.55820708]}},{"type":"Feature","id":"street-273","properties":{"id":"street-273","dataset":"street","gu":"중구","species":"왕벚나무","heightM":6.0,"crownWidthM":6.0,"rawHeight":6.0,"rawCrownWidth":6.0,"quality":"valid","sourceYear":2013},"geometry":{"type":"Point","coordinates":[126.99566688,37.55574407]}},{"type":"Feature","id":"street-375","properties":{"id":"street-375","dataset":"street","gu":"중구","species":"왕벚나무","heightM":5.0,"crownWidthM":6.0,"rawHeight":5.0,"rawCrownWidth":6.0,"quality":"valid","sourceYear":2013},"geometry":{"type":"Point","coordinates":[126.99564608,37.55580433]}},{"type":"Feature","id":"street-406","properties":{"id":"street-406","dataset":"street","gu":"중구","species":"왕벚나무","heightM":5.0,"crownWidthM":6.0,"rawHeight":5.0,"rawCrownWidth":6.0,"quality":"valid","sourceYear":2013},"geometry":{"type":"Point","coordinates":[126.99575705,37.55590305]}},{"type":"Feature","id":"street-408","properties":{"id":"street-408","dataset":"street","gu":"중구","species":"왕벚나무","heightM":6.0,"crownWidthM":6.0,"rawHeight":6.0,"rawCrownWidth":6.0,"quality":"valid","sourceYear":2013},"geometry":{"type":"Point","coordinates":[126.99551864,37.55615749]}},{"type":"Feature","id":"street-469","properties":{"id":"street-469","dataset":"street","gu":"중구","species":"왕벚나무","heightM":6.0,"crownWidthM":5.0,"rawHeight":6.0,"rawCrownWidth":5.0,"quality":"valid","sourceYear":2013},"geometry":{"type":"Point","coordinates":[126.99616956,37.55838541]}},{"type":"Feature","id":"street-470","properties":{"id":"street-470","dataset":"street","gu":"중구","species":"왕벚나무","heightM":6.0,"crownWidthM":6.0,"rawHeight":6.0,"rawCrownWidth":6.0,"quality":"valid","sourceYear":2013},"geometry":{"type":"Point","coordinates":[126.99589448,37.55712921]}},{"type":"Feature","id":"street-498","properties":{"id":"street-498","dataset":"street","gu":"중구","species":"은행나무","heightM":10.0,"crownWidthM":7.0,"rawHeight":10.0,"rawCrownWidth":7.0,"quality":"valid","sourceYear":2013},"geometry":{"type":"Point","coordinates":[126.99238211,37.55783492]}},{"type":"Feature","id":"street-547","properties":{"id":"street-547","dataset":"street","gu":"중구","species":"왕벚나무","heightM":4.0,"crownWidthM":7.0,"rawHeight":4.0,"rawCrownWidth":7.0,"quality":"valid","sourceYear":2013},"geometry":{"type":"Point","coordinates":[126.99609948,37.55967424]}},{"type":"Feature","id":"street-573","properties":{"id":"street-573","dataset":"street","gu":"중구","species":"왕벚나무","heightM":7.0,"crownWidthM":6.0,"rawHeight":7.0,"rawCrownWidth":6.0,"quality":"valid","sourceYear":2013},"geometry":{"type":"Point","coordinates":[126.99577893,37.55549601]}},{"type":"Feature","id":"street-650","properties":{"id":"street-650","dataset":"street","gu":"중구","species":"왕벚나무","heightM":6.0,"crownWidthM":5.0,"rawHeight":6.0,"rawCrownWidth":5.0,"quality":"valid","sourceYear":2013},"geometry":{"type":"Point","coordinates":[126.99567802,37.55692055]}},{"type":"Feature","id":"street-784","properties":{"id":"street-784","dataset":"street","gu":"중구","species":"왕벚나무","heightM":6.0,"crownWidthM":6.0,"rawHeight":6.0,"rawCrownWidth":6.0,"quality":"valid","sourceYear":2013},"geometry":{"type":"Point","coordinates":[126.99607125,37.55878433]}},{"type":"Feature","id":"street-849","properties":{"id":"street-849","dataset":"street","gu":"중구","species":"왕벚나무","heightM":4.0,"crownWidthM":5.0,"rawHeight":4.0,"rawCrownWidth":5.0,"quality":"valid","sourceYear":2013},"geometry":{"type":"Point","coordinates":[126.99585499,37.55767]}},{"type":"Feature","id":"street-876","properties":{"id":"street-876","dataset":"street","gu":"중구","species":"은행나무","heightM":9.0,"crownWidthM":6.0,"rawHeight":9.0,"rawCrownWidth":6.0,"quality":"valid","sourceYear":2013},"geometry":{"type":"Point","coordinates":[126.99236444,37.55796367]}},{"type":"Feature","id":"street-983","properties":{"id":"street-983","dataset":"street","gu":"중구","species":"왕벚나무","heightM":6.0,"crownWidthM":5.0,"rawHeight":6.0,"rawCrownWidth":5.0,"quality":"valid","sourceYear":2013},"geometry":{"type":"Point","coordinates":[126.99567296,37.55634119]}},{"type":"Feature","id":"street-993","properties":{"id":"street-993","dataset":"street","gu":"중구","species":"왕벚나무","heightM":6.0,"crownWidthM":6.0,"rawHeight":6.0,"rawCrownWidth":6.0,"quality":"valid","sourceYear":2013},"geometry":{"type":"Point","coordinates":[126.99626795,37.5593071]}},{"type":"Feature","id":"street-994","properties":{"id":"street-994","dataset":"street","gu":"중구","species":"왕벚나무","heightM":6.0,"crownWidthM":6.0,"rawHeight":6.0,"rawCrownWidth":6.0,"quality":"valid","sourceYear":2013},"geometry":{"type":"Point","coordinates":[126.99550962,37.55626279]}},{"type":"Feature","id":"street-995","properties":{"id":"street-995","dataset":"street","gu":"중구","species":"왕벚나무","heightM":5.0,"crownWidthM":5.0,"rawHeight":5.0,"rawCrownWidth":5.0,"quality":"valid","sourceYear":2013},"geometry":{"type":"Point","coordinates":[126.99558437,37.55662616]}},{"type":"Feature","id":"street-1134","properties":{"id":"street-1134","dataset":"street","gu":"중구","species":"왕벚나무","heightM":6.0,"crownWidthM":6.0,"rawHeight":6.0,"rawCrownWidth":6.0,"quality":"valid","sourceYear":2013},"geometry":{"type":"Point","coordinates":[126.99565793,37.55685093]}},{"type":"Feature","id":"street-1181","properties":{"id":"street-1181","dataset":"street","gu":"중구","species":"왕벚나무","heightM":5.0,"crownWidthM":6.0,"rawHeight":5.0,"rawCrownWidth":6.0,"quality":"valid","sourceYear":2013},"geometry":{"type":"Point","coordinates":[126.99608744,37.55892607]}},{"type":"Feature","id":"street-1193","properties":{"id":"street-1193","dataset":"street","gu":"중구","species":"왕벚나무","heightM":5.0,"crownWidthM":6.0,"rawHeight":5.0,"rawCrownWidth":6.0,"quality":"valid","sourceYear":2013},"geometry":{"type":"Point","coordinates":[126.99608051,37.55885796]}},{"type":"Feature","id":"street-1237","properties":{"id":"street-1237","dataset":"street","gu":"중구","species":"왕벚나무","heightM":5.0,"crownWidthM":6.0,"rawHeight":5.0,"rawCrownWidth":6.0,"quality":"valid","sourceYear":2013},"geometry":{"type":"Point","coordinates":[126.99549504,37.55647309]}},{"type":"Feature","id":"street-1275","properties":{"id":"street-1275","dataset":"street","gu":"중구","species":"왕벚나무","heightM":6.0,"crownWidthM":6.0,"rawHeight":6.0,"rawCrownWidth":6.0,"quality":"valid","sourceYear":2013},"geometry":{"type":"Point","coordinates":[126.99590873,37.55782837]}},{"type":"Feature","id":"street-1297","properties":{"id":"street-1297","dataset":"street","gu":"중구","species":"왕벚나무","heightM":5.0,"crownWidthM":6.0,"rawHeight":5.0,"rawCrownWidth":6.0,"quality":"valid","sourceYear":2013},"geometry":{"type":"Point","coordinates":[126.99582676,37.55696735]}},{"type":"Feature","id":"street-1326","properties":{"id":"street-1326","dataset":"street","gu":"중구","species":"은행나무","heightM":12.0,"crownWidthM":7.0,"rawHeight":12.0,"rawCrownWidth":7.0,"quality":"valid","sourceYear":2013},"geometry":{"type":"Point","coordinates":[126.99188667,37.55925999]}},{"type":"Feature","id":"street-1503","properties":{"id":"street-1503","dataset":"street","gu":"중구","species":"왕벚나무","heightM":6.0,"crownWidthM":5.0,"rawHeight":6.0,"rawCrownWidth":5.0,"quality":"valid","sourceYear":2013},"geometry":{"type":"Point","coordinates":[126.99560865,37.55587471]}},{"type":"Feature","id":"street-1533","properties":{"id":"street-1533","dataset":"street","gu":"중구","species":"왕벚나무","heightM":6.0,"crownWidthM":6.0,"rawHeight":6.0,"rawCrownWidth":6.0,"quality":"valid","sourceYear":2013},"geometry":{"type":"Point","coordinates":[126.99587676,37.5570897]}},{"type":"Feature","id":"street-1534","properties":{"id":"street-1534","dataset":"street","gu":"중구","species":"왕벚나무","heightM":6.0,"crownWidthM":5.0,"rawHeight":6.0,"rawCrownWidth":5.0,"quality":"valid","sourceYear":2013},"geometry":{"type":"Point","coordinates":[126.99593662,37.55795067]}},{"type":"Feature","id":"street-1541","properties":{"id":"street-1541","dataset":"street","gu":"중구","species":"왕벚나무","heightM":6.0,"crownWidthM":6.0,"rawHeight":6.0,"rawCrownWidth":6.0,"quality":"valid","sourceYear":2013},"geometry":{"type":"Point","coordinates":[126.99578771,37.55567649]}},{"type":"Feature","id":"street-1550","properties":{"id":"street-1550","dataset":"street","gu":"중구","species":"은행나무","heightM":11.0,"crownWidthM":6.0,"rawHeight":11.0,"rawCrownWidth":6.0,"quality":"valid","sourceYear":2013},"geometry":{"type":"Point","coordinates":[126.99225363,37.55865773]}},{"type":"Feature","id":"street-1569","properties":{"id":"street-1569","dataset":"street","gu":"중구","species":"은행나무","heightM":9.0,"crownWidthM":6.0,"rawHeight":9.0,"rawCrownWidth":6.0,"quality":"valid","sourceYear":2013},"geometry":{"type":"Point","coordinates":[126.99233135,37.55833408]}},{"type":"Feature","id":"street-1601","properties":{"id":"street-1601","dataset":"street","gu":"중구","species":"왕벚나무","heightM":6.0,"crownWidthM":6.0,"rawHeight":6.0,"rawCrownWidth":6.0,"quality":"valid","sourceYear":2013},"geometry":{"type":"Point","coordinates":[126.99571175,37.55553217]}},{"type":"Feature","id":"street-1602","properties":{"id":"street-1602","dataset":"street","gu":"중구","species":"왕벚나무","heightM":6.0,"crownWidthM":7.0,"rawHeight":6.0,"rawCrownWidth":7.0,"quality":"valid","sourceYear":2013},"geometry":{"type":"Point","coordinates":[126.99574647,37.55712024]}},{"type":"Feature","id":"street-1619","properties":{"id":"street-1619","dataset":"street","gu":"중구","species":"왕벚나무","heightM":6.0,"crownWidthM":6.0,"rawHeight":6.0,"rawCrownWidth":6.0,"quality":"valid","sourceYear":2013},"geometry":{"type":"Point","coordinates":[126.99573573,37.55601032]}},{"type":"Feature","id":"street-1703","properties":{"id":"street-1703","dataset":"street","gu":"중구","species":"왕벚나무","heightM":6.0,"crownWidthM":5.0,"rawHeight":6.0,"rawCrownWidth":5.0,"quality":"valid","sourceYear":2013},"geometry":{"type":"Point","coordinates":[126.99626859,37.55905779]}},{"type":"Feature","id":"street-1801","properties":{"id":"street-1801","dataset":"street","gu":"중구","species":"왕벚나무","heightM":6.0,"crownWidthM":6.0,"rawHeight":6.0,"rawCrownWidth":6.0,"quality":"valid","sourceYear":2013},"geometry":{"type":"Point","coordinates":[126.9962303,37.55865472]}},{"type":"Feature","id":"street-1869","properties":{"id":"street-1869","dataset":"street","gu":"중구","species":"왕벚나무","heightM":6.0,"crownWidthM":5.0,"rawHeight":6.0,"rawCrownWidth":5.0,"quality":"valid","sourceYear":2013},"geometry":{"type":"Point","coordinates":[126.99598897,37.55740303]}},{"type":"Feature","id":"street-1897","properties":{"id":"street-1897","dataset":"street","gu":"중구","species":"왕벚나무","heightM":6.0,"crownWidthM":6.0,"rawHeight":6.0,"rawCrownWidth":6.0,"quality":"valid","sourceYear":2013},"geometry":{"type":"Point","coordinates":[126.99624098,37.55872248]}},{"type":"Feature","id":"street-1960","properties":{"id":"street-1960","dataset":"street","gu":"중구","species":"왕벚나무","heightM":6.0,"crownWidthM":6.0,"rawHeight":6.0,"rawCrownWidth":6.0,"quality":"valid","sourceYear":2013},"geometry":{"type":"Point","coordinates":[126.99571857,37.55705379]}},{"type":"Feature","id":"street-2016","properties":{"id":"street-2016","dataset":"street","gu":"중구","species":"왕벚나무","heightM":6.0,"crownWidthM":6.0,"rawHeight":6.0,"rawCrownWidth":6.0,"quality":"valid","sourceYear":2013},"geometry":{"type":"Point","coordinates":[126.99577518,37.55718011]}},{"type":"Feature","id":"street-2034","properties":{"id":"street-2034","dataset":"street","gu":"중구","species":"왕벚나무","heightM":5.0,"crownWidthM":6.0,"rawHeight":5.0,"rawCrownWidth":6.0,"quality":"valid","sourceYear":2013},"geometry":{"type":"Point","coordinates":[126.99612503,37.55810688]}},{"type":"Feature","id":"street-2119","properties":{"id":"street-2119","dataset":"street","gu":"중구","species":"왕벚나무","heightM":5.0,"crownWidthM":5.0,"rawHeight":5.0,"rawCrownWidth":5.0,"quality":"valid","sourceYear":2013},"geometry":{"type":"Point","coordinates":[126.99550487,37.55641946]}},{"type":"Feature","id":"street-2179","properties":{"id":"street-2179","dataset":"street","gu":"중구","species":"은행나무","heightM":11.0,"crownWidthM":8.0,"rawHeight":11.0,"rawCrownWidth":8.0,"quality":"valid","sourceYear":2013},"geometry":{"type":"Point","coordinates":[126.99228029,37.55859402]}},{"type":"Feature","id":"street-2225","properties":{"id":"street-2225","dataset":"street","gu":"중구","species":"왕벚나무","heightM":6.0,"crownWidthM":6.0,"rawHeight":6.0,"rawCrownWidth":6.0,"quality":"valid","sourceYear":2013},"geometry":{"type":"Point","coordinates":[126.99602045,37.55747545]}},{"type":"Feature","id":"street-2242","properties":{"id":"street-2242","dataset":"street","gu":"중구","species":"왕벚나무","heightM":6.0,"crownWidthM":6.0,"rawHeight":6.0,"rawCrownWidth":6.0,"quality":"valid","sourceYear":2013},"geometry":{"type":"Point","coordinates":[126.99615215,37.55819776]}},{"type":"Feature","id":"street-2312","properties":{"id":"street-2312","dataset":"street","gu":"중구","species":"왕벚나무","heightM":6.0,"crownWidthM":6.0,"rawHeight":6.0,"rawCrownWidth":6.0,"quality":"valid","sourceYear":2013},"geometry":{"type":"Point","coordinates":[126.99578497,37.55572689]}},{"type":"Feature","id":"street-2328","properties":{"id":"street-2328","dataset":"street","gu":"중구","species":"왕벚나무","heightM":5.0,"crownWidthM":6.0,"rawHeight":5.0,"rawCrownWidth":6.0,"quality":"valid","sourceYear":2013},"geometry":{"type":"Point","coordinates":[126.99553943,37.55598823]}},{"type":"Feature","id":"street-2360","properties":{"id":"street-2360","dataset":"street","gu":"중구","species":"왕벚나무","heightM":6.0,"crownWidthM":6.0,"rawHeight":6.0,"rawCrownWidth":6.0,"quality":"valid","sourceYear":2013},"geometry":{"type":"Point","coordinates":[126.99549971,37.55632421]}},{"type":"Feature","id":"street-2372","properties":{"id":"street-2372","dataset":"street","gu":"중구","species":"은행나무","heightM":10.0,"crownWidthM":7.0,"rawHeight":10.0,"rawCrownWidth":7.0,"quality":"valid","sourceYear":2013},"geometry":{"type":"Point","coordinates":[126.99229585,37.55853916]}},{"type":"Feature","id":"street-2396","properties":{"id":"street-2396","dataset":"street","gu":"중구","species":"왕벚나무","heightM":6.0,"crownWidthM":6.0,"rawHeight":6.0,"rawCrownWidth":6.0,"quality":"valid","sourceYear":2013},"geometry":{"type":"Point","coordinates":[126.99569038,37.55616463]}},{"type":"Feature","id":"street-2408","properties":{"id":"street-2408","dataset":"street","gu":"중구","species":"왕벚나무","heightM":5.0,"crownWidthM":5.0,"rawHeight":5.0,"rawCrownWidth":5.0,"quality":"valid","sourceYear":2013},"geometry":{"type":"Point","coordinates":[126.99604917,37.55765862]}},{"type":"Feature","id":"street-2430","properties":{"id":"street-2430","dataset":"street","gu":"중구","species":"왕벚나무","heightM":6.0,"crownWidthM":6.0,"rawHeight":6.0,"rawCrownWidth":6.0,"quality":"valid","sourceYear":2013},"geometry":{"type":"Point","coordinates":[126.99575786,37.55678411]}},{"type":"Feature","id":"street-2438","properties":{"id":"street-2438","dataset":"street","gu":"중구","species":"왕벚나무","heightM":6.0,"crownWidthM":6.0,"rawHeight":6.0,"rawCrownWidth":6.0,"quality":"valid","sourceYear":2013},"geometry":{"type":"Point","coordinates":[126.99628498,37.55946634]}},{"type":"Feature","id":"street-2465","properties":{"id":"street-2465","dataset":"street","gu":"중구","species":"왕벚나무","heightM":6.0,"crownWidthM":5.0,"rawHeight":6.0,"rawCrownWidth":5.0,"quality":"valid","sourceYear":2013},"geometry":{"type":"Point","coordinates":[126.99616637,37.55831993]}},{"type":"Feature","id":"street-2489","properties":{"id":"street-2489","dataset":"street","gu":"중구","species":"왕벚나무","heightM":5.0,"crownWidthM":6.0,"rawHeight":5.0,"rawCrownWidth":6.0,"quality":"valid","sourceYear":2013},"geometry":{"type":"Point","coordinates":[126.99619258,37.55996108]}},{"type":"Feature","id":"street-2490","properties":{"id":"street-2490","dataset":"street","gu":"중구","species":"왕벚나무","heightM":6.0,"crownWidthM":5.0,"rawHeight":6.0,"rawCrownWidth":5.0,"quality":"valid","sourceYear":2013},"geometry":{"type":"Point","coordinates":[126.99606647,37.55780285]}},{"type":"Feature","id":"street-2547","properties":{"id":"street-2547","dataset":"street","gu":"중구","species":"왕벚나무","heightM":5.0,"crownWidthM":6.0,"rawHeight":5.0,"rawCrownWidth":6.0,"quality":"valid","sourceYear":2013},"geometry":{"type":"Point","coordinates":[126.99554894,37.55652736]}},{"type":"Feature","id":"street-2557","properties":{"id":"street-2557","dataset":"street","gu":"중구","species":"은행나무","heightM":11.0,"crownWidthM":7.0,"rawHeight":11.0,"rawCrownWidth":7.0,"quality":"valid","sourceYear":2013},"geometry":{"type":"Point","coordinates":[126.99237771,37.55789842]}},{"type":"Feature","id":"street-2562","properties":{"id":"street-2562","dataset":"street","gu":"중구","species":"왕벚나무","heightM":3.0,"crownWidthM":4.0,"rawHeight":3.0,"rawCrownWidth":4.0,"quality":"valid","sourceYear":2013},"geometry":{"type":"Point","coordinates":[126.99603933,37.55759121]}},{"type":"Feature","id":"street-2599","properties":{"id":"street-2599","dataset":"street","gu":"중구","species":"왕벚나무","heightM":5.0,"crownWidthM":6.0,"rawHeight":5.0,"rawCrownWidth":6.0,"quality":"valid","sourceYear":2013},"geometry":{"type":"Point","coordinates":[126.99593345,37.55723083]}},{"type":"Feature","id":"street-2682","properties":{"id":"street-2682","dataset":"street","gu":"중구","species":"왕벚나무","heightM":6.0,"crownWidthM":6.0,"rawHeight":6.0,"rawCrownWidth":6.0,"quality":"valid","sourceYear":2013},"geometry":{"type":"Point","coordinates":[126.99583842,37.55755941]}},{"type":"Feature","id":"street-2735","properties":{"id":"street-2735","dataset":"street","gu":"중구","species":"왕벚나무","heightM":5.0,"crownWidthM":7.0,"rawHeight":5.0,"rawCrownWidth":7.0,"quality":"valid","sourceYear":2013},"geometry":{"type":"Point","coordinates":[126.99569283,37.5556736]}},{"type":"Feature","id":"street-2759","properties":{"id":"street-2759","dataset":"street","gu":"중구","species":"은행나무","heightM":9.0,"crownWidthM":6.0,"rawHeight":9.0,"rawCrownWidth":6.0,"quality":"valid","sourceYear":2013},"geometry":{"type":"Point","coordinates":[126.99214799,37.55890647]}},{"type":"Feature","id":"street-2808","properties":{"id":"street-2808","dataset":"street","gu":"중구","species":"왕벚나무","heightM":7.0,"crownWidthM":5.0,"rawHeight":7.0,"rawCrownWidth":5.0,"quality":"valid","sourceYear":2013},"geometry":{"type":"Point","coordinates":[126.99633901,37.55955221]}},{"type":"Feature","id":"street-2864","properties":{"id":"street-2864","dataset":"street","gu":"중구","species":"왕벚나무","heightM":6.0,"crownWidthM":5.0,"rawHeight":6.0,"rawCrownWidth":5.0,"quality":"valid","sourceYear":2013},"geometry":{"type":"Point","coordinates":[126.99669706,37.55990015]}},{"type":"Feature","id":"street-3020","properties":{"id":"street-3020","dataset":"street","gu":"중구","species":"왕벚나무","heightM":5.0,"crownWidthM":5.0,"rawHeight":5.0,"rawCrownWidth":5.0,"quality":"valid","sourceYear":2013},"geometry":{"type":"Point","coordinates":[126.99584392,37.55761834]}},{"type":"Feature","id":"street-3022","properties":{"id":"street-3022","dataset":"street","gu":"중구","species":"왕벚나무","heightM":4.0,"crownWidthM":4.0,"rawHeight":4.0,"rawCrownWidth":4.0,"quality":"valid","sourceYear":2013},"geometry":{"type":"Point","coordinates":[126.99610965,37.55953755]}},{"type":"Feature","id":"street-3203","properties":{"id":"street-3203","dataset":"street","gu":"중구","species":"왕벚나무","heightM":6.0,"crownWidthM":6.0,"rawHeight":6.0,"rawCrownWidth":6.0,"quality":"valid","sourceYear":2013},"geometry":{"type":"Point","coordinates":[126.9957799,37.55584657]}},{"type":"Feature","id":"street-3217","properties":{"id":"street-3217","dataset":"street","gu":"중구","species":"왕벚나무","heightM":4.0,"crownWidthM":7.0,"rawHeight":4.0,"rawCrownWidth":7.0,"quality":"valid","sourceYear":2013},"geometry":{"type":"Point","coordinates":[126.99592071,37.5578667]}},{"type":"Feature","id":"street-3249","properties":{"id":"street-3249","dataset":"street","gu":"중구","species":"은행나무","heightM":10.0,"crownWidthM":6.0,"rawHeight":10.0,"rawCrownWidth":6.0,"quality":"valid","sourceYear":2013},"geometry":{"type":"Point","coordinates":[126.99241709,37.55769708]}},{"type":"Feature","id":"street-3271","properties":{"id":"street-3271","dataset":"street","gu":"중구","species":"왕벚나무","heightM":5.0,"crownWidthM":5.0,"rawHeight":5.0,"rawCrownWidth":5.0,"quality":"valid","sourceYear":2013},"geometry":{"type":"Point","coordinates":[126.99626388,37.559134]}},{"type":"Feature","id":"street-3418","properties":{"id":"street-3418","dataset":"street","gu":"중구","species":"왕벚나무","heightM":5.0,"crownWidthM":5.0,"rawHeight":5.0,"rawCrownWidth":5.0,"quality":"valid","sourceYear":2013},"geometry":{"type":"Point","coordinates":[126.99550508,37.55637424]}},{"type":"Feature","id":"street-3452","properties":{"id":"street-3452","dataset":"street","gu":"중구","species":"왕벚나무","heightM":6.0,"crownWidthM":5.0,"rawHeight":6.0,"rawCrownWidth":5.0,"quality":"valid","sourceYear":2013},"geometry":{"type":"Point","coordinates":[126.99556977,37.55593147]}},{"type":"Feature","id":"street-3470","properties":{"id":"street-3470","dataset":"street","gu":"중구","species":"왕벚나무","heightM":5.0,"crownWidthM":6.0,"rawHeight":5.0,"rawCrownWidth":6.0,"quality":"valid","sourceYear":2013},"geometry":{"type":"Point","coordinates":[126.99583373,37.55743622]}},{"type":"Feature","id":"street-3472","properties":{"id":"street-3472","dataset":"street","gu":"중구","species":"왕벚나무","heightM":6.0,"crownWidthM":7.0,"rawHeight":6.0,"rawCrownWidth":7.0,"quality":"valid","sourceYear":2013},"geometry":{"type":"Point","coordinates":[126.99577894,37.55554131]}},{"type":"Feature","id":"street-3519","properties":{"id":"street-3519","dataset":"street","gu":"중구","species":"은행나무","heightM":12.0,"crownWidthM":6.0,"rawHeight":12.0,"rawCrownWidth":6.0,"quality":"valid","sourceYear":2013},"geometry":{"type":"Point","coordinates":[126.99204617,37.55906611]}},{"type":"Feature","id":"street-3612","properties":{"id":"street-3612","dataset":"street","gu":"중구","species":"은행나무","heightM":9.0,"crownWidthM":6.0,"rawHeight":9.0,"rawCrownWidth":6.0,"quality":"valid","sourceYear":2013},"geometry":{"type":"Point","coordinates":[126.99217742,37.5588538]}},{"type":"Feature","id":"street-3615","properties":{"id":"street-3615","dataset":"street","gu":"중구","species":"왕벚나무","heightM":6.0,"crownWidthM":6.0,"rawHeight":6.0,"rawCrownWidth":6.0,"quality":"valid","sourceYear":2013},"geometry":{"type":"Point","coordinates":[126.99571659,37.55560098]}},{"type":"Feature","id":"street-3646","properties":{"id":"street-3646","dataset":"street","gu":"중구","species":"왕벚나무","heightM":6.0,"crownWidthM":6.0,"rawHeight":6.0,"rawCrownWidth":6.0,"quality":"valid","sourceYear":2013},"geometry":{"type":"Point","coordinates":[126.99570282,37.55698953]}},{"type":"Feature","id":"street-3684","properties":{"id":"street-3684","dataset":"street","gu":"중구","species":"은행나무","heightM":7.0,"crownWidthM":6.0,"rawHeight":7.0,"rawCrownWidth":6.0,"quality":"valid","sourceYear":2013},"geometry":{"type":"Point","coordinates":[126.99243516,37.55763838]}},{"type":"Feature","id":"street-3838","properties":{"id":"street-3838","dataset":"street","gu":"중구","species":"은행나무","heightM":10.0,"crownWidthM":5.0,"rawHeight":10.0,"rawCrownWidth":5.0,"quality":"valid","sourceYear":2013},"geometry":{"type":"Point","coordinates":[126.99233798,37.55826881]}},{"type":"Feature","id":"street-3874","properties":{"id":"street-3874","dataset":"street","gu":"중구","species":"왕벚나무","heightM":6.0,"crownWidthM":6.0,"rawHeight":6.0,"rawCrownWidth":6.0,"quality":"valid","sourceYear":2013},"geometry":{"type":"Point","coordinates":[126.9957856,37.55559316]}},{"type":"Feature","id":"street-3969","properties":{"id":"street-3969","dataset":"street","gu":"중구","species":"왕벚나무","heightM":6.0,"crownWidthM":5.0,"rawHeight":6.0,"rawCrownWidth":5.0,"quality":"valid","sourceYear":2013},"geometry":{"type":"Point","coordinates":[126.99596733,37.5573381]}},{"type":"Feature","id":"street-3982","properties":{"id":"street-3982","dataset":"street","gu":"중구","species":"은행나무","heightM":9.0,"crownWidthM":7.0,"rawHeight":9.0,"rawCrownWidth":7.0,"quality":"valid","sourceYear":2013},"geometry":{"type":"Point","coordinates":[126.99221141,37.55878515]}},{"type":"Feature","id":"street-4035","properties":{"id":"street-4035","dataset":"street","gu":"중구","species":"은행나무","heightM":11.0,"crownWidthM":6.0,"rawHeight":11.0,"rawCrownWidth":6.0,"quality":"valid","sourceYear":2013},"geometry":{"type":"Point","coordinates":[126.99208053,37.55901766]}},{"type":"Feature","id":"street-4127","properties":{"id":"street-4127","dataset":"street","gu":"중구","species":"왕벚나무","heightM":6.0,"crownWidthM":5.0,"rawHeight":6.0,"rawCrownWidth":5.0,"quality":"valid","sourceYear":2013},"geometry":{"type":"Point","coordinates":[126.99568119,37.55640643]}},{"type":"Feature","id":"street-4192","properties":{"id":"street-4192","dataset":"street","gu":"중구","species":"왕벚나무","heightM":6.0,"crownWidthM":5.0,"rawHeight":6.0,"rawCrownWidth":5.0,"quality":"valid","sourceYear":2013},"geometry":{"type":"Point","coordinates":[126.99582784,37.55737886]}},{"type":"Feature","id":"street-4255","properties":{"id":"street-4255","dataset":"street","gu":"중구","species":"왕벚나무","heightM":7.0,"crownWidthM":6.0,"rawHeight":7.0,"rawCrownWidth":6.0,"quality":"valid","sourceYear":2013},"geometry":{"type":"Point","coordinates":[126.99568126,37.55627722]}},{"type":"Feature","id":"street-4268","properties":{"id":"street-4268","dataset":"street","gu":"중구","species":"왕벚나무","heightM":6.0,"crownWidthM":5.0,"rawHeight":6.0,"rawCrownWidth":5.0,"quality":"valid","sourceYear":2013},"geometry":{"type":"Point","coordinates":[126.9965673,37.55979549]}},{"type":"Feature","id":"street-4315","properties":{"id":"street-4315","dataset":"street","gu":"중구","species":"왕벚나무","heightM":5.0,"crownWidthM":5.0,"rawHeight":5.0,"rawCrownWidth":5.0,"quality":"valid","sourceYear":2013},"geometry":{"type":"Point","coordinates":[126.99570655,37.5561132]}},{"type":"Feature","id":"street-4371","properties":{"id":"street-4371","dataset":"street","gu":"중구","species":"왕벚나무","heightM":6.0,"crownWidthM":4.0,"rawHeight":6.0,"rawCrownWidth":4.0,"quality":"valid","sourceYear":2013},"geometry":{"type":"Point","coordinates":[126.99666667,37.55987294]}},{"type":"Feature","id":"street-4388","properties":{"id":"street-4388","dataset":"street","gu":"중구","species":"은행나무","heightM":9.0,"crownWidthM":6.0,"rawHeight":9.0,"rawCrownWidth":6.0,"quality":"valid","sourceYear":2013},"geometry":{"type":"Point","coordinates":[126.99245097,37.557565]}},{"type":"Feature","id":"street-4471","properties":{"id":"street-4471","dataset":"street","gu":"중구","species":"왕벚나무","heightM":6.0,"crownWidthM":6.0,"rawHeight":6.0,"rawCrownWidth":6.0,"quality":"valid","sourceYear":2013},"geometry":{"type":"Point","coordinates":[126.99578699,37.55685001]}},{"type":"Feature","id":"street-4649","properties":{"id":"street-4649","dataset":"street","gu":"중구","species":"왕벚나무","heightM":5.0,"crownWidthM":5.0,"rawHeight":5.0,"rawCrownWidth":5.0,"quality":"valid","sourceYear":2013},"geometry":{"type":"Point","coordinates":[126.99620275,37.55854814]}},{"type":"Feature","id":"street-4711","properties":{"id":"street-4711","dataset":"street","gu":"중구","species":"왕벚나무","heightM":5.0,"crownWidthM":6.0,"rawHeight":5.0,"rawCrownWidth":6.0,"quality":"valid","sourceYear":2013},"geometry":{"type":"Point","coordinates":[126.99570316,37.55658797]}},{"type":"Feature","id":"street-4908","properties":{"id":"street-4908","dataset":"street","gu":"중구","species":"왕벚나무","heightM":6.0,"crownWidthM":6.0,"rawHeight":6.0,"rawCrownWidth":6.0,"quality":"valid","sourceYear":2013},"geometry":{"type":"Point","coordinates":[126.99606658,37.55872727]}},{"type":"Feature","id":"street-4913","properties":{"id":"street-4913","dataset":"street","gu":"중구","species":"왕벚나무","heightM":5.0,"crownWidthM":6.0,"rawHeight":5.0,"rawCrownWidth":6.0,"quality":"valid","sourceYear":2013},"geometry":{"type":"Point","coordinates":[126.99574639,37.55595386]}},{"type":"Feature","id":"street-4921","properties":{"id":"street-4921","dataset":"street","gu":"중구","species":"왕벚나무","heightM":3.0,"crownWidthM":6.0,"rawHeight":3.0,"rawCrownWidth":6.0,"quality":"valid","sourceYear":2013},"geometry":{"type":"Point","coordinates":[126.9961175,37.55925006]}},{"type":"Feature","id":"street-4952","properties":{"id":"street-4952","dataset":"street","gu":"중구","species":"왕벚나무","heightM":5.0,"crownWidthM":6.0,"rawHeight":5.0,"rawCrownWidth":6.0,"quality":"valid","sourceYear":2013},"geometry":{"type":"Point","coordinates":[126.99585354,37.55702133]}},{"type":"Feature","id":"street-4958","properties":{"id":"street-4958","dataset":"street","gu":"중구","species":"왕벚나무","heightM":6.0,"crownWidthM":4.0,"rawHeight":6.0,"rawCrownWidth":4.0,"quality":"valid","sourceYear":2013},"geometry":{"type":"Point","coordinates":[126.99619244,37.55847127]}},{"type":"Feature","id":"street-4964","properties":{"id":"street-4964","dataset":"street","gu":"중구","species":"왕벚나무","heightM":6.0,"crownWidthM":5.0,"rawHeight":6.0,"rawCrownWidth":5.0,"quality":"valid","sourceYear":2013},"geometry":{"type":"Point","coordinates":[126.99557374,37.55657535]}},{"type":"Feature","id":"street-5010","properties":{"id":"street-5010","dataset":"street","gu":"중구","species":"왕벚나무","heightM":5.0,"crownWidthM":5.0,"rawHeight":5.0,"rawCrownWidth":5.0,"quality":"valid","sourceYear":2013},"geometry":{"type":"Point","coordinates":[126.99624807,37.55880873]}},{"type":"Feature","id":"street-5356","properties":{"id":"street-5356","dataset":"street","gu":"중구","species":"은행나무","heightM":8.0,"crownWidthM":6.0,"rawHeight":8.0,"rawCrownWidth":6.0,"quality":"valid","sourceYear":2013},"geometry":{"type":"Point","coordinates":[126.99232917,37.55840639]}},{"type":"Feature","id":"street-5544","properties":{"id":"street-5544","dataset":"street","gu":"중구","species":"왕벚나무","heightM":6.0,"crownWidthM":6.0,"rawHeight":6.0,"rawCrownWidth":6.0,"quality":"valid","sourceYear":2013},"geometry":{"type":"Point","coordinates":[126.99579107,37.55577956]}},{"type":"Feature","id":"street-5570","properties":{"id":"street-5570","dataset":"street","gu":"중구","species":"은행나무","heightM":12.0,"crownWidthM":6.0,"rawHeight":12.0,"rawCrownWidth":6.0,"quality":"valid","sourceYear":2013},"geometry":{"type":"Point","coordinates":[126.99223585,37.55871967]}},{"type":"Feature","id":"street-5630","properties":{"id":"street-5630","dataset":"street","gu":"중구","species":"왕벚나무","heightM":6.0,"crownWidthM":6.0,"rawHeight":6.0,"rawCrownWidth":6.0,"quality":"valid","sourceYear":2013},"geometry":{"type":"Point","coordinates":[126.99578617,37.55563547]}},{"type":"Feature","id":"street-5717","properties":{"id":"street-5717","dataset":"street","gu":"중구","species":"왕벚나무","heightM":5.0,"crownWidthM":6.0,"rawHeight":5.0,"rawCrownWidth":6.0,"quality":"valid","sourceYear":2013},"geometry":{"type":"Point","coordinates":[126.9958869,37.55772515]}},{"type":"Feature","id":"street-6226","properties":{"id":"street-6226","dataset":"street","gu":"중구","species":"은행나무","heightM":10.0,"crownWidthM":7.0,"rawHeight":10.0,"rawCrownWidth":7.0,"quality":"valid","sourceYear":2013},"geometry":{"type":"Point","coordinates":[126.99211827,37.55895546]}},{"type":"Feature","id":"street-7310","properties":{"id":"street-7310","dataset":"street","gu":"중구","species":"왕벚나무","heightM":5.0,"crownWidthM":6.0,"rawHeight":5.0,"rawCrownWidth":6.0,"quality":"valid","sourceYear":2013},"geometry":{"type":"Point","coordinates":[126.99605034,37.5577273]}},{"type":"Feature","id":"street-7793","properties":{"id":"street-7793","dataset":"street","gu":"중구","species":"왕벚나무","heightM":5.0,"crownWidthM":5.0,"rawHeight":5.0,"rawCrownWidth":5.0,"quality":"valid","sourceYear":2013},"geometry":{"type":"Point","coordinates":[126.99560836,37.55669858]}},{"type":"Feature","id":"street-7937","properties":{"id":"street-7937","dataset":"street","gu":"중구","species":"왕벚나무","heightM":6.0,"crownWidthM":6.0,"rawHeight":6.0,"rawCrownWidth":6.0,"quality":"valid","sourceYear":2013},"geometry":{"type":"Point","coordinates":[126.99552242,37.55604937]}},{"type":"Feature","id":"street-8010","properties":{"id":"street-8010","dataset":"street","gu":"중구","species":"왕벚나무","heightM":6.0,"crownWidthM":5.0,"rawHeight":6.0,"rawCrownWidth":5.0,"quality":"valid","sourceYear":2013},"geometry":{"type":"Point","coordinates":[126.9955157,37.55610017]}},{"type":"Feature","id":"street-8019","properties":{"id":"street-8019","dataset":"street","gu":"중구","species":"왕벚나무","heightM":6.0,"crownWidthM":5.0,"rawHeight":6.0,"rawCrownWidth":5.0,"quality":"valid","sourceYear":2013},"geometry":{"type":"Point","coordinates":[126.99567762,37.556477]}},{"type":"Feature","id":"street-8195","properties":{"id":"street-8195","dataset":"street","gu":"중구","species":"왕벚나무","heightM":5.0,"crownWidthM":4.0,"rawHeight":5.0,"rawCrownWidth":4.0,"quality":"valid","sourceYear":2013},"geometry":{"type":"Point","coordinates":[126.99672642,37.55992632]}},{"type":"Feature","id":"street-8296","properties":{"id":"street-8296","dataset":"street","gu":"중구","species":"왕벚나무","heightM":5.0,"crownWidthM":6.0,"rawHeight":5.0,"rawCrownWidth":6.0,"quality":"valid","sourceYear":2013},"geometry":{"type":"Point","coordinates":[126.99589486,37.55778601]}},{"type":"Feature","id":"street-8395","properties":{"id":"street-8395","dataset":"street","gu":"중구","species":"왕벚나무","heightM":6.0,"crownWidthM":6.0,"rawHeight":6.0,"rawCrownWidth":6.0,"quality":"valid","sourceYear":2013},"geometry":{"type":"Point","coordinates":[126.995724,37.55665479]}},{"type":"Feature","id":"street-8527","properties":{"id":"street-8527","dataset":"street","gu":"중구","species":"왕벚나무","heightM":5.0,"crownWidthM":4.0,"rawHeight":5.0,"rawCrownWidth":4.0,"quality":"valid","sourceYear":2013},"geometry":{"type":"Point","coordinates":[126.99610095,37.5596042]}},{"type":"Feature","id":"street-8686","properties":{"id":"street-8686","dataset":"street","gu":"중구","species":"왕벚나무","heightM":6.0,"crownWidthM":6.0,"rawHeight":6.0,"rawCrownWidth":6.0,"quality":"valid","sourceYear":2013},"geometry":{"type":"Point","coordinates":[126.99610594,37.55917827]}},{"type":"Feature","id":"street-8852","properties":{"id":"street-8852","dataset":"street","gu":"중구","species":"은행나무","heightM":12.0,"crownWidthM":7.0,"rawHeight":12.0,"rawCrownWidth":7.0,"quality":"valid","sourceYear":2013},"geometry":{"type":"Point","coordinates":[126.99240422,37.55775542]}},{"type":"Feature","id":"street-9512","properties":{"id":"street-9512","dataset":"street","gu":"중구","species":"은행나무","heightM":9.0,"crownWidthM":6.0,"rawHeight":9.0,"rawCrownWidth":6.0,"quality":"valid","sourceYear":2013},"geometry":{"type":"Point","coordinates":[126.99197225,37.55916058]}},{"type":"Feature","id":"street-9898","properties":{"id":"street-9898","dataset":"street","gu":"중구","species":"왕벚나무","heightM":5.0,"crownWidthM":5.0,"rawHeight":5.0,"rawCrownWidth":5.0,"quality":"valid","sourceYear":2013},"geometry":{"type":"Point","coordinates":[126.99626421,37.55888905]}},{"type":"Feature","id":"street-9911","properties":{"id":"street-9911","dataset":"street","gu":"중구","species":"왕벚나무","heightM":4.0,"crownWidthM":2.0,"rawHeight":4.0,"rawCrownWidth":2.0,"quality":"valid","sourceYear":2013},"geometry":{"type":"Point","coordinates":[126.99650307,37.55988342]}},{"type":"Feature","id":"street-10066","properties":{"id":"street-10066","dataset":"street","gu":"중구","species":"은행나무","heightM":10.0,"crownWidthM":5.0,"rawHeight":10.0,"rawCrownWidth":5.0,"quality":"valid","sourceYear":2013},"geometry":{"type":"Point","coordinates":[126.99235784,37.55809067]}},{"type":"Feature","id":"street-10296","properties":{"id":"street-10296","dataset":"street","gu":"중구","species":"왕벚나무","heightM":5.0,"crownWidthM":6.0,"rawHeight":5.0,"rawCrownWidth":6.0,"quality":"valid","sourceYear":2013},"geometry":{"type":"Point","coordinates":[126.99610362,37.55910832]}},{"type":"Feature","id":"street-10511","properties":{"id":"street-10511","dataset":"street","gu":"중구","species":"왕벚나무","heightM":4.0,"crownWidthM":2.0,"rawHeight":4.0,"rawCrownWidth":2.0,"quality":"valid","sourceYear":2013},"geometry":{"type":"Point","coordinates":[126.99654898,37.55992809]}},{"type":"Feature","id":"street-10820","properties":{"id":"street-10820","dataset":"street","gu":"중구","species":"왕벚나무","heightM":4.0,"crownWidthM":6.0,"rawHeight":4.0,"rawCrownWidth":6.0,"quality":"valid","sourceYear":2013},"geometry":{"type":"Point","coordinates":[126.99608399,37.55990823]}},{"type":"Feature","id":"street-10821","properties":{"id":"street-10821","dataset":"street","gu":"중구","species":"왕벚나무","heightM":4.0,"crownWidthM":6.0,"rawHeight":4.0,"rawCrownWidth":6.0,"quality":"valid","sourceYear":2013},"geometry":{"type":"Point","coordinates":[126.99610123,37.55984327]}},{"type":"Feature","id":"street-10931","properties":{"id":"street-10931","dataset":"street","gu":"중구","species":"왕벚나무","heightM":6.0,"crownWidthM":5.0,"rawHeight":6.0,"rawCrownWidth":5.0,"quality":"valid","sourceYear":2013},"geometry":{"type":"Point","coordinates":[126.99627469,37.55939079]}},{"type":"Feature","id":"street-10934","properties":{"id":"street-10934","dataset":"street","gu":"중구","species":"은행나무","heightM":9.0,"crownWidthM":7.0,"rawHeight":9.0,"rawCrownWidth":7.0,"quality":"valid","sourceYear":2013},"geometry":{"type":"Point","coordinates":[126.99246441,37.55750836]}},{"type":"Feature","id":"street-194081","properties":{"id":"street-194081","dataset":"street","gu":"중구","species":"왕벚나무","heightM":6.0,"crownWidthM":6.0,"rawHeight":6.0,"rawCrownWidth":6.0,"quality":"valid","sourceYear":2013},"geometry":{"type":"Point","coordinates":[126.99592738,37.55790797]}},{"type":"Feature","id":"street-195834","properties":{"id":"street-195834","dataset":"street","gu":"중구","species":"은행나무","heightM":10.0,"crownWidthM":6.0,"rawHeight":10.0,"rawCrownWidth":6.0,"quality":"valid","sourceYear":2013},"geometry":{"type":"Point","coordinates":[126.99182551,37.55932059]}},{"type":"Feature","id":"street-195848","properties":{"id":"street-195848","dataset":"street","gu":"중구","species":"왕벚나무","heightM":6.0,"crownWidthM":5.0,"rawHeight":6.0,"rawCrownWidth":5.0,"quality":"valid","sourceYear":2013},"geometry":{"type":"Point","coordinates":[126.99609084,37.55792726]}},{"type":"Feature","id":"street-196194","properties":{"id":"street-196194","dataset":"street","gu":"중구","species":"은행나무","heightM":10.0,"crownWidthM":6.0,"rawHeight":10.0,"rawCrownWidth":6.0,"quality":"valid","sourceYear":2013},"geometry":{"type":"Point","coordinates":[126.99193121,37.55921064]}},{"type":"Feature","id":"street-196569","properties":{"id":"street-196569","dataset":"street","gu":"중구","species":"왕벚나무","heightM":6.0,"crownWidthM":5.0,"rawHeight":6.0,"rawCrownWidth":5.0,"quality":"valid","sourceYear":2013},"geometry":{"type":"Point","coordinates":[126.99572508,37.55605549]}},{"type":"Feature","id":"street-230919","properties":{"id":"street-230919","dataset":"street","gu":"중구","species":"왕벚나무","heightM":6.0,"crownWidthM":7.0,"rawHeight":6.0,"rawCrownWidth":7.0,"quality":"valid","sourceYear":2013},"geometry":{"type":"Point","coordinates":[126.99551155,37.55621349]}},{"type":"Feature","id":"street-231997","properties":{"id":"street-231997","dataset":"street","gu":"중구","species":"왕벚나무","heightM":6.0,"crownWidthM":5.0,"rawHeight":6.0,"rawCrownWidth":5.0,"quality":"valid","sourceYear":2013},"geometry":{"type":"Point","coordinates":[126.99610971,37.55801377]}},{"type":"Feature","id":"street-242130","properties":{"id":"street-242130","dataset":"street","gu":"중구","species":"왕벚나무","heightM":4.0,"crownWidthM":4.0,"rawHeight":4.0,"rawCrownWidth":4.0,"quality":"valid","sourceYear":2013},"geometry":{"type":"Point","coordinates":[126.99608279,37.55997654]}},{"type":"Feature","id":"street-242133","properties":{"id":"street-242133","dataset":"street","gu":"중구","species":"왕벚나무","heightM":6.0,"crownWidthM":6.0,"rawHeight":6.0,"rawCrownWidth":6.0,"quality":"valid","sourceYear":2013},"geometry":{"type":"Point","coordinates":[126.99602478,37.55753285]}},{"type":"Feature","id":"street-242496","properties":{"id":"street-242496","dataset":"street","gu":"중구","species":"왕벚나무","heightM":6.0,"crownWidthM":5.0,"rawHeight":6.0,"rawCrownWidth":5.0,"quality":"valid","sourceYear":2013},"geometry":{"type":"Point","coordinates":[126.9958055,37.55691089]}},{"type":"Feature","id":"street-243302","properties":{"id":"street-243302","dataset":"street","gu":"중구","species":"은행나무","heightM":9.0,"crownWidthM":7.0,"rawHeight":9.0,"rawCrownWidth":7.0,"quality":"valid","sourceYear":2013},"geometry":{"type":"Point","coordinates":[126.9923225,37.55847899]}},{"type":"Feature","id":"street-243307","properties":{"id":"street-243307","dataset":"street","gu":"중구","species":"왕벚나무","heightM":6.0,"crownWidthM":5.0,"rawHeight":6.0,"rawCrownWidth":5.0,"quality":"valid","sourceYear":2013},"geometry":{"type":"Point","coordinates":[126.99609438,37.55899419]}},{"type":"Feature","id":"street-243635","properties":{"id":"street-243635","dataset":"street","gu":"중구","species":"은행나무","heightM":12.0,"crownWidthM":6.0,"rawHeight":12.0,"rawCrownWidth":6.0,"quality":"valid","sourceYear":2013},"geometry":{"type":"Point","coordinates":[126.99234901,37.55815064]}},{"type":"Feature","id":"street-244314","properties":{"id":"street-244314","dataset":"street","gu":"중구","species":"왕벚나무","heightM":5.0,"crownWidthM":6.0,"rawHeight":5.0,"rawCrownWidth":6.0,"quality":"valid","sourceYear":2013},"geometry":{"type":"Point","coordinates":[126.99579406,37.55724438]}},{"type":"Feature","id":"street-246141","properties":{"id":"street-246141","dataset":"street","gu":"중구","species":"은행나무","heightM":8.0,"crownWidthM":6.0,"rawHeight":8.0,"rawCrownWidth":6.0,"quality":"valid","sourceYear":2013},"geometry":{"type":"Point","coordinates":[126.99236003,37.55802717]}},{"type":"Feature","id":"street-246489","properties":{"id":"street-246489","dataset":"street","gu":"중구","species":"왕벚나무","heightM":6.0,"crownWidthM":6.0,"rawHeight":6.0,"rawCrownWidth":6.0,"quality":"valid","sourceYear":2013},"geometry":{"type":"Point","coordinates":[126.99568995,37.55622296]}},{"type":"Feature","id":"street-247741","properties":{"id":"street-247741","dataset":"street","gu":"중구","species":"왕벚나무","heightM":6.0,"crownWidthM":5.0,"rawHeight":6.0,"rawCrownWidth":5.0,"quality":"valid","sourceYear":2013},"geometry":{"type":"Point","coordinates":[126.9962674,37.55897439]}},{"type":"Feature","id":"street-248074","properties":{"id":"street-248074","dataset":"street","gu":"중구","species":"왕벚나무","heightM":6.0,"crownWidthM":5.0,"rawHeight":6.0,"rawCrownWidth":5.0,"quality":"valid","sourceYear":2013},"geometry":{"type":"Point","coordinates":[126.99591219,37.55718285]}},{"type":"Feature","id":"street-248785","properties":{"id":"street-248785","dataset":"street","gu":"중구","species":"왕벚나무","heightM":5.0,"crownWidthM":5.0,"rawHeight":5.0,"rawCrownWidth":5.0,"quality":"valid","sourceYear":2013},"geometry":{"type":"Point","coordinates":[126.99581606,37.5573099]}},{"type":"Feature","id":"street-249463","properties":{"id":"street-249463","dataset":"street","gu":"중구","species":"왕벚나무","heightM":5.0,"crownWidthM":6.0,"rawHeight":5.0,"rawCrownWidth":6.0,"quality":"valid","sourceYear":2013},"geometry":{"type":"Point","coordinates":[126.99626588,37.55921744]}},{"type":"Feature","id":"street-250317","properties":{"id":"street-250317","dataset":"street","gu":"중구","species":"은행나무","heightM":9.0,"crownWidthM":7.0,"rawHeight":9.0,"rawCrownWidth":7.0,"quality":"valid","sourceYear":2013},"geometry":{"type":"Point","coordinates":[126.99200977,37.55911177]}},{"type":"Feature","id":"street-250662","properties":{"id":"street-250662","dataset":"street","gu":"중구","species":"왕벚나무","heightM":4.0,"crownWidthM":2.0,"rawHeight":4.0,"rawCrownWidth":2.0,"quality":"valid","sourceYear":2013},"geometry":{"type":"Point","coordinates":[126.99661529,37.55998088]}},{"type":"Feature","id":"park-private-3008","properties":{"id":"park-private-3008","dataset":"park-private","gu":"중구","species":"느티나무","heightM":20.0,"crownWidthM":11.0,"rawHeight":20.0,"rawCrownWidth":11.0,"quality":"valid","sourceYear":2013},"geometry":{"type":"Point","coordinates":[126.99363906,37.55584252]}},{"type":"Feature","id":"park-private-3011","properties":{"id":"park-private-3011","dataset":"park-private","gu":"중구","species":"아카시아나무","heightM":21.0,"crownWidthM":7.0,"rawHeight":21.0,"rawCrownWidth":7.0,"quality":"valid","sourceYear":2013},"geometry":{"type":"Point","coordinates":[126.99986026,37.55961671]}},{"type":"Feature","id":"park-private-3145","properties":{"id":"park-private-3145","dataset":"park-private","gu":"중구","species":"은행나무","heightM":24.0,"crownWidthM":8.0,"rawHeight":24.0,"rawCrownWidth":8.0,"quality":"valid","sourceYear":2013},"geometry":{"type":"Point","coordinates":[126.99520614,37.55943927]}},{"type":"Feature","id":"park-private-3163","properties":{"id":"park-private-3163","dataset":"park-private","gu":"중구","species":"아카시아나무","heightM":28.0,"crownWidthM":12.0,"rawHeight":28.0,"rawCrownWidth":12.0,"quality":"valid","sourceYear":2013},"geometry":{"type":"Point","coordinates":[126.99421709,37.55975791]}},{"type":"Feature","id":"park-private-3164","properties":{"id":"park-private-3164","dataset":"park-private","gu":"중구","species":"아카시아나무","heightM":22.0,"crownWidthM":10.0,"rawHeight":22.0,"rawCrownWidth":10.0,"quality":"valid","sourceYear":2013},"geometry":{"type":"Point","coordinates":[126.99242631,37.55835921]}},{"type":"Feature","id":"park-private-3165","properties":{"id":"park-private-3165","dataset":"park-private","gu":"중구","species":"양버즘나무","heightM":16.0,"crownWidthM":6.0,"rawHeight":16.0,"rawCrownWidth":6.0,"quality":"valid","sourceYear":2013},"geometry":{"type":"Point","coordinates":[126.99973236,37.55815364]}},{"type":"Feature","id":"park-private-3226","properties":{"id":"park-private-3226","dataset":"park-private","gu":"중구","species":"아카시아나무","heightM":20.0,"crownWidthM":9.0,"rawHeight":20.0,"rawCrownWidth":9.0,"quality":"valid","sourceYear":2013},"geometry":{"type":"Point","coordinates":[126.99880319,37.55967002]}},{"type":"Feature","id":"park-private-3227","properties":{"id":"park-private-3227","dataset":"park-private","gu":"중구","species":"회화나무","heightM":18.0,"crownWidthM":7.0,"rawHeight":18.0,"rawCrownWidth":7.0,"quality":"valid","sourceYear":2013},"geometry":{"type":"Point","coordinates":[126.99891656,37.55952904]}},{"type":"Feature","id":"park-private-3228","properties":{"id":"park-private-3228","dataset":"park-private","gu":"중구","species":"회화나무","heightM":17.0,"crownWidthM":11.0,"rawHeight":17.0,"rawCrownWidth":11.0,"quality":"valid","sourceYear":2013},"geometry":{"type":"Point","coordinates":[126.99988157,37.55998359]}},{"type":"Feature","id":"park-private-3230","properties":{"id":"park-private-3230","dataset":"park-private","gu":"중구","species":"느티나무","heightM":20.0,"crownWidthM":10.0,"rawHeight":20.0,"rawCrownWidth":10.0,"quality":"valid","sourceYear":2013},"geometry":{"type":"Point","coordinates":[126.99961922,37.55984236]}},{"type":"Feature","id":"park-private-3237","properties":{"id":"park-private-3237","dataset":"park-private","gu":"중구","species":"느티나무","heightM":16.0,"crownWidthM":8.0,"rawHeight":16.0,"rawCrownWidth":8.0,"quality":"valid","sourceYear":2013},"geometry":{"type":"Point","coordinates":[126.99457817,37.55986426]}},{"type":"Feature","id":"park-private-3238","properties":{"id":"park-private-3238","dataset":"park-private","gu":"중구","species":"아카시아나무","heightM":27.0,"crownWidthM":11.0,"rawHeight":27.0,"rawCrownWidth":11.0,"quality":"valid","sourceYear":2013},"geometry":{"type":"Point","coordinates":[126.99449968,37.55966732]}},{"type":"Feature","id":"park-private-3239","properties":{"id":"park-private-3239","dataset":"park-private","gu":"중구","species":"소나무","heightM":17.0,"crownWidthM":8.0,"rawHeight":17.0,"rawCrownWidth":8.0,"quality":"valid","sourceYear":2013},"geometry":{"type":"Point","coordinates":[126.99469984,37.55987679]}},{"type":"Feature","id":"park-private-3240","properties":{"id":"park-private-3240","dataset":"park-private","gu":"중구","species":"은행나무","heightM":17.0,"crownWidthM":7.0,"rawHeight":17.0,"rawCrownWidth":7.0,"quality":"valid","sourceYear":2013},"geometry":{"type":"Point","coordinates":[126.99333262,37.55714718]}},{"type":"Feature","id":"park-private-3241","properties":{"id":"park-private-3241","dataset":"park-private","gu":"중구","species":"아카시아나무","heightM":25.0,"crownWidthM":10.0,"rawHeight":25.0,"rawCrownWidth":10.0,"quality":"valid","sourceYear":2013},"geometry":{"type":"Point","coordinates":[126.99284572,37.55685633]}},{"type":"Feature","id":"park-private-3242","properties":{"id":"park-private-3242","dataset":"park-private","gu":"중구","species":"아카시아나무","heightM":25.0,"crownWidthM":10.0,"rawHeight":25.0,"rawCrownWidth":10.0,"quality":"valid","sourceYear":2013},"geometry":{"type":"Point","coordinates":[126.99259858,37.55728745]}},{"type":"Feature","id":"park-private-3244","properties":{"id":"park-private-3244","dataset":"park-private","gu":"중구","species":"아카시아나무","heightM":23.0,"crownWidthM":6.0,"rawHeight":23.0,"rawCrownWidth":6.0,"quality":"valid","sourceYear":2013},"geometry":{"type":"Point","coordinates":[126.99958702,37.55763126]}},{"type":"Feature","id":"park-private-3330","properties":{"id":"park-private-3330","dataset":"park-private","gu":"중구","species":"은행나무","heightM":12.0,"crownWidthM":6.0,"rawHeight":12.0,"rawCrownWidth":6.0,"quality":"valid","sourceYear":2013},"geometry":{"type":"Point","coordinates":[126.99513212,37.55556581]}},{"type":"Feature","id":"park-private-3459","properties":{"id":"park-private-3459","dataset":"park-private","gu":"중구","species":"아카시아나무","heightM":26.0,"crownWidthM":13.0,"rawHeight":26.0,"rawCrownWidth":13.0,"quality":"valid","sourceYear":2013},"geometry":{"type":"Point","coordinates":[126.9925987,37.55757182]}},{"type":"Feature","id":"park-private-3534","properties":{"id":"park-private-3534","dataset":"park-private","gu":"중구","species":"음나무","heightM":22.0,"crownWidthM":6.0,"rawHeight":22.0,"rawCrownWidth":6.0,"quality":"valid","sourceYear":2013},"geometry":{"type":"Point","coordinates":[126.9953272,37.55544441]}},{"type":"Feature","id":"park-private-3548","properties":{"id":"park-private-3548","dataset":"park-private","gu":"중구","species":"양버즘나무","heightM":17.0,"crownWidthM":7.0,"rawHeight":17.0,"rawCrownWidth":7.0,"quality":"valid","sourceYear":2013},"geometry":{"type":"Point","coordinates":[126.99989562,37.55852362]}},{"type":"Feature","id":"park-private-3609","properties":{"id":"park-private-3609","dataset":"park-private","gu":"중구","species":"회화나무","heightM":22.0,"crownWidthM":8.0,"rawHeight":22.0,"rawCrownWidth":8.0,"quality":"valid","sourceYear":2013},"geometry":{"type":"Point","coordinates":[126.99996314,37.55944158]}},{"type":"Feature","id":"park-private-3632","properties":{"id":"park-private-3632","dataset":"park-private","gu":"중구","species":"아카시아나무","heightM":19.0,"crownWidthM":9.0,"rawHeight":19.0,"rawCrownWidth":9.0,"quality":"valid","sourceYear":2013},"geometry":{"type":"Point","coordinates":[126.99880688,37.55981951]}},{"type":"Feature","id":"park-private-3637","properties":{"id":"park-private-3637","dataset":"park-private","gu":"중구","species":"느티나무","heightM":17.0,"crownWidthM":10.0,"rawHeight":17.0,"rawCrownWidth":10.0,"quality":"valid","sourceYear":2013},"geometry":{"type":"Point","coordinates":[126.99483721,37.55993309]}},{"type":"Feature","id":"park-private-3638","properties":{"id":"park-private-3638","dataset":"park-private","gu":"중구","species":"아카시아나무","heightM":28.0,"crownWidthM":11.0,"rawHeight":28.0,"rawCrownWidth":11.0,"quality":"valid","sourceYear":2013},"geometry":{"type":"Point","coordinates":[126.99271241,37.55723126]}},{"type":"Feature","id":"park-private-3639","properties":{"id":"park-private-3639","dataset":"park-private","gu":"중구","species":"양버즘나무","heightM":17.0,"crownWidthM":5.0,"rawHeight":17.0,"rawCrownWidth":5.0,"quality":"valid","sourceYear":2013},"geometry":{"type":"Point","coordinates":[126.99953739,37.55758046]}},{"type":"Feature","id":"park-private-3711","properties":{"id":"park-private-3711","dataset":"park-private","gu":"중구","species":"느티나무","heightM":16.0,"crownWidthM":10.0,"rawHeight":16.0,"rawCrownWidth":10.0,"quality":"valid","sourceYear":2013},"geometry":{"type":"Point","coordinates":[126.99387648,37.55631675]}},{"type":"Feature","id":"park-private-3713","properties":{"id":"park-private-3713","dataset":"park-private","gu":"중구","species":"아카시아나무","heightM":26.0,"crownWidthM":10.0,"rawHeight":26.0,"rawCrownWidth":10.0,"quality":"valid","sourceYear":2013},"geometry":{"type":"Point","coordinates":[126.99423273,37.55967978]}},{"type":"Feature","id":"park-private-3734","properties":{"id":"park-private-3734","dataset":"park-private","gu":"중구","species":"느티나무","heightM":21.0,"crownWidthM":10.0,"rawHeight":21.0,"rawCrownWidth":10.0,"quality":"valid","sourceYear":2013},"geometry":{"type":"Point","coordinates":[126.99435446,37.55990486]}},{"type":"Feature","id":"park-private-3777","properties":{"id":"park-private-3777","dataset":"park-private","gu":"중구","species":"아카시아나무","heightM":24.0,"crownWidthM":12.0,"rawHeight":24.0,"rawCrownWidth":12.0,"quality":"valid","sourceYear":2013},"geometry":{"type":"Point","coordinates":[126.99244204,37.55844688]}},{"type":"Feature","id":"park-private-3786","properties":{"id":"park-private-3786","dataset":"park-private","gu":"중구","species":"아카시아나무","heightM":29.0,"crownWidthM":7.0,"rawHeight":29.0,"rawCrownWidth":7.0,"quality":"valid","sourceYear":2013},"geometry":{"type":"Point","coordinates":[126.99304372,37.55647152]}},{"type":"Feature","id":"park-private-3789","properties":{"id":"park-private-3789","dataset":"park-private","gu":"중구","species":"아카시아나무","heightM":17.0,"crownWidthM":9.0,"rawHeight":17.0,"rawCrownWidth":9.0,"quality":"valid","sourceYear":2013},"geometry":{"type":"Point","coordinates":[126.99887408,37.55961646]}},{"type":"Feature","id":"park-private-3915","properties":{"id":"park-private-3915","dataset":"park-private","gu":"중구","species":"은행나무","heightM":18.0,"crownWidthM":6.0,"rawHeight":18.0,"rawCrownWidth":6.0,"quality":"valid","sourceYear":2013},"geometry":{"type":"Point","coordinates":[126.99635887,37.5562912]}},{"type":"Feature","id":"park-private-3939","properties":{"id":"park-private-3939","dataset":"park-private","gu":"중구","species":"은행나무","heightM":17.0,"crownWidthM":7.0,"rawHeight":17.0,"rawCrownWidth":7.0,"quality":"valid","sourceYear":2013},"geometry":{"type":"Point","coordinates":[126.99625958,37.55628556]}},{"type":"Feature","id":"park-private-4017","properties":{"id":"park-private-4017","dataset":"park-private","gu":"중구","species":"단풍나무","heightM":13.0,"crownWidthM":6.0,"rawHeight":13.0,"rawCrownWidth":6.0,"quality":"valid","sourceYear":2013},"geometry":{"type":"Point","coordinates":[126.99457146,37.55659053]}},{"type":"Feature","id":"park-private-4018","properties":{"id":"park-private-4018","dataset":"park-private","gu":"중구","species":"측백나무","heightM":10.0,"crownWidthM":5.0,"rawHeight":10.0,"rawCrownWidth":5.0,"quality":"valid","sourceYear":2013},"geometry":{"type":"Point","coordinates":[126.99481968,37.55662722]}},{"type":"Feature","id":"park-private-4079","properties":{"id":"park-private-4079","dataset":"park-private","gu":"중구","species":"아카시아나무","heightM":28.0,"crownWidthM":9.0,"rawHeight":28.0,"rawCrownWidth":9.0,"quality":"valid","sourceYear":2013},"geometry":{"type":"Point","coordinates":[126.99262993,37.55715622]}},{"type":"Feature","id":"park-private-4086","properties":{"id":"park-private-4086","dataset":"park-private","gu":"중구","species":"양버즘나무","heightM":17.0,"crownWidthM":6.0,"rawHeight":17.0,"rawCrownWidth":6.0,"quality":"valid","sourceYear":2013},"geometry":{"type":"Point","coordinates":[126.99975365,37.55820165]}},{"type":"Feature","id":"park-private-4094","properties":{"id":"park-private-4094","dataset":"park-private","gu":"중구","species":"은행나무","heightM":25.0,"crownWidthM":7.0,"rawHeight":25.0,"rawCrownWidth":7.0,"quality":"valid","sourceYear":2013},"geometry":{"type":"Point","coordinates":[126.99238684,37.55870085]}},{"type":"Feature","id":"park-private-4103","properties":{"id":"park-private-4103","dataset":"park-private","gu":"중구","species":"양버즘나무","heightM":17.0,"crownWidthM":7.0,"rawHeight":17.0,"rawCrownWidth":7.0,"quality":"valid","sourceYear":2013},"geometry":{"type":"Point","coordinates":[126.99984238,37.55842195]}},{"type":"Feature","id":"park-private-4169","properties":{"id":"park-private-4169","dataset":"park-private","gu":"중구","species":"느티나무","heightM":24.0,"crownWidthM":11.0,"rawHeight":24.0,"rawCrownWidth":11.0,"quality":"valid","sourceYear":2013},"geometry":{"type":"Point","coordinates":[126.99910444,37.55932589]}},{"type":"Feature","id":"park-private-4171","properties":{"id":"park-private-4171","dataset":"park-private","gu":"중구","species":"느티나무","heightM":14.0,"crownWidthM":6.0,"rawHeight":14.0,"rawCrownWidth":6.0,"quality":"valid","sourceYear":2013},"geometry":{"type":"Point","coordinates":[126.99344247,37.55698161]}},{"type":"Feature","id":"park-private-4185","properties":{"id":"park-private-4185","dataset":"park-private","gu":"중구","species":"아카시아나무","heightM":25.0,"crownWidthM":8.0,"rawHeight":25.0,"rawCrownWidth":8.0,"quality":"valid","sourceYear":2013},"geometry":{"type":"Point","coordinates":[126.99245745,37.55876045]}},{"type":"Feature","id":"park-private-4197","properties":{"id":"park-private-4197","dataset":"park-private","gu":"중구","species":"느티나무","heightM":18.0,"crownWidthM":9.0,"rawHeight":18.0,"rawCrownWidth":9.0,"quality":"valid","sourceYear":2013},"geometry":{"type":"Point","coordinates":[126.99446435,37.55974858]}},{"type":"Feature","id":"park-private-4223","properties":{"id":"park-private-4223","dataset":"park-private","gu":"중구","species":"느티나무","heightM":32.0,"crownWidthM":10.0,"rawHeight":32.0,"rawCrownWidth":10.0,"quality":"valid","sourceYear":2013},"geometry":{"type":"Point","coordinates":[126.99622749,37.55681909]}},{"type":"Feature","id":"park-private-4295","properties":{"id":"park-private-4295","dataset":"park-private","gu":"중구","species":"양버즘나무","heightM":16.0,"crownWidthM":6.0,"rawHeight":16.0,"rawCrownWidth":6.0,"quality":"valid","sourceYear":2013},"geometry":{"type":"Point","coordinates":[126.99971816,37.55811127]}},{"type":"Feature","id":"park-private-4304","properties":{"id":"park-private-4304","dataset":"park-private","gu":"중구","species":"느티나무","heightM":22.0,"crownWidthM":9.0,"rawHeight":22.0,"rawCrownWidth":9.0,"quality":"valid","sourceYear":2013},"geometry":{"type":"Point","coordinates":[126.9944251,37.55994238]}},{"type":"Feature","id":"park-private-4314","properties":{"id":"park-private-4314","dataset":"park-private","gu":"중구","species":"아카시아나무","heightM":28.0,"crownWidthM":7.0,"rawHeight":28.0,"rawCrownWidth":7.0,"quality":"valid","sourceYear":2013},"geometry":{"type":"Point","coordinates":[126.99503292,37.55526659]}},{"type":"Feature","id":"park-private-4389","properties":{"id":"park-private-4389","dataset":"park-private","gu":"중구","species":"아카시아나무","heightM":22.0,"crownWidthM":8.0,"rawHeight":22.0,"rawCrownWidth":8.0,"quality":"valid","sourceYear":2013},"geometry":{"type":"Point","coordinates":[126.99947738,37.55990154]}},{"type":"Feature","id":"park-private-4390","properties":{"id":"park-private-4390","dataset":"park-private","gu":"중구","species":"아카시아나무","heightM":25.0,"crownWidthM":6.0,"rawHeight":25.0,"rawCrownWidth":6.0,"quality":"valid","sourceYear":2013},"geometry":{"type":"Point","coordinates":[126.99949134,37.55748448]}},{"type":"Feature","id":"park-private-4476","properties":{"id":"park-private-4476","dataset":"park-private","gu":"중구","species":"아카시아나무","heightM":24.0,"crownWidthM":11.0,"rawHeight":24.0,"rawCrownWidth":11.0,"quality":"valid","sourceYear":2013},"geometry":{"type":"Point","coordinates":[126.99254407,37.55849708]}},{"type":"Feature","id":"park-private-4477","properties":{"id":"park-private-4477","dataset":"park-private","gu":"중구","species":"아카시아나무","heightM":27.0,"crownWidthM":12.0,"rawHeight":27.0,"rawCrownWidth":12.0,"quality":"valid","sourceYear":2013},"geometry":{"type":"Point","coordinates":[126.99265737,37.55704374]}},{"type":"Feature","id":"park-private-4564","properties":{"id":"park-private-4564","dataset":"park-private","gu":"중구","species":"느티나무","heightM":23.0,"crownWidthM":13.0,"rawHeight":23.0,"rawCrownWidth":13.0,"quality":"valid","sourceYear":2013},"geometry":{"type":"Point","coordinates":[126.99653198,37.55833494]}},{"type":"Feature","id":"park-private-4580","properties":{"id":"park-private-4580","dataset":"park-private","gu":"중구","species":"벚나무","heightM":4.0,"crownWidthM":5.0,"rawHeight":4.0,"rawCrownWidth":5.0,"quality":"valid","sourceYear":2013},"geometry":{"type":"Point","coordinates":[126.99920954,37.55192684]}},{"type":"Feature","id":"park-private-4581","properties":{"id":"park-private-4581","dataset":"park-private","gu":"중구","species":"느티나무","heightM":17.0,"crownWidthM":8.0,"rawHeight":17.0,"rawCrownWidth":8.0,"quality":"valid","sourceYear":2013},"geometry":{"type":"Point","coordinates":[126.9936958,37.55583687]}},{"type":"Feature","id":"park-private-4761","properties":{"id":"park-private-4761","dataset":"park-private","gu":"중구","species":"은행나무","heightM":15.0,"crownWidthM":6.0,"rawHeight":15.0,"rawCrownWidth":6.0,"quality":"valid","sourceYear":2013},"geometry":{"type":"Point","coordinates":[126.99489452,37.55556864]}},{"type":"Feature","id":"park-private-4766","properties":{"id":"park-private-4766","dataset":"park-private","gu":"중구","species":"느티나무","heightM":7.0,"crownWidthM":7.0,"rawHeight":7.0,"rawCrownWidth":7.0,"quality":"valid","sourceYear":2013},"geometry":{"type":"Point","coordinates":[126.99928051,37.55178855]}},{"type":"Feature","id":"park-private-4820","properties":{"id":"park-private-4820","dataset":"park-private","gu":"중구","species":"아카시아나무","heightM":22.0,"crownWidthM":10.0,"rawHeight":22.0,"rawCrownWidth":10.0,"quality":"valid","sourceYear":2013},"geometry":{"type":"Point","coordinates":[126.99269294,37.55760311]}},{"type":"Feature","id":"park-private-4911","properties":{"id":"park-private-4911","dataset":"park-private","gu":"중구","species":"느티나무","heightM":14.0,"crownWidthM":8.0,"rawHeight":14.0,"rawCrownWidth":8.0,"quality":"valid","sourceYear":2013},"geometry":{"type":"Point","coordinates":[126.99699752,37.55953118]}},{"type":"Feature","id":"park-private-4912","properties":{"id":"park-private-4912","dataset":"park-private","gu":"중구","species":"아카시아나무","heightM":20.0,"crownWidthM":8.0,"rawHeight":20.0,"rawCrownWidth":8.0,"quality":"valid","sourceYear":2013},"geometry":{"type":"Point","coordinates":[126.99981769,37.55967601]}},{"type":"Feature","id":"park-private-4913","properties":{"id":"park-private-4913","dataset":"park-private","gu":"중구","species":"양버즘나무","heightM":28.0,"crownWidthM":12.0,"rawHeight":28.0,"rawCrownWidth":12.0,"quality":"valid","sourceYear":2013},"geometry":{"type":"Point","coordinates":[126.99954131,37.5599749]}},{"type":"Feature","id":"park-private-4914","properties":{"id":"park-private-4914","dataset":"park-private","gu":"중구","species":"아카시아나무","heightM":27.0,"crownWidthM":10.0,"rawHeight":27.0,"rawCrownWidth":10.0,"quality":"valid","sourceYear":2013},"geometry":{"type":"Point","coordinates":[126.99273985,37.55715002]}},{"type":"Feature","id":"park-private-4979","properties":{"id":"park-private-4979","dataset":"park-private","gu":"중구","species":"아카시아나무","heightM":13.0,"crownWidthM":7.0,"rawHeight":13.0,"rawCrownWidth":7.0,"quality":"valid","sourceYear":2013},"geometry":{"type":"Point","coordinates":[126.99590475,37.55916432]}},{"type":"Feature","id":"park-private-4980","properties":{"id":"park-private-4980","dataset":"park-private","gu":"중구","species":"은행나무","heightM":16.0,"crownWidthM":6.0,"rawHeight":16.0,"rawCrownWidth":6.0,"quality":"valid","sourceYear":2013},"geometry":{"type":"Point","coordinates":[126.99743316,37.55873578]}},{"type":"Feature","id":"park-private-4983","properties":{"id":"park-private-4983","dataset":"park-private","gu":"중구","species":"느티나무","heightM":20.0,"crownWidthM":8.0,"rawHeight":20.0,"rawCrownWidth":8.0,"quality":"valid","sourceYear":2013},"geometry":{"type":"Point","coordinates":[126.99998798,37.55952348]}},{"type":"Feature","id":"park-private-5028","properties":{"id":"park-private-5028","dataset":"park-private","gu":"중구","species":"은행나무","heightM":4.0,"crownWidthM":4.0,"rawHeight":4.0,"rawCrownWidth":4.0,"quality":"valid","sourceYear":2013},"geometry":{"type":"Point","coordinates":[126.9998787,37.55192323]}},{"type":"Feature","id":"park-private-5033","properties":{"id":"park-private-5033","dataset":"park-private","gu":"중구","species":"아카시아나무","heightM":28.0,"crownWidthM":10.0,"rawHeight":28.0,"rawCrownWidth":10.0,"quality":"valid","sourceYear":2013},"geometry":{"type":"Point","coordinates":[126.99296931,37.55649969]}},{"type":"Feature","id":"park-private-5107","properties":{"id":"park-private-5107","dataset":"park-private","gu":"중구","species":"은행나무","heightM":18.0,"crownWidthM":6.0,"rawHeight":18.0,"rawCrownWidth":6.0,"quality":"valid","sourceYear":2013},"geometry":{"type":"Point","coordinates":[126.99658517,37.55835187]}},{"type":"Feature","id":"park-private-5116","properties":{"id":"park-private-5116","dataset":"park-private","gu":"중구","species":"느티나무","heightM":20.0,"crownWidthM":10.0,"rawHeight":20.0,"rawCrownWidth":10.0,"quality":"valid","sourceYear":2013},"geometry":{"type":"Point","coordinates":[126.99466059,37.55980801]}},{"type":"Feature","id":"park-private-5200","properties":{"id":"park-private-5200","dataset":"park-private","gu":"중구","species":"아카시아나무","heightM":16.0,"crownWidthM":10.0,"rawHeight":16.0,"rawCrownWidth":10.0,"quality":"valid","sourceYear":2013},"geometry":{"type":"Point","coordinates":[126.99882453,37.55973208]}},{"type":"Feature","id":"park-private-5245","properties":{"id":"park-private-5245","dataset":"park-private","gu":"중구","species":"아카시아나무","heightM":20.0,"crownWidthM":5.0,"rawHeight":20.0,"rawCrownWidth":5.0,"quality":"valid","sourceYear":2013},"geometry":{"type":"Point","coordinates":[126.99522082,37.55543313]}},{"type":"Feature","id":"park-private-5261","properties":{"id":"park-private-5261","dataset":"park-private","gu":"중구","species":"양버즘나무","heightM":17.0,"crownWidthM":6.0,"rawHeight":17.0,"rawCrownWidth":6.0,"quality":"valid","sourceYear":2013},"geometry":{"type":"Point","coordinates":[126.9997856,37.55828638]}},{"type":"Feature","id":"park-private-5265","properties":{"id":"park-private-5265","dataset":"park-private","gu":"중구","species":"아카시아나무","heightM":26.0,"crownWidthM":9.0,"rawHeight":26.0,"rawCrownWidth":9.0,"quality":"valid","sourceYear":2013},"geometry":{"type":"Point","coordinates":[126.99243802,37.55854722]}},{"type":"Feature","id":"park-private-5271","properties":{"id":"park-private-5271","dataset":"park-private","gu":"중구","species":"벚나무","heightM":3.0,"crownWidthM":4.0,"rawHeight":3.0,"rawCrownWidth":4.0,"quality":"valid","sourceYear":2013},"geometry":{"type":"Point","coordinates":[126.99972234,37.55180481]}},{"type":"Feature","id":"park-private-5277","properties":{"id":"park-private-5277","dataset":"park-private","gu":"중구","species":"느티나무","heightM":20.0,"crownWidthM":12.0,"rawHeight":20.0,"rawCrownWidth":12.0,"quality":"valid","sourceYear":2013},"geometry":{"type":"Point","coordinates":[126.99422886,37.55995172]}},{"type":"Feature","id":"park-private-5308","properties":{"id":"park-private-5308","dataset":"park-private","gu":"중구","species":"아카시아나무","heightM":27.0,"crownWidthM":10.0,"rawHeight":27.0,"rawCrownWidth":10.0,"quality":"valid","sourceYear":2013},"geometry":{"type":"Point","coordinates":[126.99305084,37.55655051]}},{"type":"Feature","id":"park-private-5309","properties":{"id":"park-private-5309","dataset":"park-private","gu":"중구","species":"아카시아나무","heightM":25.0,"crownWidthM":8.0,"rawHeight":25.0,"rawCrownWidth":8.0,"quality":"valid","sourceYear":2013},"geometry":{"type":"Point","coordinates":[126.99308271,37.55649128]}},{"type":"Feature","id":"park-private-5378","properties":{"id":"park-private-5378","dataset":"park-private","gu":"중구","species":"아카시아나무","heightM":24.0,"crownWidthM":10.0,"rawHeight":24.0,"rawCrownWidth":10.0,"quality":"valid","sourceYear":2013},"geometry":{"type":"Point","coordinates":[126.99240634,37.55883255]}},{"type":"Feature","id":"park-private-5414","properties":{"id":"park-private-5414","dataset":"park-private","gu":"중구","species":"은행나무","heightM":17.0,"crownWidthM":7.0,"rawHeight":17.0,"rawCrownWidth":7.0,"quality":"valid","sourceYear":2013},"geometry":{"type":"Point","coordinates":[126.99741564,37.55905747]}},{"type":"Feature","id":"park-private-5417","properties":{"id":"park-private-5417","dataset":"park-private","gu":"중구","species":"느티나무","heightM":5.0,"crownWidthM":7.0,"rawHeight":5.0,"rawCrownWidth":7.0,"quality":"valid","sourceYear":2013},"geometry":{"type":"Point","coordinates":[126.99983629,37.55198525]}},{"type":"Feature","id":"park-private-5418","properties":{"id":"park-private-5418","dataset":"park-private","gu":"중구","species":"느티나무","heightM":14.0,"crownWidthM":12.0,"rawHeight":14.0,"rawCrownWidth":12.0,"quality":"valid","sourceYear":2013},"geometry":{"type":"Point","coordinates":[126.99650067,37.55646339]}},{"type":"Feature","id":"park-private-5484","properties":{"id":"park-private-5484","dataset":"park-private","gu":"중구","species":"양버즘나무","heightM":18.0,"crownWidthM":6.0,"rawHeight":18.0,"rawCrownWidth":6.0,"quality":"valid","sourceYear":2013},"geometry":{"type":"Point","coordinates":[126.99983173,37.55837676]}},{"type":"Feature","id":"park-private-5585","properties":{"id":"park-private-5585","dataset":"park-private","gu":"중구","species":"느티나무","heightM":15.0,"crownWidthM":10.0,"rawHeight":15.0,"rawCrownWidth":10.0,"quality":"valid","sourceYear":2013},"geometry":{"type":"Point","coordinates":[126.99727728,37.55904332]}},{"type":"Feature","id":"park-private-5586","properties":{"id":"park-private-5586","dataset":"park-private","gu":"중구","species":"아카시아나무","heightM":22.0,"crownWidthM":8.0,"rawHeight":22.0,"rawCrownWidth":8.0,"quality":"valid","sourceYear":2013},"geometry":{"type":"Point","coordinates":[126.99989932,37.55971553]}},{"type":"Feature","id":"park-private-5589","properties":{"id":"park-private-5589","dataset":"park-private","gu":"중구","species":"아카시아나무","heightM":19.0,"crownWidthM":9.0,"rawHeight":19.0,"rawCrownWidth":9.0,"quality":"valid","sourceYear":2013},"geometry":{"type":"Point","coordinates":[126.99982122,37.55956022]}},{"type":"Feature","id":"park-private-5627","properties":{"id":"park-private-5627","dataset":"park-private","gu":"중구","species":"단풍나무","heightM":14.0,"crownWidthM":8.0,"rawHeight":14.0,"rawCrownWidth":8.0,"quality":"valid","sourceYear":2013},"geometry":{"type":"Point","coordinates":[126.99448989,37.55658207]}},{"type":"Feature","id":"park-private-5628","properties":{"id":"park-private-5628","dataset":"park-private","gu":"중구","species":"느티나무","heightM":31.0,"crownWidthM":11.0,"rawHeight":31.0,"rawCrownWidth":11.0,"quality":"valid","sourceYear":2013},"geometry":{"type":"Point","coordinates":[126.99614593,37.55680215]}},{"type":"Feature","id":"park-private-5631","properties":{"id":"park-private-5631","dataset":"park-private","gu":"중구","species":"회화나무","heightM":24.0,"crownWidthM":7.0,"rawHeight":24.0,"rawCrownWidth":7.0,"quality":"valid","sourceYear":2013},"geometry":{"type":"Point","coordinates":[126.99927168,37.55993532]}},{"type":"Feature","id":"park-private-5647","properties":{"id":"park-private-5647","dataset":"park-private","gu":"중구","species":"느티나무","heightM":29.0,"crownWidthM":14.0,"rawHeight":29.0,"rawCrownWidth":14.0,"quality":"valid","sourceYear":2013},"geometry":{"type":"Point","coordinates":[126.99522789,37.55549805]}},{"type":"Feature","id":"park-private-5711","properties":{"id":"park-private-5711","dataset":"park-private","gu":"중구","species":"회화나무","heightM":23.0,"crownWidthM":7.0,"rawHeight":23.0,"rawCrownWidth":7.0,"quality":"valid","sourceYear":2013},"geometry":{"type":"Point","coordinates":[126.99504522,37.55943611]}},{"type":"Feature","id":"park-private-5712","properties":{"id":"park-private-5712","dataset":"park-private","gu":"중구","species":"은행나무","heightM":22.0,"crownWidthM":8.0,"rawHeight":22.0,"rawCrownWidth":8.0,"quality":"valid","sourceYear":2013},"geometry":{"type":"Point","coordinates":[126.99571243,37.55908927]}},{"type":"Feature","id":"park-private-5713","properties":{"id":"park-private-5713","dataset":"park-private","gu":"중구","species":"은행나무","heightM":16.0,"crownWidthM":6.0,"rawHeight":16.0,"rawCrownWidth":6.0,"quality":"valid","sourceYear":2013},"geometry":{"type":"Point","coordinates":[126.9964717,37.558318]}},{"type":"Feature","id":"park-private-5715","properties":{"id":"park-private-5715","dataset":"park-private","gu":"중구","species":"아카시아나무","heightM":25.0,"crownWidthM":12.0,"rawHeight":25.0,"rawCrownWidth":12.0,"quality":"valid","sourceYear":2013},"geometry":{"type":"Point","coordinates":[126.99274785,37.55748752]}},{"type":"Feature","id":"park-private-5794","properties":{"id":"park-private-5794","dataset":"park-private","gu":"중구","species":"은행나무","heightM":25.0,"crownWidthM":10.0,"rawHeight":25.0,"rawCrownWidth":10.0,"quality":"valid","sourceYear":2013},"geometry":{"type":"Point","coordinates":[126.99391903,37.5563732]}},{"type":"Feature","id":"park-private-5795","properties":{"id":"park-private-5795","dataset":"park-private","gu":"중구","species":"은행나무","heightM":22.0,"crownWidthM":9.0,"rawHeight":22.0,"rawCrownWidth":9.0,"quality":"valid","sourceYear":2013},"geometry":{"type":"Point","coordinates":[126.99394389,37.55625464]}},{"type":"Feature","id":"park-private-5796","properties":{"id":"park-private-5796","dataset":"park-private","gu":"중구","species":"측백나무","heightM":16.0,"crownWidthM":4.0,"rawHeight":16.0,"rawCrownWidth":4.0,"quality":"valid","sourceYear":2013},"geometry":{"type":"Point","coordinates":[126.99462819,37.55660747]}},{"type":"Feature","id":"park-private-5829","properties":{"id":"park-private-5829","dataset":"park-private","gu":"중구","species":"양버즘나무","heightM":17.0,"crownWidthM":6.0,"rawHeight":17.0,"rawCrownWidth":6.0,"quality":"valid","sourceYear":2013},"geometry":{"type":"Point","coordinates":[126.99986368,37.55846149]}},{"type":"Feature","id":"park-private-5830","properties":{"id":"park-private-5830","dataset":"park-private","gu":"중구","species":"양버즘나무","heightM":17.0,"crownWidthM":5.0,"rawHeight":17.0,"rawCrownWidth":5.0,"quality":"valid","sourceYear":2013},"geometry":{"type":"Point","coordinates":[126.99977495,37.55824684]}},{"type":"Feature","id":"park-private-5862","properties":{"id":"park-private-5862","dataset":"park-private","gu":"중구","species":"은행나무","heightM":5.0,"crownWidthM":2.0,"rawHeight":5.0,"rawCrownWidth":2.0,"quality":"valid","sourceYear":2013},"geometry":{"type":"Point","coordinates":[126.99966895,37.55176532]}},{"type":"Feature","id":"park-private-5892","properties":{"id":"park-private-5892","dataset":"park-private","gu":"중구","species":"아카시아나무","heightM":22.0,"crownWidthM":9.0,"rawHeight":22.0,"rawCrownWidth":9.0,"quality":"valid","sourceYear":2013},"geometry":{"type":"Point","coordinates":[126.99269656,37.55690626]}},{"type":"Feature","id":"park-private-5898","properties":{"id":"park-private-5898","dataset":"park-private","gu":"중구","species":"은행나무","heightM":14.0,"crownWidthM":8.0,"rawHeight":14.0,"rawCrownWidth":8.0,"quality":"valid","sourceYear":2013},"geometry":{"type":"Point","coordinates":[126.99999139,37.55824681]}},{"type":"Feature","id":"park-private-5938","properties":{"id":"park-private-5938","dataset":"park-private","gu":"중구","species":"아카시아나무","heightM":18.0,"crownWidthM":8.0,"rawHeight":18.0,"rawCrownWidth":8.0,"quality":"valid","sourceYear":2013},"geometry":{"type":"Point","coordinates":[126.99879631,37.55989285]}},{"type":"Feature","id":"park-private-5940","properties":{"id":"park-private-5940","dataset":"park-private","gu":"중구","species":"아카시아나무","heightM":22.0,"crownWidthM":7.0,"rawHeight":22.0,"rawCrownWidth":7.0,"quality":"valid","sourceYear":2013},"geometry":{"type":"Point","coordinates":[126.99995603,37.55991873]}},{"type":"Feature","id":"park-private-5960","properties":{"id":"park-private-5960","dataset":"park-private","gu":"중구","species":"은행나무","heightM":17.0,"crownWidthM":6.0,"rawHeight":17.0,"rawCrownWidth":6.0,"quality":"valid","sourceYear":2013},"geometry":{"type":"Point","coordinates":[126.99688687,37.55826145]}},{"type":"Feature","id":"park-private-5961","properties":{"id":"park-private-5961","dataset":"park-private","gu":"중구","species":"은행나무","heightM":17.0,"crownWidthM":7.0,"rawHeight":17.0,"rawCrownWidth":7.0,"quality":"valid","sourceYear":2013},"geometry":{"type":"Point","coordinates":[126.99876738,37.55933436]}},{"type":"Feature","id":"park-private-5962","properties":{"id":"park-private-5962","dataset":"park-private","gu":"중구","species":"양버즘나무","heightM":18.0,"crownWidthM":6.0,"rawHeight":18.0,"rawCrownWidth":6.0,"quality":"valid","sourceYear":2013},"geometry":{"type":"Point","coordinates":[126.99980689,37.5583231]}},{"type":"Feature","id":"park-private-5983","properties":{"id":"park-private-5983","dataset":"park-private","gu":"중구","species":"은행나무","heightM":4.0,"crownWidthM":3.0,"rawHeight":4.0,"rawCrownWidth":3.0,"quality":"valid","sourceYear":2013},"geometry":{"type":"Point","coordinates":[126.99988939,37.55195987]}},{"type":"Feature","id":"park-private-6001","properties":{"id":"park-private-6001","dataset":"park-private","gu":"중구","species":"은행나무","heightM":20.0,"crownWidthM":8.0,"rawHeight":20.0,"rawCrownWidth":8.0,"quality":"valid","sourceYear":2013},"geometry":{"type":"Point","coordinates":[126.9973055,37.5588741]}},{"type":"Feature","id":"park-private-6002","properties":{"id":"park-private-6002","dataset":"park-private","gu":"중구","species":"느티나무","heightM":19.0,"crownWidthM":10.0,"rawHeight":19.0,"rawCrownWidth":10.0,"quality":"valid","sourceYear":2013},"geometry":{"type":"Point","coordinates":[126.99699413,37.55969759]}},{"type":"Feature","id":"park-private-6008","properties":{"id":"park-private-6008","dataset":"park-private","gu":"중구","species":"아카시아나무","heightM":20.0,"crownWidthM":8.0,"rawHeight":20.0,"rawCrownWidth":8.0,"quality":"valid","sourceYear":2013},"geometry":{"type":"Point","coordinates":[126.9998354,37.55948961]}},{"type":"Feature","id":"park-private-6009","properties":{"id":"park-private-6009","dataset":"park-private","gu":"중구","species":"아카시아나무","heightM":18.0,"crownWidthM":10.0,"rawHeight":18.0,"rawCrownWidth":10.0,"quality":"valid","sourceYear":2013},"geometry":{"type":"Point","coordinates":[126.99989928,37.55952632]}},{"type":"Feature","id":"park-private-6010","properties":{"id":"park-private-6010","dataset":"park-private","gu":"중구","species":"은행나무","heightM":17.0,"crownWidthM":7.0,"rawHeight":17.0,"rawCrownWidth":7.0,"quality":"valid","sourceYear":2013},"geometry":{"type":"Point","coordinates":[126.99879573,37.55922142]}},{"type":"Feature","id":"park-private-6036","properties":{"id":"park-private-6036","dataset":"park-private","gu":"중구","species":"은행나무","heightM":27.0,"crownWidthM":11.0,"rawHeight":27.0,"rawCrownWidth":11.0,"quality":"valid","sourceYear":2013},"geometry":{"type":"Point","coordinates":[126.99567066,37.55864249]}},{"type":"Feature","id":"park-private-6040","properties":{"id":"park-private-6040","dataset":"park-private","gu":"중구","species":"양버즘나무","heightM":3.0,"crownWidthM":4.0,"rawHeight":3.0,"rawCrownWidth":4.0,"quality":"valid","sourceYear":2013},"geometry":{"type":"Point","coordinates":[126.99979737,37.55201908]}},{"type":"Feature","id":"park-private-6083","properties":{"id":"park-private-6083","dataset":"park-private","gu":"중구","species":"소나무","heightM":12.0,"crownWidthM":6.0,"rawHeight":12.0,"rawCrownWidth":6.0,"quality":"valid","sourceYear":2013},"geometry":{"type":"Point","coordinates":[126.9946991,37.55664698]}},{"type":"Feature","id":"park-private-6084","properties":{"id":"park-private-6084","dataset":"park-private","gu":"중구","species":"아카시아나무","heightM":21.0,"crownWidthM":6.0,"rawHeight":21.0,"rawCrownWidth":6.0,"quality":"valid","sourceYear":2013},"geometry":{"type":"Point","coordinates":[126.99543714,37.55542465]}},{"type":"Feature","id":"park-private-6085","properties":{"id":"park-private-6085","dataset":"park-private","gu":"중구","species":"은행나무","heightM":16.0,"crownWidthM":9.0,"rawHeight":16.0,"rawCrownWidth":9.0,"quality":"valid","sourceYear":2013},"geometry":{"type":"Point","coordinates":[126.99989061,37.55350397]}},{"type":"Feature","id":"park-private-6092","properties":{"id":"park-private-6092","dataset":"park-private","gu":"중구","species":"은행나무","heightM":19.0,"crownWidthM":5.0,"rawHeight":19.0,"rawCrownWidth":5.0,"quality":"valid","sourceYear":2013},"geometry":{"type":"Point","coordinates":[126.99713874,37.55882609]}},{"type":"Feature","id":"park-private-6093","properties":{"id":"park-private-6093","dataset":"park-private","gu":"중구","species":"은행나무","heightM":16.0,"crownWidthM":5.0,"rawHeight":16.0,"rawCrownWidth":5.0,"quality":"valid","sourceYear":2013},"geometry":{"type":"Point","coordinates":[126.99872495,37.5594641]}},{"type":"Feature","id":"park-private-6118","properties":{"id":"park-private-6118","dataset":"park-private","gu":"중구","species":"은행나무","heightM":18.0,"crownWidthM":6.0,"rawHeight":18.0,"rawCrownWidth":6.0,"quality":"valid","sourceYear":2013},"geometry":{"type":"Point","coordinates":[126.99722389,37.5588515]}},{"type":"Feature","id":"park-private-6133","properties":{"id":"park-private-6133","dataset":"park-private","gu":"중구","species":"느티나무","heightM":12.0,"crownWidthM":10.0,"rawHeight":12.0,"rawCrownWidth":10.0,"quality":"valid","sourceYear":2013},"geometry":{"type":"Point","coordinates":[126.99726639,37.55862564]}},{"type":"Feature","id":"park-private-6134","properties":{"id":"park-private-6134","dataset":"park-private","gu":"중구","species":"측백나무","heightM":23.0,"crownWidthM":5.0,"rawHeight":23.0,"rawCrownWidth":5.0,"quality":"valid","sourceYear":2013},"geometry":{"type":"Point","coordinates":[126.99998787,37.55849254]}},{"type":"Feature","id":"park-private-6217","properties":{"id":"park-private-6217","dataset":"park-private","gu":"중구","species":"단풍나무","heightM":13.0,"crownWidthM":9.0,"rawHeight":13.0,"rawCrownWidth":9.0,"quality":"valid","sourceYear":2013},"geometry":{"type":"Point","coordinates":[126.99614959,37.55644083]}},{"type":"Feature","id":"park-private-6242","properties":{"id":"park-private-6242","dataset":"park-private","gu":"중구","species":"백합나무","heightM":25.0,"crownWidthM":8.0,"rawHeight":25.0,"rawCrownWidth":8.0,"quality":"valid","sourceYear":2013},"geometry":{"type":"Point","coordinates":[126.99982461,37.55815362]}},{"type":"Feature","id":"park-private-6257","properties":{"id":"park-private-6257","dataset":"park-private","gu":"중구","species":"회화나무","heightM":20.0,"crownWidthM":9.0,"rawHeight":20.0,"rawCrownWidth":9.0,"quality":"valid","sourceYear":2013},"geometry":{"type":"Point","coordinates":[126.99890938,37.5594416]}},{"type":"Feature","id":"park-private-6258","properties":{"id":"park-private-6258","dataset":"park-private","gu":"중구","species":"양버즘나무","heightM":16.0,"crownWidthM":5.0,"rawHeight":16.0,"rawCrownWidth":5.0,"quality":"valid","sourceYear":2013},"geometry":{"type":"Point","coordinates":[126.9963979,37.55623757]}},{"type":"Feature","id":"park-private-6270","properties":{"id":"park-private-6270","dataset":"park-private","gu":"중구","species":"아카시아나무","heightM":20.0,"crownWidthM":8.0,"rawHeight":20.0,"rawCrownWidth":8.0,"quality":"valid","sourceYear":2013},"geometry":{"type":"Point","coordinates":[126.99993841,37.55982837]}},{"type":"Feature","id":"park-private-6308","properties":{"id":"park-private-6308","dataset":"park-private","gu":"중구","species":"은행나무","heightM":27.0,"crownWidthM":10.0,"rawHeight":27.0,"rawCrownWidth":10.0,"quality":"valid","sourceYear":2013},"geometry":{"type":"Point","coordinates":[126.99394032,37.55632239]}},{"type":"Feature","id":"park-private-7431","properties":{"id":"park-private-7431","dataset":"park-private","gu":"중구","species":"은행나무","heightM":4.0,"crownWidthM":3.0,"rawHeight":4.0,"rawCrownWidth":3.0,"quality":"valid","sourceYear":2013},"geometry":{"type":"Point","coordinates":[126.99978284,37.55184713]}},{"type":"Feature","id":"park-private-7432","properties":{"id":"park-private-7432","dataset":"park-private","gu":"중구","species":"은행나무","heightM":4.0,"crownWidthM":3.0,"rawHeight":4.0,"rawCrownWidth":3.0,"quality":"valid","sourceYear":2013},"geometry":{"type":"Point","coordinates":[126.99985735,37.55188096]}},{"type":"Feature","id":"park-private-162129","properties":{"id":"park-private-162129","dataset":"park-private","gu":"중구","species":"느티나무","heightM":19.0,"crownWidthM":10.0,"rawHeight":19.0,"rawCrownWidth":10.0,"quality":"valid","sourceYear":2013},"geometry":{"type":"Point","coordinates":[126.99366742,37.55584534]}},{"type":"Feature","id":"park-private-162143","properties":{"id":"park-private-162143","dataset":"park-private","gu":"중구","species":"벚나무","heightM":14.0,"crownWidthM":7.0,"rawHeight":14.0,"rawCrownWidth":7.0,"quality":"valid","sourceYear":2013},"geometry":{"type":"Point","coordinates":[126.99571244,37.55934246]}},{"type":"Feature","id":"park-private-162535","properties":{"id":"park-private-162535","dataset":"park-private","gu":"중구","species":"느티나무","heightM":20.0,"crownWidthM":8.0,"rawHeight":20.0,"rawCrownWidth":8.0,"quality":"valid","sourceYear":2013},"geometry":{"type":"Point","coordinates":[126.99467237,37.55995806]}},{"type":"Feature","id":"park-private-162614","properties":{"id":"park-private-162614","dataset":"park-private","gu":"중구","species":"아카시아나무","heightM":20.0,"crownWidthM":10.0,"rawHeight":20.0,"rawCrownWidth":10.0,"quality":"valid","sourceYear":2013},"geometry":{"type":"Point","coordinates":[126.99984978,37.55989887]}},{"type":"Feature","id":"park-private-163176","properties":{"id":"park-private-163176","dataset":"park-private","gu":"중구","species":"아카시아나무","heightM":27.0,"crownWidthM":10.0,"rawHeight":27.0,"rawCrownWidth":10.0,"quality":"valid","sourceYear":2013},"geometry":{"type":"Point","coordinates":[126.99261044,37.55747808]}},{"type":"Feature","id":"park-private-164487","properties":{"id":"park-private-164487","dataset":"park-private","gu":"중구","species":"은행나무","heightM":8.0,"crownWidthM":4.0,"rawHeight":8.0,"rawCrownWidth":4.0,"quality":"valid","sourceYear":2013},"geometry":{"type":"Point","coordinates":[126.99919893,37.55184498]}},{"type":"Feature","id":"park-private-164676","properties":{"id":"park-private-164676","dataset":"park-private","gu":"중구","species":"은행나무","heightM":18.0,"crownWidthM":8.0,"rawHeight":18.0,"rawCrownWidth":8.0,"quality":"valid","sourceYear":2013},"geometry":{"type":"Point","coordinates":[126.9935645,37.55775353]}},{"type":"Feature","id":"park-private-166480","properties":{"id":"park-private-166480","dataset":"park-private","gu":"중구","species":"느티나무","heightM":26.0,"crownWidthM":8.0,"rawHeight":26.0,"rawCrownWidth":8.0,"quality":"valid","sourceYear":2013},"geometry":{"type":"Point","coordinates":[126.99384815,37.55637317]}},{"type":"Feature","id":"park-private-166494","properties":{"id":"park-private-166494","dataset":"park-private","gu":"중구","species":"아카시아나무","heightM":8.0,"crownWidthM":6.0,"rawHeight":8.0,"rawCrownWidth":6.0,"quality":"valid","sourceYear":2013},"geometry":{"type":"Point","coordinates":[126.99918825,37.55196919]}},{"type":"Feature","id":"park-private-166655","properties":{"id":"park-private-166655","dataset":"park-private","gu":"중구","species":"아카시아나무","heightM":26.0,"crownWidthM":8.0,"rawHeight":26.0,"rawCrownWidth":8.0,"quality":"valid","sourceYear":2013},"geometry":{"type":"Point","coordinates":[126.99264573,37.55738435]}},{"type":"Feature","id":"park-private-166769","properties":{"id":"park-private-166769","dataset":"park-private","gu":"중구","species":"양버즘나무","heightM":16.0,"crownWidthM":6.0,"rawHeight":16.0,"rawCrownWidth":6.0,"quality":"valid","sourceYear":2013},"geometry":{"type":"Point","coordinates":[126.99992046,37.55859141]}},{"type":"Feature","id":"park-private-166869","properties":{"id":"park-private-166869","dataset":"park-private","gu":"중구","species":"느티나무","heightM":7.0,"crownWidthM":7.0,"rawHeight":7.0,"rawCrownWidth":7.0,"quality":"valid","sourceYear":2013},"geometry":{"type":"Point","coordinates":[126.99913507,37.55194943]}},{"type":"Feature","id":"park-private-167086","properties":{"id":"park-private-167086","dataset":"park-private","gu":"중구","species":"회화나무","heightM":22.0,"crownWidthM":10.0,"rawHeight":22.0,"rawCrownWidth":10.0,"quality":"valid","sourceYear":2013},"geometry":{"type":"Point","coordinates":[126.99901577,37.55941625]}},{"type":"Feature","id":"park-private-167574","properties":{"id":"park-private-167574","dataset":"park-private","gu":"중구","species":"아카시아나무","heightM":19.0,"crownWidthM":10.0,"rawHeight":19.0,"rawCrownWidth":10.0,"quality":"valid","sourceYear":2013},"geometry":{"type":"Point","coordinates":[126.99975405,37.559975]}},{"type":"Feature","id":"park-private-167689","properties":{"id":"park-private-167689","dataset":"park-private","gu":"중구","species":"아카시아나무","heightM":23.0,"crownWidthM":7.0,"rawHeight":23.0,"rawCrownWidth":7.0,"quality":"valid","sourceYear":2013},"geometry":{"type":"Point","coordinates":[126.9949301,37.55521578]}},{"type":"Feature","id":"park-private-167691","properties":{"id":"park-private-167691","dataset":"park-private","gu":"중구","species":"은행나무","heightM":30.0,"crownWidthM":11.0,"rawHeight":30.0,"rawCrownWidth":11.0,"quality":"valid","sourceYear":2013},"geometry":{"type":"Point","coordinates":[126.99557899,37.55905173]}},{"type":"Feature","id":"park-private-167781","properties":{"id":"park-private-167781","dataset":"park-private","gu":"중구","species":"은행나무","heightM":23.0,"crownWidthM":8.0,"rawHeight":23.0,"rawCrownWidth":8.0,"quality":"valid","sourceYear":2013},"geometry":{"type":"Point","coordinates":[126.99241046,37.5586256]}},{"type":"Feature","id":"park-private-167783","properties":{"id":"park-private-167783","dataset":"park-private","gu":"중구","species":"은행나무","heightM":15.0,"crownWidthM":5.0,"rawHeight":15.0,"rawCrownWidth":5.0,"quality":"valid","sourceYear":2013},"geometry":{"type":"Point","coordinates":[126.99658519,37.55829541]}},{"type":"Feature","id":"park-private-167846","properties":{"id":"park-private-167846","dataset":"park-private","gu":"중구","species":"은행나무","heightM":20.0,"crownWidthM":8.0,"rawHeight":20.0,"rawCrownWidth":8.0,"quality":"valid","sourceYear":2013},"geometry":{"type":"Point","coordinates":[126.99479796,37.55985181]}},{"type":"Feature","id":"park-private-167847","properties":{"id":"park-private-167847","dataset":"park-private","gu":"중구","species":"참나무","heightM":23.0,"crownWidthM":12.0,"rawHeight":23.0,"rawCrownWidth":12.0,"quality":"valid","sourceYear":2013},"geometry":{"type":"Point","coordinates":[126.9994772,37.55740544]}},{"type":"Feature","id":"protected-69","properties":{"id":"protected-69","dataset":"protected","gu":"중구","species":"느티나무","heightM":23.0,"crownWidthM":21.0,"rawHeight":23.0,"rawCrownWidth":21.0,"quality":"valid","sourceYear":2013},"geometry":{"type":"Point","coordinates":[126.99030937,37.55919585]}},{"type":"Feature","id":"protected-76","properties":{"id":"protected-76","dataset":"protected","gu":"중구","species":"은행나무","heightM":21.5,"crownWidthM":18.0,"rawHeight":21.5,"rawCrownWidth":18.0,"quality":"valid","sourceYear":2013},"geometry":{"type":"Point","coordinates":[126.9901838,37.55919232]}},{"type":"Feature","id":"protected-77","properties":{"id":"protected-77","dataset":"protected","gu":"중구","species":"느티나무","heightM":17.5,"crownWidthM":18.0,"rawHeight":17.5,"rawCrownWidth":18.0,"quality":"valid","sourceYear":2013},"geometry":{"type":"Point","coordinates":[126.99529379,37.55543633]}}]}