{"type":"FeatureCollection","features":[{"type":"Feature","id":"street-17753","properties":{"id":"street-17753","dataset":"street","gu":"성동구","species":"느티나무","heightM":9.0,"crownWidthM":4.0,"rawHeight":9.0,"rawCrownWidth":4.0,"quality":"valid","sourceYear":2013},"geometry":{"type":"Point","coordinates":[127.04399641,37.53990659]}},{"type":"Feature","id":"street-17754","properties":{"id":"street-17754","dataset":"street","gu":"성동구","species":"때죽나무","heightM":3.0,"crownWidthM":2.0,"rawHeight":3.0,"rawCrownWidth":2.0,"quality":"valid","sourceYear":2013},"geometry":{"type":"Point","coordinates":[127.04391376,37.53966235]}},{"type":"Feature","id":"street-17755","properties":{"id":"street-17755","dataset":"street","gu":"성동구","species":"때죽나무","heightM":3.0,"crownWidthM":2.0,"rawHeight":3.0,"rawCrownWidth":2.0,"quality":"valid","sourceYear":2013},"geometry":{"type":"Point","coordinates":[127.04393024,37.53977358]}},{"type":"Feature","id":"street-17757","properties":{"id":"street-17757","dataset":"street","gu":"성동구","species":"때죽나무","heightM":4.0,"crownWidthM":2.0,"rawHeight":4.0,"rawCrownWidth":2.0,"quality":"valid","sourceYear":2013},"geometry":{"type":"Point","coordinates":[127.04389357,37.53924647]}},{"type":"Feature","id":"street-18565","properties":{"id":"street-18565","dataset":"street","gu":"성동구","species":"때죽나무","heightM":4.0,"crownWidthM":2.0,"rawHeight":4.0,"rawCrownWidth":2.0,"quality":"valid","sourceYear":2013},"geometry":{"type":"Point","coordinates":[127.04387952,37.53914937]}},{"type":"Feature","id":"street-18930","properties":{"id":"street-18930","dataset":"street","gu":"성동구","species":"때죽나무","heightM":4.0,"crownWidthM":2.0,"rawHeight":4.0,"rawCrownWidth":2.0,"quality":"valid","sourceYear":2013},"geometry":{"type":"Point","coordinates":[127.04381908,37.53832348]}},{"type":"Feature","id":"street-19621","properties":{"id":"street-19621","dataset":"street","gu":"성동구","species":"때죽나무","heightM":3.0,"crownWidthM":2.0,"rawHeight":3.0,"rawCrownWidth":2.0,"quality":"valid","sourceYear":2013},"geometry":{"type":"Point","coordinates":[127.04385705,37.53884918]}},{"type":"Feature","id":"street-19704","properties":{"id":"street-19704","dataset":"street","gu":"성동구","species":"때죽나무","heightM":3.0,"crownWidthM":1.0,"rawHeight":3.0,"rawCrownWidth":1.0,"quality":"valid","sourceYear":2013},"geometry":{"type":"Point","coordinates":[127.0438384,37.53859532]}},{"type":"Feature","id":"street-20153","properties":{"id":"street-20153","dataset":"street","gu":"성동구","species":"때죽나무","heightM":6.0,"crownWidthM":3.0,"rawHeight":6.0,"rawCrownWidth":3.0,"quality":"valid","sourceYear":2013},"geometry":{"type":"Point","coordinates":[127.04384371,37.53867873]}},{"type":"Feature","id":"street-20223","properties":{"id":"street-20223","dataset":"street","gu":"성동구","species":"때죽나무","heightM":4.0,"crownWidthM":3.0,"rawHeight":4.0,"rawCrownWidth":3.0,"quality":"valid","sourceYear":2013},"geometry":{"type":"Point","coordinates":[127.04385387,37.53876158]}},{"type":"Feature","id":"street-20237","properties":{"id":"street-20237","dataset":"street","gu":"성동구","species":"때죽나무","heightM":4.0,"crownWidthM":2.0,"rawHeight":4.0,"rawCrownWidth":2.0,"quality":"valid","sourceYear":2013},"geometry":{"type":"Point","coordinates":[127.0438671,37.53890829]}},{"type":"Feature","id":"street-20238","properties":{"id":"street-20238","dataset":"street","gu":"성동구","species":"때죽나무","heightM":4.0,"crownWidthM":3.0,"rawHeight":4.0,"rawCrownWidth":3.0,"quality":"valid","sourceYear":2013},"geometry":{"type":"Point","coordinates":[127.04386685,37.53898252]}},{"type":"Feature","id":"street-20239","properties":{"id":"street-20239","dataset":"street","gu":"성동구","species":"때죽나무","heightM":3.0,"crownWidthM":1.0,"rawHeight":3.0,"rawCrownWidth":1.0,"quality":"valid","sourceYear":2013},"geometry":{"type":"Point","coordinates":[127.04387481,37.53905304]}},{"type":"Feature","id":"street-180351","properties":{"id":"street-180351","dataset":"street","gu":"강남구","species":"은행나무","heightM":6.0,"crownWidthM":2.0,"rawHeight":6.0,"rawCrownWidth":2.0,"quality":"valid","sourceYear":2013},"geometry":{"type":"Point","coordinates":[127.04016463,37.53103266]}},{"type":"Feature","id":"street-181018","properties":{"id":"street-181018","dataset":"street","gu":"강남구","species":"은행나무","heightM":7.0,"crownWidthM":4.0,"rawHeight":7.0,"rawCrownWidth":4.0,"quality":"valid","sourceYear":2013},"geometry":{"type":"Point","coordinates":[127.04352847,37.53002383]}},{"type":"Feature","id":"street-181140","properties":{"id":"street-181140","dataset":"street","gu":"강남구","species":"은행나무","heightM":5.0,"crownWidthM":3.0,"rawHeight":5.0,"rawCrownWidth":3.0,"quality":"valid","sourceYear":2013},"geometry":{"type":"Point","coordinates":[127.04273737,37.53028031]}},{"type":"Feature","id":"street-181444","properties":{"id":"street-181444","dataset":"street","gu":"강남구","species":"은행나무","heightM":6.0,"crownWidthM":4.0,"rawHeight":6.0,"rawCrownWidth":4.0,"quality":"valid","sourceYear":2013},"geometry":{"type":"Point","coordinates":[127.04345795,37.53004826]}},{"type":"Feature","id":"street-181832","properties":{"id":"street-181832","dataset":"street","gu":"강남구","species":"은행나무","heightM":5.0,"crownWidthM":4.0,"rawHeight":5.0,"rawCrownWidth":4.0,"quality":"valid","sourceYear":2013},"geometry":{"type":"Point","coordinates":[127.04277103,37.53019121]}},{"type":"Feature","id":"street-182410","properties":{"id":"street-182410","dataset":"street","gu":"강남구","species":"은행나무","heightM":8.0,"crownWidthM":4.0,"rawHeight":8.0,"rawCrownWidth":4.0,"quality":"valid","sourceYear":2013},"geometry":{"type":"Point","coordinates":[127.04245981,37.5302938]}},{"type":"Feature","id":"street-182522","properties":{"id":"street-182522","dataset":"street","gu":"강남구","species":"은행나무","heightM":4.0,"crownWidthM":1.0,"rawHeight":4.0,"rawCrownWidth":1.0,"quality":"valid","sourceYear":2013},"geometry":{"type":"Point","coordinates":[127.04289682,37.53023145]}},{"type":"Feature","id":"street-182676","properties":{"id":"street-182676","dataset":"street","gu":"강남구","species":"양버즘나무","heightM":5.0,"crownWidthM":4.0,"rawHeight":5.0,"rawCrownWidth":4.0,"quality":"valid","sourceYear":2013},"geometry":{"type":"Point","coordinates":[127.04229276,37.53042686]}},{"type":"Feature","id":"street-182904","properties":{"id":"street-182904","dataset":"street","gu":"강남구","species":"은행나무","heightM":4.0,"crownWidthM":2.0,"rawHeight":4.0,"rawCrownWidth":2.0,"quality":"valid","sourceYear":2013},"geometry":{"type":"Point","coordinates":[127.04179908,37.53058075]}},{"type":"Feature","id":"street-182956","properties":{"id":"street-182956","dataset":"street","gu":"강남구","species":"은행나무","heightM":7.0,"crownWidthM":3.0,"rawHeight":7.0,"rawCrownWidth":3.0,"quality":"valid","sourceYear":2013},"geometry":{"type":"Point","coordinates":[127.04211185,37.53048549]}},{"type":"Feature","id":"street-183397","properties":{"id":"street-183397","dataset":"street","gu":"강남구","species":"은행나무","heightM":6.0,"crownWidthM":4.0,"rawHeight":6.0,"rawCrownWidth":4.0,"quality":"valid","sourceYear":2013},"geometry":{"type":"Point","coordinates":[127.04339356,37.53007024]}},{"type":"Feature","id":"street-183579","properties":{"id":"street-183579","dataset":"street","gu":"강남구","species":"은행나무","heightM":7.0,"crownWidthM":4.0,"rawHeight":7.0,"rawCrownWidth":4.0,"quality":"valid","sourceYear":2013},"geometry":{"type":"Point","coordinates":[127.04311759,37.53015818]}},{"type":"Feature","id":"street-184016","properties":{"id":"street-184016","dataset":"street","gu":"강남구","species":"은행나무","heightM":7.0,"crownWidthM":3.0,"rawHeight":7.0,"rawCrownWidth":3.0,"quality":"valid","sourceYear":2013},"geometry":{"type":"Point","coordinates":[127.04040691,37.53097402]}},{"type":"Feature","id":"street-184587","properties":{"id":"street-184587","dataset":"street","gu":"강남구","species":"은행나무","heightM":10.0,"crownWidthM":5.0,"rawHeight":10.0,"rawCrownWidth":5.0,"quality":"valid","sourceYear":2013},"geometry":{"type":"Point","coordinates":[127.04325704,37.53003122]}},{"type":"Feature","id":"street-187305","properties":{"id":"street-187305","dataset":"street","gu":"강남구","species":"은행나무","heightM":7.0,"crownWidthM":3.0,"rawHeight":7.0,"rawCrownWidth":3.0,"quality":"valid","sourceYear":2013},"geometry":{"type":"Point","coordinates":[127.04216238,37.53038784]}},{"type":"Feature","id":"street-187801","properties":{"id":"street-187801","dataset":"street","gu":"강남구","species":"은행나무","heightM":8.0,"crownWidthM":3.0,"rawHeight":8.0,"rawCrownWidth":3.0,"quality":"valid","sourceYear":2013},"geometry":{"type":"Point","coordinates":[127.04319424,37.53013131]}},{"type":"Feature","id":"street-187914","properties":{"id":"street-187914","dataset":"street","gu":"강남구","species":"은행나무","heightM":6.0,"crownWidthM":4.0,"rawHeight":6.0,"rawCrownWidth":4.0,"quality":"valid","sourceYear":2013},"geometry":{"type":"Point","coordinates":[127.04251354,37.53035603]}},{"type":"Feature","id":"street-188639","properties":{"id":"street-188639","dataset":"street","gu":"강남구","species":"은행나무","heightM":7.0,"crownWidthM":5.0,"rawHeight":7.0,"rawCrownWidth":5.0,"quality":"valid","sourceYear":2013},"geometry":{"type":"Point","coordinates":[127.04325864,37.53010933]}},{"type":"Feature","id":"street-189460","properties":{"id":"street-189460","dataset":"street","gu":"강남구","species":"은행나무","heightM":5.0,"crownWidthM":2.0,"rawHeight":5.0,"rawCrownWidth":2.0,"quality":"valid","sourceYear":2013},"geometry":{"type":"Point","coordinates":[127.04266991,37.53030473]}},{"type":"Feature","id":"street-190295","properties":{"id":"street-190295","dataset":"street","gu":"강남구","species":"느티나무","heightM":6.0,"crownWidthM":3.0,"rawHeight":6.0,"rawCrownWidth":3.0,"quality":"valid","sourceYear":2013},"geometry":{"type":"Point","coordinates":[127.04140394,37.53003082]}},{"type":"Feature","id":"street-191179","properties":{"id":"street-191179","dataset":"street","gu":"강남구","species":"은행나무","heightM":10.0,"crownWidthM":3.0,"rawHeight":10.0,"rawCrownWidth":3.0,"quality":"valid","sourceYear":2013},"geometry":{"type":"Point","coordinates":[127.04290749,37.53014724]}},{"type":"Feature","id":"street-191425","properties":{"id":"street-191425","dataset":"street","gu":"강남구","species":"은행나무","heightM":11.0,"crownWidthM":8.0,"rawHeight":11.0,"rawCrownWidth":8.0,"quality":"valid","sourceYear":2013},"geometry":{"type":"Point","coordinates":[127.04167904,37.5302951]}},{"type":"Feature","id":"street-191463","properties":{"id":"street-191463","dataset":"street","gu":"강남구","species":"은행나무","heightM":7.0,"crownWidthM":4.0,"rawHeight":7.0,"rawCrownWidth":4.0,"quality":"valid","sourceYear":2013},"geometry":{"type":"Point","coordinates":[127.04223903,37.53036341]}},{"type":"Feature","id":"street-193303","properties":{"id":"street-193303","dataset":"street","gu":"강남구","species":"양버즘나무","heightM":15.0,"crownWidthM":9.0,"rawHeight":15.0,"rawCrownWidth":9.0,"quality":"valid","sourceYear":2013},"geometry":{"type":"Point","coordinates":[127.04157615,37.53052756]}},{"type":"Feature","id":"street-193560","properties":{"id":"street-193560","dataset":"street","gu":"강남구","species":"은행나무","heightM":8.0,"crownWidthM":4.0,"rawHeight":8.0,"rawCrownWidth":4.0,"quality":"valid","sourceYear":2013},"geometry":{"type":"Point","coordinates":[127.04147858,37.53025868]}},{"type":"Feature","id":"street-193735","properties":{"id":"street-193735","dataset":"street","gu":"강남구","species":"은행나무","heightM":7.0,"crownWidthM":3.0,"rawHeight":7.0,"rawCrownWidth":3.0,"quality":"valid","sourceYear":2013},"geometry":{"type":"Point","coordinates":[127.04305013,37.53018016]}},{"type":"Feature","id":"street-195429","properties":{"id":"street-195429","dataset":"street","gu":"성동구","species":"때죽나무","heightM":4.0,"crownWidthM":2.0,"rawHeight":4.0,"rawCrownWidth":2.0,"quality":"valid","sourceYear":2013},"geometry":{"type":"Point","coordinates":[127.0438362,37.53852313]}},{"type":"Feature","id":"street-197092","properties":{"id":"street-197092","dataset":"street","gu":"강남구","species":"양버즘나무","heightM":10.0,"crownWidthM":7.0,"rawHeight":10.0,"rawCrownWidth":7.0,"quality":"valid","sourceYear":2013},"geometry":{"type":"Point","coordinates":[127.04162739,37.53015383]}},{"type":"Feature","id":"street-197135","properties":{"id":"street-197135","dataset":"street","gu":"강남구","species":"은행나무","heightM":10.0,"crownWidthM":5.0,"rawHeight":10.0,"rawCrownWidth":5.0,"quality":"valid","sourceYear":2013},"geometry":{"type":"Point","coordinates":[127.04298721,37.5301216]}},{"type":"Feature","id":"street-197551","properties":{"id":"street-197551","dataset":"street","gu":"강남구","species":"은행나무","heightM":7.0,"crownWidthM":3.0,"rawHeight":7.0,"rawCrownWidth":3.0,"quality":"valid","sourceYear":2013},"geometry":{"type":"Point","coordinates":[127.04135756,37.53075659]}},{"type":"Feature","id":"street-197982","properties":{"id":"street-197982","dataset":"street","gu":"강남구","species":"은행나무","heightM":7.0,"crownWidthM":4.0,"rawHeight":7.0,"rawCrownWidth":4.0,"quality":"valid","sourceYear":2013},"geometry":{"type":"Point","coordinates":[127.04219157,37.53046106]}},{"type":"Feature","id":"street-199702","properties":{"id":"street-199702","dataset":"street","gu":"강남구","species":"은행나무","heightM":7.0,"crownWidthM":2.0,"rawHeight":7.0,"rawCrownWidth":2.0,"quality":"valid","sourceYear":2013},"geometry":{"type":"Point","coordinates":[127.04209032,37.53040738]}},{"type":"Feature","id":"street-200053","properties":{"id":"street-200053","dataset":"street","gu":"강남구","species":"은행나무","heightM":7.0,"crownWidthM":3.0,"rawHeight":7.0,"rawCrownWidth":3.0,"quality":"valid","sourceYear":2013},"geometry":{"type":"Point","coordinates":[127.04064918,37.53092028]}},{"type":"Feature","id":"street-200153","properties":{"id":"street-200153","dataset":"street","gu":"강남구","species":"은행나무","heightM":5.0,"crownWidthM":2.0,"rawHeight":5.0,"rawCrownWidth":2.0,"quality":"valid","sourceYear":2013},"geometry":{"type":"Point","coordinates":[127.04296734,37.53020947]}},{"type":"Feature","id":"street-200216","properties":{"id":"street-200216","dataset":"street","gu":"강남구","species":"은행나무","heightM":7.0,"crownWidthM":4.0,"rawHeight":7.0,"rawCrownWidth":4.0,"quality":"valid","sourceYear":2013},"geometry":{"type":"Point","coordinates":[127.04008798,37.53105468]}},{"type":"Feature","id":"street-200259","properties":{"id":"street-200259","dataset":"street","gu":"강남구","species":"은행나무","heightM":5.0,"crownWidthM":3.0,"rawHeight":5.0,"rawCrownWidth":3.0,"quality":"valid","sourceYear":2013},"geometry":{"type":"Point","coordinates":[127.04258713,37.53033404]}},{"type":"Feature","id":"street-200326","properties":{"id":"street-200326","dataset":"street","gu":"강남구","species":"은행나무","heightM":4.0,"crownWidthM":2.0,"rawHeight":4.0,"rawCrownWidth":2.0,"quality":"valid","sourceYear":2013},"geometry":{"type":"Point","coordinates":[127.04188494,37.53055388]}},{"type":"Feature","id":"street-200748","properties":{"id":"street-200748","dataset":"street","gu":"강남구","species":"은행나무","heightM":6.0,"crownWidthM":3.0,"rawHeight":6.0,"rawCrownWidth":3.0,"quality":"valid","sourceYear":2013},"geometry":{"type":"Point","coordinates":[127.04281709,37.530251]}},{"type":"Feature","id":"street-200817","properties":{"id":"street-200817","dataset":"street","gu":"강남구","species":"은행나무","heightM":10.0,"crownWidthM":6.0,"rawHeight":10.0,"rawCrownWidth":6.0,"quality":"valid","sourceYear":2013},"geometry":{"type":"Point","coordinates":[127.04158192,37.5305868]}},{"type":"Feature","id":"street-200899","properties":{"id":"street-200899","dataset":"street","gu":"강남구","species":"은행나무","heightM":6.0,"crownWidthM":2.0,"rawHeight":6.0,"rawCrownWidth":2.0,"quality":"valid","sourceYear":2013},"geometry":{"type":"Point","coordinates":[127.04263459,37.53023396]}},{"type":"Feature","id":"street-201099","properties":{"id":"street-201099","dataset":"street","gu":"강남구","species":"은행나무","heightM":7.0,"crownWidthM":3.0,"rawHeight":7.0,"rawCrownWidth":3.0,"quality":"valid","sourceYear":2013},"geometry":{"type":"Point","coordinates":[127.04269591,37.53021686]}},{"type":"Feature","id":"street-201734","properties":{"id":"street-201734","dataset":"street","gu":"강남구","species":"은행나무","heightM":6.0,"crownWidthM":4.0,"rawHeight":6.0,"rawCrownWidth":4.0,"quality":"valid","sourceYear":2013},"geometry":{"type":"Point","coordinates":[127.04056639,37.53093983]}},{"type":"Feature","id":"street-201784","properties":{"id":"street-201784","dataset":"street","gu":"강남구","species":"은행나무","heightM":7.0,"crownWidthM":5.0,"rawHeight":7.0,"rawCrownWidth":5.0,"quality":"valid","sourceYear":2013},"geometry":{"type":"Point","coordinates":[127.0402413,37.5310131]}},{"type":"Feature","id":"street-202949","properties":{"id":"street-202949","dataset":"street","gu":"강남구","species":"은행나무","heightM":7.0,"crownWidthM":3.0,"rawHeight":7.0,"rawCrownWidth":3.0,"quality":"valid","sourceYear":2013},"geometry":{"type":"Point","coordinates":[127.04203825,37.53050747]}},{"type":"Feature","id":"street-203318","properties":{"id":"street-203318","dataset":"street","gu":"강남구","species":"은행나무","heightM":6.0,"crownWidthM":1.0,"rawHeight":6.0,"rawCrownWidth":1.0,"quality":"valid","sourceYear":2013},"geometry":{"type":"Point","coordinates":[127.04332303,37.53008978]}},{"type":"Feature","id":"street-203539","properties":{"id":"street-203539","dataset":"street","gu":"강남구","species":"은행나무","heightM":null,"crownWidthM":null,"rawHeight":0.0,"rawCrownWidth":0.0,"quality":"review","sourceYear":2013},"geometry":{"type":"Point","coordinates":[127.0414269,37.53009918]}},{"type":"Feature","id":"street-203749","properties":{"id":"street-203749","dataset":"street","gu":"강남구","species":"은행나무","heightM":7.0,"crownWidthM":5.0,"rawHeight":7.0,"rawCrownWidth":5.0,"quality":"valid","sourceYear":2013},"geometry":{"type":"Point","coordinates":[127.04048051,37.53095449]}},{"type":"Feature","id":"street-203754","properties":{"id":"street-203754","dataset":"street","gu":"강남구","species":"은행나무","heightM":6.0,"crownWidthM":3.0,"rawHeight":6.0,"rawCrownWidth":3.0,"quality":"valid","sourceYear":2013},"geometry":{"type":"Point","coordinates":[127.04196466,37.5305319]}},{"type":"Feature","id":"street-203764","properties":{"id":"street-203764","dataset":"street","gu":"강남구","species":"은행나무","heightM":6.0,"crownWidthM":3.0,"rawHeight":6.0,"rawCrownWidth":3.0,"quality":"valid","sourceYear":2013},"geometry":{"type":"Point","coordinates":[127.04242154,37.53037802]}},{"type":"Feature","id":"street-203983","properties":{"id":"street-203983","dataset":"street","gu":"강남구","species":"은행나무","heightM":7.0,"crownWidthM":5.0,"rawHeight":7.0,"rawCrownWidth":5.0,"quality":"valid","sourceYear":2013},"geometry":{"type":"Point","coordinates":[127.04201979,37.53043059]}},{"type":"Feature","id":"street-204409","properties":{"id":"street-204409","dataset":"street","gu":"강남구","species":"은행나무","heightM":6.0,"crownWidthM":3.0,"rawHeight":6.0,"rawCrownWidth":3.0,"quality":"valid","sourceYear":2013},"geometry":{"type":"Point","coordinates":[127.0428385,37.53017289]}},{"type":"Feature","id":"street-204454","properties":{"id":"street-204454","dataset":"street","gu":"강남구","species":"은행나무","heightM":14.0,"crownWidthM":9.0,"rawHeight":14.0,"rawCrownWidth":9.0,"quality":"valid","sourceYear":2013},"geometry":{"type":"Point","coordinates":[127.04154745,37.53045464]}},{"type":"Feature","id":"street-204863","properties":{"id":"street-204863","dataset":"street","gu":"강남구","species":"은행나무","heightM":7.0,"crownWidthM":4.0,"rawHeight":7.0,"rawCrownWidth":4.0,"quality":"valid","sourceYear":2013},"geometry":{"type":"Point","coordinates":[127.04238621,37.53031334]}},{"type":"Feature","id":"street-205020","properties":{"id":"street-205020","dataset":"street","gu":"강남구","species":"양버즘나무","heightM":10.0,"crownWidthM":8.0,"rawHeight":10.0,"rawCrownWidth":8.0,"quality":"valid","sourceYear":2013},"geometry":{"type":"Point","coordinates":[127.04165608,37.5302313]}},{"type":"Feature","id":"street-207033","properties":{"id":"street-207033","dataset":"street","gu":"강남구","species":"은행나무","heightM":8.0,"crownWidthM":2.0,"rawHeight":8.0,"rawCrownWidth":2.0,"quality":"valid","sourceYear":2013},"geometry":{"type":"Point","coordinates":[127.04311292,37.53007397]}},{"type":"Feature","id":"street-210961","properties":{"id":"street-210961","dataset":"street","gu":"강남구","species":"양버즘나무","heightM":7.0,"crownWidthM":7.0,"rawHeight":7.0,"rawCrownWidth":7.0,"quality":"valid","sourceYear":2013},"geometry":{"type":"Point","coordinates":[127.04159296,37.53006724]}},{"type":"Feature","id":"street-233959","properties":{"id":"street-233959","dataset":"street","gu":"성동구","species":"때죽나무","heightM":3.0,"crownWidthM":2.0,"rawHeight":3.0,"rawCrownWidth":2.0,"quality":"valid","sourceYear":2013},"geometry":{"type":"Point","coordinates":[127.0439254,37.53972306]}},{"type":"Feature","id":"street-234723","properties":{"id":"street-234723","dataset":"street","gu":"성동구","species":"때죽나무","heightM":4.0,"crownWidthM":2.0,"rawHeight":4.0,"rawCrownWidth":2.0,"quality":"valid","sourceYear":2013},"geometry":{"type":"Point","coordinates":[127.04382708,37.53838472]}},{"type":"Feature","id":"street-241857","properties":{"id":"street-241857","dataset":"street","gu":"강남구","species":"느티나무","heightM":8.0,"crownWidthM":6.0,"rawHeight":8.0,"rawCrownWidth":6.0,"quality":"valid","sourceYear":2013},"geometry":{"type":"Point","coordinates":[127.04144987,37.53016754]}},{"type":"Feature","id":"street-251506","properties":{"id":"street-251506","dataset":"street","gu":"강남구","species":"은행나무","heightM":6.0,"crownWidthM":5.0,"rawHeight":6.0,"rawCrownWidth":5.0,"quality":"valid","sourceYear":2013},"geometry":{"type":"Point","coordinates":[127.04032411,37.53099844]}},{"type":"Feature","id":"street-254773","properties":{"id":"street-254773","dataset":"street","gu":"강남구","species":"은행나무","heightM":4.0,"crownWidthM":2.0,"rawHeight":4.0,"rawCrownWidth":2.0,"quality":"valid","sourceYear":2013},"geometry":{"type":"Point","coordinates":[127.04152448,37.53037261]}},{"type":"Feature","id":"street-255515","properties":{"id":"street-255515","dataset":"street","gu":"강남구","species":"은행나무","heightM":6.0,"crownWidthM":4.0,"rawHeight":6.0,"rawCrownWidth":4.0,"quality":"valid","sourceYear":2013},"geometry":{"type":"Point","coordinates":[127.04231109,37.53033899]}},{"type":"Feature","id":"park-private-6539","properties":{"id":"park-private-6539","dataset":"park-private","gu":"성동구","species":"은행나무","heightM":13.0,"crownWidthM":8.0,"rawHeight":13.0,"rawCrownWidth":8.0,"quality":"valid","sourceYear":2013},"geometry":{"type":"Point","coordinates":[127.04908194,37.53981075]}},{"type":"Feature","id":"park-private-6610","properties":{"id":"park-private-6610","dataset":"park-private","gu":"성동구","species":"느티나무","heightM":12.0,"crownWidthM":12.0,"rawHeight":12.0,"rawCrownWidth":12.0,"quality":"valid","sourceYear":2013},"geometry":{"type":"Point","coordinates":[127.04815029,37.5378836]}},{"type":"Feature","id":"park-private-6711","properties":{"id":"park-private-6711","dataset":"park-private","gu":"성동구","species":"은행나무","heightM":13.0,"crownWidthM":9.0,"rawHeight":13.0,"rawCrownWidth":9.0,"quality":"valid","sourceYear":2013},"geometry":{"type":"Point","coordinates":[127.04972397,37.53658494]}},{"type":"Feature","id":"park-private-7006","properties":{"id":"park-private-7006","dataset":"park-private","gu":"성동구","species":"은행나무","heightM":12.0,"crownWidthM":7.0,"rawHeight":12.0,"rawCrownWidth":7.0,"quality":"valid","sourceYear":2013},"geometry":{"type":"Point","coordinates":[127.04751306,37.53992854]}},{"type":"Feature","id":"park-private-7295","properties":{"id":"park-private-7295","dataset":"park-private","gu":"성동구","species":"은행나무","heightM":13.0,"crownWidthM":8.0,"rawHeight":13.0,"rawCrownWidth":8.0,"quality":"valid","sourceYear":2013},"geometry":{"type":"Point","coordinates":[127.04902111,37.5398294]}},{"type":"Feature","id":"park-private-7634","properties":{"id":"park-private-7634","dataset":"park-private","gu":"성동구","species":"목련","heightM":7.0,"crownWidthM":6.0,"rawHeight":7.0,"rawCrownWidth":6.0,"quality":"valid","sourceYear":2013},"geometry":{"type":"Point","coordinates":[127.04597624,37.53975308]}},{"type":"Feature","id":"park-private-9958","properties":{"id":"park-private-9958","dataset":"park-private","gu":"성동구","species":"은행나무","heightM":10.0,"crownWidthM":8.0,"rawHeight":10.0,"rawCrownWidth":8.0,"quality":"valid","sourceYear":2013},"geometry":{"type":"Point","coordinates":[127.04911346,37.53773951]}},{"type":"Feature","id":"park-private-10624","properties":{"id":"park-private-10624","dataset":"park-private","gu":"성동구","species":"은행나무","heightM":13.0,"crownWidthM":8.0,"rawHeight":13.0,"rawCrownWidth":8.0,"quality":"valid","sourceYear":2013},"geometry":{"type":"Point","coordinates":[127.04914744,37.53979209]}},{"type":"Feature","id":"park-private-10809","properties":{"id":"park-private-10809","dataset":"park-private","gu":"성동구","species":"느티나무","heightM":19.0,"crownWidthM":16.0,"rawHeight":19.0,"rawCrownWidth":16.0,"quality":"valid","sourceYear":2013},"geometry":{"type":"Point","coordinates":[127.04657898,37.53929713]}},{"type":"Feature","id":"park-private-10940","properties":{"id":"park-private-10940","dataset":"park-private","gu":"성동구","species":"목련","heightM":8.0,"crownWidthM":4.0,"rawHeight":8.0,"rawCrownWidth":4.0,"quality":"valid","sourceYear":2013},"geometry":{"type":"Point","coordinates":[127.04588004,37.53967843]}},{"type":"Feature","id":"park-private-11108","properties":{"id":"park-private-11108","dataset":"park-private","gu":"성동구","species":"은행나무","heightM":14.0,"crownWidthM":8.0,"rawHeight":14.0,"rawCrownWidth":8.0,"quality":"valid","sourceYear":2013},"geometry":{"type":"Point","coordinates":[127.04933937,37.53987035]}},{"type":"Feature","id":"park-private-11134","properties":{"id":"park-private-11134","dataset":"park-private","gu":"성동구","species":"은행나무","heightM":10.0,"crownWidthM":6.0,"rawHeight":10.0,"rawCrownWidth":6.0,"quality":"valid","sourceYear":2013},"geometry":{"type":"Point","coordinates":[127.04914593,37.5377977]}},{"type":"Feature","id":"park-private-11255","properties":{"id":"park-private-11255","dataset":"park-private","gu":"성동구","species":"은행나무","heightM":13.0,"crownWidthM":9.0,"rawHeight":13.0,"rawCrownWidth":9.0,"quality":"valid","sourceYear":2013},"geometry":{"type":"Point","coordinates":[127.04948232,37.53653658]}},{"type":"Feature","id":"park-private-11311","properties":{"id":"park-private-11311","dataset":"park-private","gu":"성동구","species":"목련","heightM":10.0,"crownWidthM":5.0,"rawHeight":10.0,"rawCrownWidth":5.0,"quality":"valid","sourceYear":2013},"geometry":{"type":"Point","coordinates":[127.04591053,37.53966908]}},{"type":"Feature","id":"park-private-11483","properties":{"id":"park-private-11483","dataset":"park-private","gu":"성동구","species":"느티나무","heightM":16.0,"crownWidthM":13.0,"rawHeight":16.0,"rawCrownWidth":13.0,"quality":"valid","sourceYear":2013},"geometry":{"type":"Point","coordinates":[127.04646639,37.53932893]}},{"type":"Feature","id":"park-private-11511","properties":{"id":"park-private-11511","dataset":"park-private","gu":"성동구","species":"은행나무","heightM":13.0,"crownWidthM":8.0,"rawHeight":13.0,"rawCrownWidth":8.0,"quality":"valid","sourceYear":2013},"geometry":{"type":"Point","coordinates":[127.04923166,37.53976224]}},{"type":"Feature","id":"park-private-11835","properties":{"id":"park-private-11835","dataset":"park-private","gu":"성동구","species":"은행나무","heightM":13.0,"crownWidthM":9.0,"rawHeight":13.0,"rawCrownWidth":9.0,"quality":"valid","sourceYear":2013},"geometry":{"type":"Point","coordinates":[127.04924118,37.53999342]}},{"type":"Feature","id":"park-private-11884","properties":{"id":"park-private-11884","dataset":"park-private","gu":"성동구","species":"은행나무","heightM":14.0,"crownWidthM":10.0,"rawHeight":14.0,"rawCrownWidth":10.0,"quality":"valid","sourceYear":2013},"geometry":{"type":"Point","coordinates":[127.04930184,37.53973985]}},{"type":"Feature","id":"park-private-12111","properties":{"id":"park-private-12111","dataset":"park-private","gu":"성동구","species":"은행나무","heightM":15.0,"crownWidthM":7.0,"rawHeight":15.0,"rawCrownWidth":7.0,"quality":"valid","sourceYear":2013},"geometry":{"type":"Point","coordinates":[127.04955603,37.53766006]}},{"type":"Feature","id":"park-private-12282","properties":{"id":"park-private-12282","dataset":"park-private","gu":"성동구","species":"느티나무","heightM":13.0,"crownWidthM":15.0,"rawHeight":13.0,"rawCrownWidth":15.0,"quality":"valid","sourceYear":2013},"geometry":{"type":"Point","coordinates":[127.0481854,37.53793574]}},{"type":"Feature","id":"park-private-12540","properties":{"id":"park-private-12540","dataset":"park-private","gu":"성동구","species":"은행나무","heightM":13.0,"crownWidthM":8.0,"rawHeight":13.0,"rawCrownWidth":8.0,"quality":"valid","sourceYear":2013},"geometry":{"type":"Point","coordinates":[127.04974429,37.53660594]}},{"type":"Feature","id":"park-private-13948","properties":{"id":"park-private-13948","dataset":"park-private","gu":"성동구","species":"목련","heightM":9.0,"crownWidthM":6.0,"rawHeight":9.0,"rawCrownWidth":6.0,"quality":"valid","sourceYear":2013},"geometry":{"type":"Point","coordinates":[127.04955137,37.53655917]}},{"type":"Feature","id":"park-private-13959","properties":{"id":"park-private-13959","dataset":"park-private","gu":"성동구","species":"은행나무","heightM":8.0,"crownWidthM":4.0,"rawHeight":8.0,"rawCrownWidth":4.0,"quality":"valid","sourceYear":2013},"geometry":{"type":"Point","coordinates":[127.04600204,37.53974373]}},{"type":"Feature","id":"park-private-14447","properties":{"id":"park-private-14447","dataset":"park-private","gu":"성동구","species":"은행나무","heightM":15.0,"crownWidthM":7.0,"rawHeight":15.0,"rawCrownWidth":7.0,"quality":"valid","sourceYear":2013},"geometry":{"type":"Point","coordinates":[127.04958851,37.53768591]}},{"type":"Feature","id":"park-private-127564","properties":{"id":"park-private-127564","dataset":"park-private","gu":"강남구","species":"버즘나무","heightM":12.0,"crownWidthM":6.0,"rawHeight":12.0,"rawCrownWidth":6.0,"quality":"valid","sourceYear":2013},"geometry":{"type":"Point","coordinates":[127.04191282,37.53062812]}},{"type":"Feature","id":"park-private-127574","properties":{"id":"park-private-127574","dataset":"park-private","gu":"강남구","species":"버즘나무","heightM":14.0,"crownWidthM":4.0,"rawHeight":14.0,"rawCrownWidth":4.0,"quality":"valid","sourceYear":2013},"geometry":{"type":"Point","coordinates":[127.04221154,37.53056861]}},{"type":"Feature","id":"park-private-127992","properties":{"id":"park-private-127992","dataset":"park-private","gu":"강남구","species":"버즘나무","heightM":10.0,"crownWidthM":6.0,"rawHeight":10.0,"rawCrownWidth":6.0,"quality":"valid","sourceYear":2013},"geometry":{"type":"Point","coordinates":[127.04371061,37.53020061]}},{"type":"Feature","id":"park-private-128228","properties":{"id":"park-private-128228","dataset":"park-private","gu":"강남구","species":"버즘나무","heightM":10.0,"crownWidthM":6.0,"rawHeight":10.0,"rawCrownWidth":6.0,"quality":"valid","sourceYear":2013},"geometry":{"type":"Point","coordinates":[127.04195984,37.5306149]}},{"type":"Feature","id":"park-private-128307","properties":{"id":"park-private-128307","dataset":"park-private","gu":"강남구","species":"느티나무","heightM":7.0,"crownWidthM":6.0,"rawHeight":7.0,"rawCrownWidth":6.0,"quality":"valid","sourceYear":2013},"geometry":{"type":"Point","coordinates":[127.04075075,37.53038007]}},{"type":"Feature","id":"park-private-128308","properties":{"id":"park-private-128308","dataset":"park-private","gu":"강남구","species":"버즘나무","heightM":11.0,"crownWidthM":6.0,"rawHeight":11.0,"rawCrownWidth":6.0,"quality":"valid","sourceYear":2013},"geometry":{"type":"Point","coordinates":[127.04193785,37.53078883]}},{"type":"Feature","id":"park-private-128496","properties":{"id":"park-private-128496","dataset":"park-private","gu":"강남구","species":"회화나무","heightM":9.0,"crownWidthM":7.0,"rawHeight":9.0,"rawCrownWidth":7.0,"quality":"valid","sourceYear":2013},"geometry":{"type":"Point","coordinates":[127.04088401,37.53097619]}},{"type":"Feature","id":"park-private-128497","properties":{"id":"park-private-128497","dataset":"park-private","gu":"강남구","species":"버즘나무","heightM":9.0,"crownWidthM":6.0,"rawHeight":9.0,"rawCrownWidth":6.0,"quality":"valid","sourceYear":2013},"geometry":{"type":"Point","coordinates":[127.0408758,37.53108847]}},{"type":"Feature","id":"park-private-128784","properties":{"id":"park-private-128784","dataset":"park-private","gu":"강남구","species":"버즘나무","heightM":10.0,"crownWidthM":4.0,"rawHeight":10.0,"rawCrownWidth":4.0,"quality":"valid","sourceYear":2013},"geometry":{"type":"Point","coordinates":[127.04208162,37.53068753]}},{"type":"Feature","id":"park-private-128814","properties":{"id":"park-private-128814","dataset":"park-private","gu":"강남구","species":"은행나무","heightM":12.0,"crownWidthM":4.0,"rawHeight":12.0,"rawCrownWidth":4.0,"quality":"valid","sourceYear":2013},"geometry":{"type":"Point","coordinates":[127.04234148,37.53047392]}},{"type":"Feature","id":"park-private-129129","properties":{"id":"park-private-129129","dataset":"park-private","gu":"강남구","species":"은행나무","heightM":10.0,"crownWidthM":4.0,"rawHeight":10.0,"rawCrownWidth":4.0,"quality":"valid","sourceYear":2013},"geometry":{"type":"Point","coordinates":[127.04309714,37.53003196]}},{"type":"Feature","id":"park-private-130382","properties":{"id":"park-private-130382","dataset":"park-private","gu":"강남구","species":"버즘나무","heightM":9.0,"crownWidthM":6.0,"rawHeight":9.0,"rawCrownWidth":6.0,"quality":"valid","sourceYear":2013},"geometry":{"type":"Point","coordinates":[127.04036083,37.53123692]}},{"type":"Feature","id":"park-private-130409","properties":{"id":"park-private-130409","dataset":"park-private","gu":"강남구","species":"버즘나무","heightM":9.0,"crownWidthM":6.0,"rawHeight":9.0,"rawCrownWidth":6.0,"quality":"valid","sourceYear":2013},"geometry":{"type":"Point","coordinates":[127.04113015,37.53089028]}},{"type":"Feature","id":"park-private-130661","properties":{"id":"park-private-130661","dataset":"park-private","gu":"강남구","species":"버즘나무","heightM":10.0,"crownWidthM":4.0,"rawHeight":10.0,"rawCrownWidth":4.0,"quality":"valid","sourceYear":2013},"geometry":{"type":"Point","coordinates":[127.04236371,37.530595]}},{"type":"Feature","id":"park-private-130678","properties":{"id":"park-private-130678","dataset":"park-private","gu":"강남구","species":"버즘나무","heightM":7.0,"crownWidthM":4.0,"rawHeight":7.0,"rawCrownWidth":4.0,"quality":"valid","sourceYear":2013},"geometry":{"type":"Point","coordinates":[127.04013221,37.53039711]}},{"type":"Feature","id":"park-private-130754","properties":{"id":"park-private-130754","dataset":"park-private","gu":"강남구","species":"버즘나무","heightM":14.0,"crownWidthM":6.0,"rawHeight":14.0,"rawCrownWidth":6.0,"quality":"valid","sourceYear":2013},"geometry":{"type":"Point","coordinates":[127.04385154,37.53002445]}},{"type":"Feature","id":"park-private-130853","properties":{"id":"park-private-130853","dataset":"park-private","gu":"강남구","species":"버즘나무","heightM":14.0,"crownWidthM":4.0,"rawHeight":14.0,"rawCrownWidth":4.0,"quality":"valid","sourceYear":2013},"geometry":{"type":"Point","coordinates":[127.04227516,37.53055979]}},{"type":"Feature","id":"park-private-130976","properties":{"id":"park-private-130976","dataset":"park-private","gu":"강남구","species":"버즘나무","heightM":7.0,"crownWidthM":4.0,"rawHeight":7.0,"rawCrownWidth":4.0,"quality":"valid","sourceYear":2013},"geometry":{"type":"Point","coordinates":[127.04003073,37.53042535]}},{"type":"Feature","id":"park-private-131522","properties":{"id":"park-private-131522","dataset":"park-private","gu":"강남구","species":"버즘나무","heightM":11.0,"crownWidthM":6.0,"rawHeight":11.0,"rawCrownWidth":6.0,"quality":"valid","sourceYear":2013},"geometry":{"type":"Point","coordinates":[127.04200971,37.53071396]}},{"type":"Feature","id":"park-private-132117","properties":{"id":"park-private-132117","dataset":"park-private","gu":"강남구","species":"버즘나무","heightM":12.0,"crownWidthM":4.0,"rawHeight":12.0,"rawCrownWidth":4.0,"quality":"valid","sourceYear":2013},"geometry":{"type":"Point","coordinates":[127.04366085,37.53024245]}},{"type":"Feature","id":"park-private-132488","properties":{"id":"park-private-132488","dataset":"park-private","gu":"강남구","species":"살구나무","heightM":7.0,"crownWidthM":7.0,"rawHeight":7.0,"rawCrownWidth":7.0,"quality":"valid","sourceYear":2013},"geometry":{"type":"Point","coordinates":[127.04040157,37.53066948]}},{"type":"Feature","id":"park-private-132749","properties":{"id":"park-private-132749","dataset":"park-private","gu":"강남구","species":"후박나무","heightM":10.0,"crownWidthM":6.0,"rawHeight":10.0,"rawCrownWidth":6.0,"quality":"valid","sourceYear":2013},"geometry":{"type":"Point","coordinates":[127.04135754,37.53044382]}},{"type":"Feature","id":"park-private-133002","properties":{"id":"park-private-133002","dataset":"park-private","gu":"강남구","species":"버즘나무","heightM":12.0,"crownWidthM":4.0,"rawHeight":12.0,"rawCrownWidth":4.0,"quality":"valid","sourceYear":2013},"geometry":{"type":"Point","coordinates":[127.04207047,37.53057745]}},{"type":"Feature","id":"park-private-133384","properties":{"id":"park-private-133384","dataset":"park-private","gu":"강남구","species":"버즘나무","heightM":14.0,"crownWidthM":4.0,"rawHeight":14.0,"rawCrownWidth":4.0,"quality":"valid","sourceYear":2013},"geometry":{"type":"Point","coordinates":[127.04223917,37.53052678]}},{"type":"Feature","id":"park-private-133428","properties":{"id":"park-private-133428","dataset":"park-private","gu":"강남구","species":"버즘나무","heightM":14.0,"crownWidthM":6.0,"rawHeight":14.0,"rawCrownWidth":6.0,"quality":"valid","sourceYear":2013},"geometry":{"type":"Point","coordinates":[127.04375194,37.53001127]}},{"type":"Feature","id":"park-private-133560","properties":{"id":"park-private-133560","dataset":"park-private","gu":"강남구","species":"버즘나무","heightM":9.0,"crownWidthM":4.0,"rawHeight":9.0,"rawCrownWidth":4.0,"quality":"valid","sourceYear":2013},"geometry":{"type":"Point","coordinates":[127.04021913,37.53127118]}},{"type":"Feature","id":"park-private-133596","properties":{"id":"park-private-133596","dataset":"park-private","gu":"강남구","species":"버즘나무","heightM":13.0,"crownWidthM":4.0,"rawHeight":13.0,"rawCrownWidth":4.0,"quality":"valid","sourceYear":2013},"geometry":{"type":"Point","coordinates":[127.04205943,37.53061488]}},{"type":"Feature","id":"park-private-133791","properties":{"id":"park-private-133791","dataset":"park-private","gu":"강남구","species":"버즘나무","heightM":15.0,"crownWidthM":6.0,"rawHeight":15.0,"rawCrownWidth":6.0,"quality":"valid","sourceYear":2013},"geometry":{"type":"Point","coordinates":[127.0435556,37.53009497]}},{"type":"Feature","id":"park-private-133822","properties":{"id":"park-private-133822","dataset":"park-private","gu":"강남구","species":"은행나무","heightM":9.0,"crownWidthM":6.0,"rawHeight":9.0,"rawCrownWidth":6.0,"quality":"valid","sourceYear":2013},"geometry":{"type":"Point","coordinates":[127.04174145,37.53080428]}},{"type":"Feature","id":"park-private-133886","properties":{"id":"park-private-133886","dataset":"park-private","gu":"강남구","species":"버즘나무","heightM":10.0,"crownWidthM":4.0,"rawHeight":10.0,"rawCrownWidth":4.0,"quality":"valid","sourceYear":2013},"geometry":{"type":"Point","coordinates":[127.04004168,37.53131415]}},{"type":"Feature","id":"park-private-133965","properties":{"id":"park-private-133965","dataset":"park-private","gu":"강남구","species":"버즘나무","heightM":15.0,"crownWidthM":7.0,"rawHeight":15.0,"rawCrownWidth":7.0,"quality":"valid","sourceYear":2013},"geometry":{"type":"Point","coordinates":[127.04066269,37.53096083]}},{"type":"Feature","id":"park-private-134184","properties":{"id":"park-private-134184","dataset":"park-private","gu":"강남구","species":"버즘나무","heightM":10.0,"crownWidthM":4.0,"rawHeight":10.0,"rawCrownWidth":4.0,"quality":"valid","sourceYear":2013},"geometry":{"type":"Point","coordinates":[127.04239135,37.53055976]}},{"type":"Feature","id":"park-private-134189","properties":{"id":"park-private-134189","dataset":"park-private","gu":"강남구","species":"버즘나무","heightM":10.0,"crownWidthM":6.0,"rawHeight":10.0,"rawCrownWidth":6.0,"quality":"valid","sourceYear":2013},"geometry":{"type":"Point","coordinates":[127.04008781,37.53130298]}},{"type":"Feature","id":"park-private-134359","properties":{"id":"park-private-134359","dataset":"park-private","gu":"강남구","species":"버즘나무","heightM":4.0,"crownWidthM":4.0,"rawHeight":4.0,"rawCrownWidth":4.0,"quality":"valid","sourceYear":2013},"geometry":{"type":"Point","coordinates":[127.04015593,37.53054364]}},{"type":"Feature","id":"park-private-134509","properties":{"id":"park-private-134509","dataset":"park-private","gu":"강남구","species":"버즘나무","heightM":12.0,"crownWidthM":4.0,"rawHeight":12.0,"rawCrownWidth":4.0,"quality":"valid","sourceYear":2013},"geometry":{"type":"Point","coordinates":[127.04221165,37.5307029]}},{"type":"Feature","id":"park-private-134877","properties":{"id":"park-private-134877","dataset":"park-private","gu":"강남구","species":"버즘나무","heightM":11.0,"crownWidthM":6.0,"rawHeight":11.0,"rawCrownWidth":6.0,"quality":"valid","sourceYear":2013},"geometry":{"type":"Point","coordinates":[127.04110647,37.53105669]}},{"type":"Feature","id":"park-private-134969","properties":{"id":"park-private-134969","dataset":"park-private","gu":"강남구","species":"버즘나무","heightM":7.0,"crownWidthM":6.0,"rawHeight":7.0,"rawCrownWidth":6.0,"quality":"valid","sourceYear":2013},"geometry":{"type":"Point","coordinates":[127.04015927,37.53107541]}},{"type":"Feature","id":"park-private-135379","properties":{"id":"park-private-135379","dataset":"park-private","gu":"강남구","species":"살구나무","heightM":6.0,"crownWidthM":5.0,"rawHeight":6.0,"rawCrownWidth":5.0,"quality":"valid","sourceYear":2013},"geometry":{"type":"Point","coordinates":[127.04087349,37.53034999]}},{"type":"Feature","id":"park-private-135433","properties":{"id":"park-private-135433","dataset":"park-private","gu":"강남구","species":"버즘나무","heightM":12.0,"crownWidthM":4.0,"rawHeight":12.0,"rawCrownWidth":4.0,"quality":"valid","sourceYear":2013},"geometry":{"type":"Point","coordinates":[127.0422448,37.53064125]}},{"type":"Feature","id":"park-private-135472","properties":{"id":"park-private-135472","dataset":"park-private","gu":"강남구","species":"버즘나무","heightM":14.0,"crownWidthM":4.0,"rawHeight":14.0,"rawCrownWidth":4.0,"quality":"valid","sourceYear":2013},"geometry":{"type":"Point","coordinates":[127.04377964,37.53005749]}},{"type":"Feature","id":"park-private-135646","properties":{"id":"park-private-135646","dataset":"park-private","gu":"강남구","species":"버즘나무","heightM":5.0,"crownWidthM":4.0,"rawHeight":5.0,"rawCrownWidth":4.0,"quality":"valid","sourceYear":2013},"geometry":{"type":"Point","coordinates":[127.04011088,37.53028439]}},{"type":"Feature","id":"park-private-136308","properties":{"id":"park-private-136308","dataset":"park-private","gu":"강남구","species":"버즘나무","heightM":6.0,"crownWidthM":4.0,"rawHeight":6.0,"rawCrownWidth":4.0,"quality":"valid","sourceYear":2013},"geometry":{"type":"Point","coordinates":[127.0400804,37.53055872]}},{"type":"Feature","id":"park-private-136426","properties":{"id":"park-private-136426","dataset":"park-private","gu":"강남구","species":"버즘나무","heightM":9.0,"crownWidthM":4.0,"rawHeight":9.0,"rawCrownWidth":4.0,"quality":"valid","sourceYear":2013},"geometry":{"type":"Point","coordinates":[127.04377421,37.53017858]}},{"type":"Feature","id":"park-private-137270","properties":{"id":"park-private-137270","dataset":"park-private","gu":"강남구","species":"버즘나무","heightM":12.0,"crownWidthM":6.0,"rawHeight":12.0,"rawCrownWidth":6.0,"quality":"valid","sourceYear":2013},"geometry":{"type":"Point","coordinates":[127.04043311,37.5310137]}},{"type":"Feature","id":"park-private-137392","properties":{"id":"park-private-137392","dataset":"park-private","gu":"강남구","species":"버즘나무","heightM":13.0,"crownWidthM":4.0,"rawHeight":13.0,"rawCrownWidth":4.0,"quality":"valid","sourceYear":2013},"geometry":{"type":"Point","coordinates":[127.04231111,37.53053997]}},{"type":"Feature","id":"park-private-137569","properties":{"id":"park-private-137569","dataset":"park-private","gu":"강남구","species":"버즘나무","heightM":10.0,"crownWidthM":5.0,"rawHeight":10.0,"rawCrownWidth":5.0,"quality":"valid","sourceYear":2013},"geometry":{"type":"Point","coordinates":[127.04245223,37.53058837]}},{"type":"Feature","id":"park-private-137813","properties":{"id":"park-private-137813","dataset":"park-private","gu":"강남구","species":"버즘나무","heightM":14.0,"crownWidthM":4.0,"rawHeight":14.0,"rawCrownWidth":4.0,"quality":"valid","sourceYear":2013},"geometry":{"type":"Point","coordinates":[127.04216726,37.53054661]}},{"type":"Feature","id":"park-private-137933","properties":{"id":"park-private-137933","dataset":"park-private","gu":"강남구","species":"왕벚나무","heightM":6.0,"crownWidthM":8.0,"rawHeight":6.0,"rawCrownWidth":8.0,"quality":"valid","sourceYear":2013},"geometry":{"type":"Point","coordinates":[127.04171852,37.53016567]}},{"type":"Feature","id":"park-private-137965","properties":{"id":"park-private-137965","dataset":"park-private","gu":"강남구","species":"버즘나무","heightM":15.0,"crownWidthM":6.0,"rawHeight":15.0,"rawCrownWidth":6.0,"quality":"valid","sourceYear":2013},"geometry":{"type":"Point","coordinates":[127.04182717,37.53075363]}},{"type":"Feature","id":"park-private-138013","properties":{"id":"park-private-138013","dataset":"park-private","gu":"강남구","species":"버즘나무","heightM":9.0,"crownWidthM":4.0,"rawHeight":9.0,"rawCrownWidth":4.0,"quality":"valid","sourceYear":2013},"geometry":{"type":"Point","coordinates":[127.04322386,37.53035703]}},{"type":"Feature","id":"park-private-138245","properties":{"id":"park-private-138245","dataset":"park-private","gu":"강남구","species":"버즘나무","heightM":9.0,"crownWidthM":5.0,"rawHeight":9.0,"rawCrownWidth":5.0,"quality":"valid","sourceYear":2013},"geometry":{"type":"Point","coordinates":[127.04005971,37.5311129]}},{"type":"Feature","id":"park-private-138310","properties":{"id":"park-private-138310","dataset":"park-private","gu":"강남구","species":"버즘나무","heightM":10.0,"crownWidthM":5.0,"rawHeight":10.0,"rawCrownWidth":5.0,"quality":"valid","sourceYear":2013},"geometry":{"type":"Point","coordinates":[127.04080377,37.53095639]}},{"type":"Feature","id":"park-private-138320","properties":{"id":"park-private-138320","dataset":"park-private","gu":"강남구","species":"버즘나무","heightM":9.0,"crownWidthM":4.0,"rawHeight":9.0,"rawCrownWidth":4.0,"quality":"valid","sourceYear":2013},"geometry":{"type":"Point","coordinates":[127.04213694,37.5306743]}},{"type":"Feature","id":"park-private-138381","properties":{"id":"park-private-138381","dataset":"park-private","gu":"강남구","species":"버즘나무","heightM":14.0,"crownWidthM":7.0,"rawHeight":14.0,"rawCrownWidth":7.0,"quality":"valid","sourceYear":2013},"geometry":{"type":"Point","coordinates":[127.04055764,37.53105551]}},{"type":"Feature","id":"park-private-138413","properties":{"id":"park-private-138413","dataset":"park-private","gu":"강남구","species":"버즘나무","heightM":10.0,"crownWidthM":4.0,"rawHeight":10.0,"rawCrownWidth":4.0,"quality":"valid","sourceYear":2013},"geometry":{"type":"Point","coordinates":[127.04171654,37.53078447]}},{"type":"Feature","id":"park-private-138448","properties":{"id":"park-private-138448","dataset":"park-private","gu":"강남구","species":"버즘나무","heightM":9.0,"crownWidthM":4.0,"rawHeight":9.0,"rawCrownWidth":4.0,"quality":"valid","sourceYear":2013},"geometry":{"type":"Point","coordinates":[127.04061295,37.53102688]}},{"type":"Feature","id":"park-private-138463","properties":{"id":"park-private-138463","dataset":"park-private","gu":"강남구","species":"버즘나무","heightM":15.0,"crownWidthM":8.0,"rawHeight":15.0,"rawCrownWidth":8.0,"quality":"valid","sourceYear":2013},"geometry":{"type":"Point","coordinates":[127.04106374,37.53086828]}},{"type":"Feature","id":"park-private-138629","properties":{"id":"park-private-138629","dataset":"park-private","gu":"강남구","species":"버즘나무","heightM":10.0,"crownWidthM":6.0,"rawHeight":10.0,"rawCrownWidth":6.0,"quality":"valid","sourceYear":2013},"geometry":{"type":"Point","coordinates":[127.04417242,37.53000676]}},{"type":"Feature","id":"park-private-138748","properties":{"id":"park-private-138748","dataset":"park-private","gu":"강남구","species":"버즘나무","heightM":14.0,"crownWidthM":4.0,"rawHeight":14.0,"rawCrownWidth":4.0,"quality":"valid","sourceYear":2013},"geometry":{"type":"Point","coordinates":[127.04221981,37.53053339]}},{"type":"Feature","id":"park-private-138755","properties":{"id":"park-private-138755","dataset":"park-private","gu":"강남구","species":"버즘나무","heightM":12.0,"crownWidthM":5.0,"rawHeight":12.0,"rawCrownWidth":5.0,"quality":"valid","sourceYear":2013},"geometry":{"type":"Point","coordinates":[127.04230841,37.53061923]}},{"type":"Feature","id":"park-private-140390","properties":{"id":"park-private-140390","dataset":"park-private","gu":"강남구","species":"버즘나무","heightM":10.0,"crownWidthM":4.0,"rawHeight":10.0,"rawCrownWidth":4.0,"quality":"valid","sourceYear":2013},"geometry":{"type":"Point","coordinates":[127.04189355,37.5307382]}},{"type":"Feature","id":"park-private-140482","properties":{"id":"park-private-140482","dataset":"park-private","gu":"강남구","species":"버즘나무","heightM":5.0,"crownWidthM":7.0,"rawHeight":5.0,"rawCrownWidth":7.0,"quality":"valid","sourceYear":2013},"geometry":{"type":"Point","coordinates":[127.04358877,37.53005534]}},{"type":"Feature","id":"park-private-140634","properties":{"id":"park-private-140634","dataset":"park-private","gu":"강남구","species":"버즘나무","heightM":9.0,"crownWidthM":5.0,"rawHeight":9.0,"rawCrownWidth":5.0,"quality":"valid","sourceYear":2013},"geometry":{"type":"Point","coordinates":[127.04334005,37.53035921]}},{"type":"Feature","id":"park-private-140686","properties":{"id":"park-private-140686","dataset":"park-private","gu":"강남구","species":"버즘나무","heightM":10.0,"crownWidthM":6.0,"rawHeight":10.0,"rawCrownWidth":6.0,"quality":"valid","sourceYear":2013},"geometry":{"type":"Point","coordinates":[127.0404881,37.53120617]}},{"type":"Feature","id":"park-private-141003","properties":{"id":"park-private-141003","dataset":"park-private","gu":"강남구","species":"버즘나무","heightM":8.0,"crownWidthM":4.0,"rawHeight":8.0,"rawCrownWidth":4.0,"quality":"valid","sourceYear":2013},"geometry":{"type":"Point","coordinates":[127.04130319,37.53100913]}},{"type":"Feature","id":"park-private-141067","properties":{"id":"park-private-141067","dataset":"park-private","gu":"강남구","species":"버즘나무","heightM":13.0,"crownWidthM":4.0,"rawHeight":13.0,"rawCrownWidth":4.0,"quality":"valid","sourceYear":2013},"geometry":{"type":"Point","coordinates":[127.04232496,37.53056418]}},{"type":"Feature","id":"park-private-141932","properties":{"id":"park-private-141932","dataset":"park-private","gu":"강남구","species":"은행나무","heightM":10.0,"crownWidthM":4.0,"rawHeight":10.0,"rawCrownWidth":4.0,"quality":"valid","sourceYear":2013},"geometry":{"type":"Point","coordinates":[127.04323404,37.53000187]}},{"type":"Feature","id":"park-private-141980","properties":{"id":"park-private-141980","dataset":"park-private","gu":"강남구","species":"버즘나무","heightM":10.0,"crownWidthM":5.0,"rawHeight":10.0,"rawCrownWidth":5.0,"quality":"valid","sourceYear":2013},"geometry":{"type":"Point","coordinates":[127.04186027,37.53064354]}},{"type":"Feature","id":"park-private-142015","properties":{"id":"park-private-142015","dataset":"park-private","gu":"강남구","species":"버즘나무","heightM":10.0,"crownWidthM":6.0,"rawHeight":10.0,"rawCrownWidth":6.0,"quality":"valid","sourceYear":2013},"geometry":{"type":"Point","coordinates":[127.04040344,37.53122662]}},{"type":"Feature","id":"park-private-142319","properties":{"id":"park-private-142319","dataset":"park-private","gu":"강남구","species":"왕벚나무","heightM":7.0,"crownWidthM":6.0,"rawHeight":7.0,"rawCrownWidth":6.0,"quality":"valid","sourceYear":2013},"geometry":{"type":"Point","coordinates":[127.04295317,37.53008836]}},{"type":"Feature","id":"park-private-142329","properties":{"id":"park-private-142329","dataset":"park-private","gu":"강남구","species":"은행나무","heightM":12.0,"crownWidthM":5.0,"rawHeight":12.0,"rawCrownWidth":5.0,"quality":"valid","sourceYear":2013},"geometry":{"type":"Point","coordinates":[127.0401344,37.53016602]}},{"type":"Feature","id":"park-private-143034","properties":{"id":"park-private-143034","dataset":"park-private","gu":"강남구","species":"왕벚나무","heightM":6.0,"crownWidthM":6.0,"rawHeight":6.0,"rawCrownWidth":6.0,"quality":"valid","sourceYear":2013},"geometry":{"type":"Point","coordinates":[127.04176582,37.53027276]}},{"type":"Feature","id":"park-private-143075","properties":{"id":"park-private-143075","dataset":"park-private","gu":"강남구","species":"버즘나무","heightM":9.0,"crownWidthM":6.0,"rawHeight":9.0,"rawCrownWidth":6.0,"quality":"valid","sourceYear":2013},"geometry":{"type":"Point","coordinates":[127.0402948,37.53104454]}},{"type":"Feature","id":"park-private-143153","properties":{"id":"park-private-143153","dataset":"park-private","gu":"강남구","species":"버즘나무","heightM":14.0,"crownWidthM":6.0,"rawHeight":14.0,"rawCrownWidth":6.0,"quality":"valid","sourceYear":2013},"geometry":{"type":"Point","coordinates":[127.04370776,37.53011035]}},{"type":"Feature","id":"park-private-143191","properties":{"id":"park-private-143191","dataset":"park-private","gu":"강남구","species":"버즘나무","heightM":9.0,"crownWidthM":6.0,"rawHeight":9.0,"rawCrownWidth":6.0,"quality":"valid","sourceYear":2013},"geometry":{"type":"Point","coordinates":[127.04337872,37.53029535]}},{"type":"Feature","id":"park-private-143198","properties":{"id":"park-private-143198","dataset":"park-private","gu":"강남구","species":"버즘나무","heightM":6.0,"crownWidthM":4.0,"rawHeight":6.0,"rawCrownWidth":4.0,"quality":"valid","sourceYear":2013},"geometry":{"type":"Point","coordinates":[127.04011564,37.53032948]}},{"type":"Feature","id":"park-private-143492","properties":{"id":"park-private-143492","dataset":"park-private","gu":"강남구","species":"버즘나무","heightM":9.0,"crownWidthM":6.0,"rawHeight":9.0,"rawCrownWidth":6.0,"quality":"valid","sourceYear":2013},"geometry":{"type":"Point","coordinates":[127.04341741,37.53024471]}},{"type":"Feature","id":"park-private-143664","properties":{"id":"park-private-143664","dataset":"park-private","gu":"강남구","species":"버즘나무","heightM":14.0,"crownWidthM":4.0,"rawHeight":14.0,"rawCrownWidth":4.0,"quality":"valid","sourceYear":2013},"geometry":{"type":"Point","coordinates":[127.04236931,37.53067205]}},{"type":"Feature","id":"park-private-143698","properties":{"id":"park-private-143698","dataset":"park-private","gu":"강남구","species":"버즘나무","heightM":12.0,"crownWidthM":4.0,"rawHeight":12.0,"rawCrownWidth":4.0,"quality":"valid","sourceYear":2013},"geometry":{"type":"Point","coordinates":[127.04235812,37.53051574]}},{"type":"Feature","id":"park-private-144148","properties":{"id":"park-private-144148","dataset":"park-private","gu":"강남구","species":"버즘나무","heightM":12.0,"crownWidthM":6.0,"rawHeight":12.0,"rawCrownWidth":6.0,"quality":"valid","sourceYear":2013},"geometry":{"type":"Point","coordinates":[127.04200409,37.53059508]}},{"type":"Feature","id":"park-private-144467","properties":{"id":"park-private-144467","dataset":"park-private","gu":"강남구","species":"버즘나무","heightM":13.0,"crownWidthM":4.0,"rawHeight":13.0,"rawCrownWidth":4.0,"quality":"valid","sourceYear":2013},"geometry":{"type":"Point","coordinates":[127.04213131,37.53056203]}},{"type":"Feature","id":"park-private-144914","properties":{"id":"park-private-144914","dataset":"park-private","gu":"강남구","species":"느티나무","heightM":8.0,"crownWidthM":6.0,"rawHeight":8.0,"rawCrownWidth":6.0,"quality":"valid","sourceYear":2013},"geometry":{"type":"Point","coordinates":[127.04140395,37.53080656]}},{"type":"Feature","id":"park-private-144920","properties":{"id":"park-private-144920","dataset":"park-private","gu":"강남구","species":"버즘나무","heightM":11.0,"crownWidthM":4.0,"rawHeight":11.0,"rawCrownWidth":4.0,"quality":"valid","sourceYear":2013},"geometry":{"type":"Point","coordinates":[127.04216188,37.53072934]}},{"type":"Feature","id":"park-private-145135","properties":{"id":"park-private-145135","dataset":"park-private","gu":"강남구","species":"버즘나무","heightM":9.0,"crownWidthM":4.0,"rawHeight":9.0,"rawCrownWidth":4.0,"quality":"valid","sourceYear":2013},"geometry":{"type":"Point","coordinates":[127.04398996,37.5301477]}},{"type":"Feature","id":"park-private-145655","properties":{"id":"park-private-145655","dataset":"park-private","gu":"강남구","species":"은행나무","heightM":12.0,"crownWidthM":5.0,"rawHeight":12.0,"rawCrownWidth":5.0,"quality":"valid","sourceYear":2013},"geometry":{"type":"Point","coordinates":[127.04021937,37.53014346]}},{"type":"Feature","id":"park-private-145747","properties":{"id":"park-private-145747","dataset":"park-private","gu":"강남구","species":"버즘나무","heightM":9.0,"crownWidthM":6.0,"rawHeight":9.0,"rawCrownWidth":6.0,"quality":"valid","sourceYear":2013},"geometry":{"type":"Point","coordinates":[127.04142621,37.53096066]}},{"type":"Feature","id":"park-private-145778","properties":{"id":"park-private-145778","dataset":"park-private","gu":"강남구","species":"버즘나무","heightM":10.0,"crownWidthM":6.0,"rawHeight":10.0,"rawCrownWidth":6.0,"quality":"valid","sourceYear":2013},"geometry":{"type":"Point","coordinates":[127.040779,37.53111491]}},{"type":"Feature","id":"park-private-145818","properties":{"id":"park-private-145818","dataset":"park-private","gu":"강남구","species":"버즘나무","heightM":9.0,"crownWidthM":6.0,"rawHeight":9.0,"rawCrownWidth":6.0,"quality":"valid","sourceYear":2013},"geometry":{"type":"Point","coordinates":[127.04382676,37.53016536]}},{"type":"Feature","id":"park-private-146085","properties":{"id":"park-private-146085","dataset":"park-private","gu":"강남구","species":"버즘나무","heightM":9.0,"crownWidthM":4.0,"rawHeight":9.0,"rawCrownWidth":4.0,"quality":"valid","sourceYear":2013},"geometry":{"type":"Point","coordinates":[127.0424412,37.53063241]}},{"type":"Feature","id":"park-private-146116","properties":{"id":"park-private-146116","dataset":"park-private","gu":"강남구","species":"버즘나무","heightM":14.0,"crownWidthM":6.0,"rawHeight":14.0,"rawCrownWidth":6.0,"quality":"valid","sourceYear":2013},"geometry":{"type":"Point","coordinates":[127.04075402,37.53101585]}},{"type":"Feature","id":"park-private-146228","properties":{"id":"park-private-146228","dataset":"park-private","gu":"강남구","species":"버즘나무","heightM":15.0,"crownWidthM":7.0,"rawHeight":15.0,"rawCrownWidth":7.0,"quality":"valid","sourceYear":2013},"geometry":{"type":"Point","coordinates":[127.04070421,37.53099384]}},{"type":"Feature","id":"park-private-146280","properties":{"id":"park-private-146280","dataset":"park-private","gu":"강남구","species":"느티나무","heightM":8.0,"crownWidthM":6.0,"rawHeight":8.0,"rawCrownWidth":6.0,"quality":"valid","sourceYear":2013},"geometry":{"type":"Point","coordinates":[127.04341453,37.53010601]}},{"type":"Feature","id":"park-private-147519","properties":{"id":"park-private-147519","dataset":"park-private","gu":"강남구","species":"버즘나무","heightM":14.0,"crownWidthM":4.0,"rawHeight":14.0,"rawCrownWidth":4.0,"quality":"valid","sourceYear":2013},"geometry":{"type":"Point","coordinates":[127.04228343,37.53051576]}},{"type":"Feature","id":"park-private-147720","properties":{"id":"park-private-147720","dataset":"park-private","gu":"강남구","species":"버즘나무","heightM":11.0,"crownWidthM":4.0,"rawHeight":11.0,"rawCrownWidth":4.0,"quality":"valid","sourceYear":2013},"geometry":{"type":"Point","coordinates":[127.0419627,37.53072498]}},{"type":"Feature","id":"park-private-148579","properties":{"id":"park-private-148579","dataset":"park-private","gu":"강남구","species":"버즘나무","heightM":9.0,"crownWidthM":4.0,"rawHeight":9.0,"rawCrownWidth":4.0,"quality":"valid","sourceYear":2013},"geometry":{"type":"Point","coordinates":[127.04313258,37.53036586]}},{"type":"Feature","id":"park-private-148606","properties":{"id":"park-private-148606","dataset":"park-private","gu":"강남구","species":"버즘나무","heightM":12.0,"crownWidthM":4.0,"rawHeight":12.0,"rawCrownWidth":4.0,"quality":"valid","sourceYear":2013},"geometry":{"type":"Point","coordinates":[127.04183828,37.53081086]}},{"type":"Feature","id":"park-private-148802","properties":{"id":"park-private-148802","dataset":"park-private","gu":"강남구","species":"버즘나무","heightM":7.0,"crownWidthM":4.0,"rawHeight":7.0,"rawCrownWidth":4.0,"quality":"valid","sourceYear":2013},"geometry":{"type":"Point","coordinates":[127.04001653,37.53038215]}},{"type":"Feature","id":"park-private-148873","properties":{"id":"park-private-148873","dataset":"park-private","gu":"강남구","species":"버즘나무","heightM":10.0,"crownWidthM":6.0,"rawHeight":10.0,"rawCrownWidth":6.0,"quality":"valid","sourceYear":2013},"geometry":{"type":"Point","coordinates":[127.04131268,37.53082199]}},{"type":"Feature","id":"park-private-148917","properties":{"id":"park-private-148917","dataset":"park-private","gu":"강남구","species":"버즘나무","heightM":9.0,"crownWidthM":4.0,"rawHeight":9.0,"rawCrownWidth":4.0,"quality":"valid","sourceYear":2013},"geometry":{"type":"Point","coordinates":[127.04389866,37.53013451]}},{"type":"Feature","id":"park-private-149301","properties":{"id":"park-private-149301","dataset":"park-private","gu":"강남구","species":"버즘나무","heightM":9.0,"crownWidthM":4.0,"rawHeight":9.0,"rawCrownWidth":4.0,"quality":"valid","sourceYear":2013},"geometry":{"type":"Point","coordinates":[127.04005704,37.53124059]}},{"type":"Feature","id":"park-private-149381","properties":{"id":"park-private-149381","dataset":"park-private","gu":"강남구","species":"버즘나무","heightM":7.0,"crownWidthM":4.0,"rawHeight":7.0,"rawCrownWidth":4.0,"quality":"valid","sourceYear":2013},"geometry":{"type":"Point","coordinates":[127.04005203,37.53050049]}},{"type":"Feature","id":"park-private-174685","properties":{"id":"park-private-174685","dataset":"park-private","gu":"강남구","species":"버즘나무","heightM":12.0,"crownWidthM":6.0,"rawHeight":12.0,"rawCrownWidth":6.0,"quality":"valid","sourceYear":2013},"geometry":{"type":"Point","coordinates":[127.0422642,37.53068308]}},{"type":"Feature","id":"park-private-175366","properties":{"id":"park-private-175366","dataset":"park-private","gu":"강남구","species":"회화나무","heightM":7.0,"crownWidthM":5.0,"rawHeight":7.0,"rawCrownWidth":5.0,"quality":"valid","sourceYear":2013},"geometry":{"type":"Point","coordinates":[127.04098908,37.53090572]}},{"type":"Feature","id":"park-private-175471","properties":{"id":"park-private-175471","dataset":"park-private","gu":"강남구","species":"왕벚나무","heightM":6.0,"crownWidthM":6.0,"rawHeight":6.0,"rawCrownWidth":6.0,"quality":"valid","sourceYear":2013},"geometry":{"type":"Point","coordinates":[127.04175162,37.53022203]}},{"type":"Feature","id":"park-private-175967","properties":{"id":"park-private-175967","dataset":"park-private","gu":"강남구","species":"느티나무","heightM":8.0,"crownWidthM":6.0,"rawHeight":8.0,"rawCrownWidth":6.0,"quality":"valid","sourceYear":2013},"geometry":{"type":"Point","coordinates":[127.04327901,37.53014567]}},{"type":"Feature","id":"park-private-176228","properties":{"id":"park-private-176228","dataset":"park-private","gu":"강남구","species":"버즘나무","heightM":14.0,"crownWidthM":4.0,"rawHeight":14.0,"rawCrownWidth":4.0,"quality":"valid","sourceYear":2013},"geometry":{"type":"Point","coordinates":[127.04365516,37.53005972]}},{"type":"Feature","id":"protected-86","properties":{"id":"protected-86","dataset":"protected","gu":"성동구","species":"느티나무","heightM":31.0,"crownWidthM":24.0,"rawHeight":31.0,"rawCrownWidth":24.0,"quality":"valid","sourceYear":2013},"geometry":{"type":"Point","coordinates":[127.04328869,37.53881377]}},{"type":"Feature","id":"protected-87","properties":{"id":"protected-87","dataset":"protected","gu":"성동구","species":"느티나무","heightM":23.0,"crownWidthM":21.0,"rawHeight":23.0,"rawCrownWidth":21.0,"quality":"valid","sourceYear":2013},"geometry":{"type":"Point","coordinates":[127.04639933,37.53939217]}}]}