{"type":"FeatureCollection","features":[{"type":"Feature","properties":{"id":"south-tower","floors":15,"useName":"업무시설","height":55,"heightSource":"synthetic","name":"남측 고층(동지 음영 기준물)"},"geometry":{"type":"Polygon","coordinates":[[[126.83198866712657,37.65616199638498],[126.83246464781058,37.65616199638498],[126.83246464781058,37.656414271390965],[126.83198866712657,37.656414271390965],[126.83198866712657,37.65616199638498]]]}},{"type":"Feature","properties":{"id":"concave-l","floors":8,"useName":"공동주택","height":24.6,"heightSource":"synthetic","name":"오목 L동"},"geometry":{"type":"Polygon","coordinates":[[[126.8330199586086,37.658450491082114],[126.83342794205204,37.658450491082114],[126.83342794205204,37.65858023251376],[126.83318315198598,37.65858023251376],[126.83318315198598,37.65877484466123],[126.8330199586086,37.65877484466123],[126.8330199586086,37.658450491082114]]]}},{"type":"Feature","properties":{"id":"concave-u","floors":6,"useName":"제1종근린생활","height":22,"heightSource":"synthetic","name":"오목 U동"},"geometry":{"type":"Polygon","coordinates":[[[126.83064005518851,37.65836039286569],[126.83109337012567,37.65836039286569],[126.83109337012567,37.65872078573138],[126.83096644194327,37.65872078573138],[126.83096644194327,37.65846130286808],[126.83076698337092,37.65846130286808],[126.83076698337092,37.65872078573138],[126.83064005518851,37.65872078573138],[126.83064005518851,37.65836039286569]]]}},{"type":"Feature","properties":{"id":"multi-block","floors":4,"useName":"단독주택","height":13.8,"heightSource":"synthetic","name":"MultiPolygon 분해 대상"},"geometry":{"type":"MultiPolygon","coordinates":[[[[126.83142202345512,37.65755851873953],[126.83167134667055,37.65755851873953],[126.83167134667055,37.65772069552909],[126.83142202345512,37.65772069552909],[126.83142202345512,37.65755851873953]]],[[[126.8318073411517,37.65749544998803],[126.83201133287342,37.65749544998803],[126.83201133287342,37.657639607134314],[126.8318073411517,37.657639607134314],[126.8318073411517,37.65749544998803]]]]}},{"type":"Feature","properties":{"id":"apt-5f","floors":5,"useName":"공동주택","height":15.75,"heightSource":"synthetic","name":"공동주택 5층(15.75m)"},"geometry":{"type":"Polygon","coordinates":[[[126.83115003449282,37.65862167769332],[126.8314900206957,37.65862167769332],[126.8314900206957,37.65881989376945],[126.83115003449282,37.65881989376945],[126.83115003449282,37.65862167769332]]]}},{"type":"Feature","properties":{"id":"b00","floors":2,"useName":"공동주택","height":6.9,"heightSource":"synthetic","name":"b00"},"geometry":{"type":"Polygon","coordinates":[[[126.82960876370647,37.65676565443501],[126.8298127554282,37.65676565443501],[126.8298127554282,37.65689179193801],[126.82960876370647,37.65689179193801],[126.82960876370647,37.65676565443501]]]}},{"type":"Feature","properties":{"id":"b01","floors":5,"useName":"단독주택","height":17,"heightSource":"synthetic","name":"b01"},"geometry":{"type":"Polygon","coordinates":[[[126.83039073197308,37.656756644613374],[126.83061738944166,37.656756644613374],[126.83061738944166,37.65690080175965],[126.83039073197308,37.65690080175965],[126.83039073197308,37.656756644613374]]]}},{"type":"Feature","properties":{"id":"b02","floors":8,"useName":"제1종근린생활","height":29,"heightSource":"synthetic","name":"b02"},"geometry":{"type":"Polygon","coordinates":[[[126.83117270023968,37.65674763479173],[126.83142202345512,37.65674763479173],[126.83142202345512,37.656909811581286],[126.83117270023968,37.656909811581286],[126.83117270023968,37.65674763479173]]]}},{"type":"Feature","properties":{"id":"b03","floors":11,"useName":"업무시설","height":40.6,"heightSource":"synthetic","name":"b03"},"geometry":{"type":"Polygon","coordinates":[[[126.83195466850628,37.65673862497009],[126.83222665746857,37.65673862497009],[126.83222665746857,37.65691882140293],[126.83195466850628,37.65691882140293],[126.83195466850628,37.65673862497009]]]}},{"type":"Feature","properties":{"id":"b04","floors":4,"useName":"공장","height":19,"heightSource":"synthetic","name":"b04"},"geometry":{"type":"Polygon","coordinates":[[[126.83273663677288,37.65676565443501],[126.83303129148203,37.65676565443501],[126.83303129148203,37.65689179193801],[126.83273663677288,37.65689179193801],[126.83273663677288,37.65676565443501]]]}},{"type":"Feature","properties":{"id":"b05","floors":7,"useName":"공동주택","height":21.650000000000002,"heightSource":"synthetic","name":"b05"},"geometry":{"type":"Polygon","coordinates":[[[126.83357526940662,37.656756644613374],[126.83377926112834,37.656756644613374],[126.83377926112834,37.65690080175965],[126.83357526940662,37.65690080175965],[126.83357526940662,37.656756644613374]]]}},{"type":"Feature","properties":{"id":"b06","floors":10,"useName":"단독주택","height":33,"heightSource":"synthetic","name":"b06"},"geometry":{"type":"Polygon","coordinates":[[[126.83435723767322,37.65674763479173],[126.8345838951418,37.65674763479173],[126.8345838951418,37.656909811581286],[126.83435723767322,37.656909811581286],[126.83435723767322,37.65674763479173]]]}},{"type":"Feature","properties":{"id":"b07","floors":3,"useName":"제1종근린생활","height":11.5,"heightSource":"synthetic","name":"b07"},"geometry":{"type":"Polygon","coordinates":[[[126.82958609795962,37.657369312485045],[126.82983542117506,37.657369312485045],[126.82983542117506,37.65754950891789],[126.82958609795962,37.65754950891789],[126.82958609795962,37.657369312485045]]]}},{"type":"Feature","properties":{"id":"b08","floors":6,"useName":"업무시설","height":22.6,"heightSource":"synthetic","name":"b08"},"geometry":{"type":"Polygon","coordinates":[[[126.83036806622621,37.65739634194997],[126.83064005518851,37.65739634194997],[126.83064005518851,37.657522479452965],[126.83036806622621,37.657522479452965],[126.83036806622621,37.65739634194997]]]}},{"type":"Feature","properties":{"id":"b09","floors":9,"useName":"공장","height":41.5,"heightSource":"synthetic","name":"b09"},"geometry":{"type":"Polygon","coordinates":[[[126.83194333563284,37.65738733212833],[126.83223799034201,37.65738733212833],[126.83223799034201,37.657531489274604],[126.83194333563284,37.657531489274604],[126.83194333563284,37.65738733212833]]]}},{"type":"Feature","properties":{"id":"b10","floors":2,"useName":"공동주택","height":6.9,"heightSource":"synthetic","name":"b10"},"geometry":{"type":"Polygon","coordinates":[[[126.83278196826659,37.657378322306684],[126.83298595998832,37.657378322306684],[126.83298595998832,37.65754049909625],[126.83278196826659,37.65754049909625],[126.83278196826659,37.657378322306684]]]}},{"type":"Feature","properties":{"id":"b11","floors":5,"useName":"단독주택","height":17,"heightSource":"synthetic","name":"b11"},"geometry":{"type":"Polygon","coordinates":[[[126.8335639365332,37.657369312485045],[126.83379059400177,37.657369312485045],[126.83379059400177,37.65754950891789],[126.8335639365332,37.65754950891789],[126.8335639365332,37.657369312485045]]]}},{"type":"Feature","properties":{"id":"b12","floors":8,"useName":"제1종근린생활","height":29,"heightSource":"synthetic","name":"b12"},"geometry":{"type":"Polygon","coordinates":[[[126.83434590479979,37.65739634194997],[126.83459522801523,37.65739634194997],[126.83459522801523,37.657522479452965],[126.83434590479979,37.657522479452965],[126.83434590479979,37.65739634194997]]]}},{"type":"Feature","properties":{"id":"b13","floors":11,"useName":"업무시설","height":40.6,"heightSource":"synthetic","name":"b13"},"geometry":{"type":"Polygon","coordinates":[[[126.82957476508619,37.658018019643286],[126.82984675404849,37.658018019643286],[126.82984675404849,37.65816217678956],[126.82957476508619,37.65816217678956],[126.82957476508619,37.658018019643286]]]}},{"type":"Feature","properties":{"id":"b14","floors":4,"useName":"공장","height":19,"heightSource":"synthetic","name":"b14"},"geometry":{"type":"Polygon","coordinates":[[[126.83115003449282,37.65800900982164],[126.83144468920197,37.65800900982164],[126.83144468920197,37.658171186611206],[126.83115003449282,37.658171186611206],[126.83115003449282,37.65800900982164]]]}},{"type":"Feature","properties":{"id":"b15","floors":7,"useName":"공동주택","height":21.650000000000002,"heightSource":"synthetic","name":"b15"},"geometry":{"type":"Polygon","coordinates":[[[126.83198866712657,37.658],[126.83219265884829,37.658],[126.83219265884829,37.658180196432845],[126.83198866712657,37.658180196432845],[126.83198866712657,37.658]]]}},{"type":"Feature","properties":{"id":"b16","floors":10,"useName":"단독주택","height":33,"heightSource":"synthetic","name":"b16"},"geometry":{"type":"Polygon","coordinates":[[[126.8335639365332,37.658027029464925],[126.83379059400177,37.658027029464925],[126.83379059400177,37.65815316696792],[126.8335639365332,37.65815316696792],[126.8335639365332,37.658027029464925]]]}},{"type":"Feature","properties":{"id":"b17","floors":3,"useName":"제1종근린생활","height":11.5,"heightSource":"synthetic","name":"b17"},"geometry":{"type":"Polygon","coordinates":[[[126.83434590479979,37.658018019643286],[126.83459522801523,37.658018019643286],[126.83459522801523,37.65816217678956],[126.83434590479979,37.65816217678956],[126.83434590479979,37.658018019643286]]]}},{"type":"Feature","properties":{"id":"b18","floors":6,"useName":"업무시설","height":22.6,"heightSource":"synthetic","name":"b18"},"geometry":{"type":"Polygon","coordinates":[[[126.82957476508619,37.6586396973366],[126.82984675404849,37.6586396973366],[126.82984675404849,37.65880187412616],[126.82957476508619,37.65880187412616],[126.82957476508619,37.6586396973366]]]}},{"type":"Feature","properties":{"id":"b19","floors":9,"useName":"공장","height":41.5,"heightSource":"synthetic","name":"b19"},"geometry":{"type":"Polygon","coordinates":[[[126.83194333563284,37.65863068751496],[126.83223799034201,37.65863068751496],[126.83223799034201,37.6588108839478],[126.83194333563284,37.6588108839478],[126.83194333563284,37.65863068751496]]]}},{"type":"Feature","properties":{"id":"b20","floors":2,"useName":"공동주택","height":6.9,"heightSource":"synthetic","name":"b20"},"geometry":{"type":"Polygon","coordinates":[[[126.83357526940662,37.65865771697989],[126.83377926112834,37.65865771697989],[126.83377926112834,37.65878385448288],[126.83357526940662,37.65878385448288],[126.83357526940662,37.65865771697989]]]}},{"type":"Feature","properties":{"id":"b21","floors":5,"useName":"단독주택","height":17,"heightSource":"synthetic","name":"b21"},"geometry":{"type":"Polygon","coordinates":[[[126.83435723767322,37.65864870715824],[126.8345838951418,37.65864870715824],[126.8345838951418,37.658792864304516],[126.83435723767322,37.658792864304516],[126.83435723767322,37.65864870715824]]]}},{"type":"Feature","properties":{"id":"b22","floors":8,"useName":"제1종근린생활","height":29,"heightSource":"synthetic","name":"b22"},"geometry":{"type":"Polygon","coordinates":[[[126.82958609795962,37.65927038485156],[126.82983542117506,37.65927038485156],[126.82983542117506,37.65943256164112],[126.82958609795962,37.65943256164112],[126.82958609795962,37.65927038485156]]]}},{"type":"Feature","properties":{"id":"b23","floors":11,"useName":"업무시설","height":40.6,"heightSource":"synthetic","name":"b23"},"geometry":{"type":"Polygon","coordinates":[[[126.83036806622621,37.659261375029914],[126.83064005518851,37.659261375029914],[126.83064005518851,37.65944157146276],[126.83036806622621,37.65944157146276],[126.83036806622621,37.659261375029914]]]}},{"type":"Feature","properties":{"id":"b24","floors":4,"useName":"공장","height":19,"heightSource":"synthetic","name":"b24"},"geometry":{"type":"Polygon","coordinates":[[[126.83115003449282,37.659288404494845],[126.83144468920197,37.659288404494845],[126.83144468920197,37.65941454199783],[126.83115003449282,37.65941454199783],[126.83115003449282,37.659288404494845]]]}},{"type":"Feature","properties":{"id":"b25","floors":7,"useName":"공동주택","height":21.650000000000002,"heightSource":"synthetic","name":"b25"},"geometry":{"type":"Polygon","coordinates":[[[126.83198866712657,37.6592793946732],[126.83219265884829,37.6592793946732],[126.83219265884829,37.65942355181948],[126.83198866712657,37.65942355181948],[126.83198866712657,37.6592793946732]]]}},{"type":"Feature","properties":{"id":"b26","floors":10,"useName":"단독주택","height":33,"heightSource":"synthetic","name":"b26"},"geometry":{"type":"Polygon","coordinates":[[[126.83277063539316,37.65927038485156],[126.83299729286175,37.65927038485156],[126.83299729286175,37.65943256164112],[126.83277063539316,37.65943256164112],[126.83277063539316,37.65927038485156]]]}},{"type":"Feature","properties":{"id":"b27","floors":3,"useName":"제1종근린생활","height":11.5,"heightSource":"synthetic","name":"b27"},"geometry":{"type":"Polygon","coordinates":[[[126.83355260365977,37.659261375029914],[126.8338019268752,37.659261375029914],[126.8338019268752,37.65944157146276],[126.83355260365977,37.65944157146276],[126.83355260365977,37.659261375029914]]]}},{"type":"Feature","properties":{"id":"b28","floors":6,"useName":"업무시설","height":22.6,"heightSource":"synthetic","name":"b28"},"geometry":{"type":"Polygon","coordinates":[[[126.83433457192636,37.659288404494845],[126.83460656088866,37.659288404494845],[126.83460656088866,37.65941454199783],[126.83433457192636,37.65941454199783],[126.83433457192636,37.659288404494845]]]}},{"type":"Feature","properties":{"id":"pad-34","floors":3,"useName":"단독주택","height":10.600000000000001,"heightSource":"synthetic","name":"pad-34"},"geometry":{"type":"Polygon","coordinates":[[[126.83426657468578,37.65973889557696],[126.83444790066065,37.65973889557696],[126.83444790066065,37.659865033079946],[126.83426657468578,37.659865033079946],[126.83426657468578,37.65973889557696]]]}},{"type":"Feature","properties":{"id":"pad-35","floors":3,"useName":"단독주택","height":10.600000000000001,"heightSource":"synthetic","name":"pad-35"},"geometry":{"type":"Polygon","coordinates":[[[126.83440256916694,37.65973889557696],[126.8345838951418,37.65973889557696],[126.8345838951418,37.659865033079946],[126.83440256916694,37.659865033079946],[126.83440256916694,37.65973889557696]]]}},{"type":"Feature","properties":{"id":"pad-36","floors":3,"useName":"단독주택","height":10.600000000000001,"heightSource":"synthetic","name":"pad-36"},"geometry":{"type":"Polygon","coordinates":[[[126.83453856364808,37.65973889557696],[126.83471988962295,37.65973889557696],[126.83471988962295,37.659865033079946],[126.83453856364808,37.659865033079946],[126.83453856364808,37.65973889557696]]]}},{"type":"Feature","properties":{"id":"pad-37","floors":3,"useName":"단독주택","height":10.600000000000001,"heightSource":"synthetic","name":"pad-37"},"geometry":{"type":"Polygon","coordinates":[[[126.83467455812924,37.65973889557696],[126.8348558841041,37.65973889557696],[126.8348558841041,37.659865033079946],[126.83467455812924,37.659865033079946],[126.83467455812924,37.65973889557696]]]}},{"type":"Feature","properties":{"id":"pad-38","floors":3,"useName":"단독주택","height":10.600000000000001,"heightSource":"synthetic","name":"pad-38"},"geometry":{"type":"Polygon","coordinates":[[[126.83481055261038,37.65973889557696],[126.83499187858524,37.65973889557696],[126.83499187858524,37.659865033079946],[126.83481055261038,37.659865033079946],[126.83481055261038,37.65973889557696]]]}},{"type":"Feature","properties":{"id":"pad-39","floors":3,"useName":"단독주택","height":10.600000000000001,"heightSource":"synthetic","name":"pad-39"},"geometry":{"type":"Polygon","coordinates":[[[126.83494654709153,37.65973889557696],[126.8351278730664,37.65973889557696],[126.8351278730664,37.659865033079946],[126.83494654709153,37.659865033079946],[126.83494654709153,37.65973889557696]]]}},{"type":"Feature","properties":{"id":"pad-40","floors":3,"useName":"단독주택","height":10.600000000000001,"heightSource":"synthetic","name":"pad-40"},"geometry":{"type":"Polygon","coordinates":[[[126.83508254157267,37.65973889557696],[126.83526386754754,37.65973889557696],[126.83526386754754,37.659865033079946],[126.83508254157267,37.659865033079946],[126.83508254157267,37.65973889557696]]]}},{"type":"Feature","properties":{"id":"pad-41","floors":3,"useName":"단독주택","height":10.600000000000001,"heightSource":"synthetic","name":"pad-41"},"geometry":{"type":"Polygon","coordinates":[[[126.83521853605383,37.65973889557696],[126.8353998620287,37.65973889557696],[126.8353998620287,37.659865033079946],[126.83521853605383,37.659865033079946],[126.83521853605383,37.65973889557696]]]}}]}