{"type":"FeatureCollection","features":[{"type":"Feature","id":"seoul-building-510740","properties":{"id":"seoul-building-510740","sourceId":"0000193773764476084600000000","pnu":"1156011000100840009","name":"서울특별시 영등포구 여의도동","address":"서울특별시 영등포구 여의도동","useName":"","floors":0.0,"height":0,"heightSource":"unknown","heightRaw":0.0,"sourceDate":"2026-09-09"},"geometry":{"type":"Polygon","coordinates":[[[126.93036077,37.53068084],[126.93035355,37.5306644],[126.9303352,37.53068504],[126.93032384,37.53069042],[126.93030268,37.53069617],[126.93032373,37.53070878],[126.93033546,37.53071533],[126.93034756,37.53073193],[126.93035448,37.53072134],[126.93036474,37.53071405],[126.93038664,37.53070275],[126.93037244,37.53069072],[126.93036077,37.53068084]]]}},{"type":"Feature","id":"seoul-building-510848","properties":{"id":"seoul-building-510848","sourceId":"0000193800694475860000000000","pnu":"1156011000100080000","name":"서울특별시 영등포구 여의도동","address":"서울특별시 영등포구 여의도동","useName":"","floors":0.0,"height":0,"heightSource":"unknown","heightRaw":0.0,"sourceDate":"2026-09-09"},"geometry":{"type":"Polygon","coordinates":[[[126.93066947,37.53048195],[126.93065789,37.53046113],[126.93065077,37.53047052],[126.93064496,37.53047586],[126.93062714,37.53048732],[126.93060813,37.53049599],[126.93063116,37.53050884],[126.93064122,37.53051427],[126.93065226,37.53053213],[126.93066102,37.53051945],[126.93067275,37.53051061],[126.93069342,37.53050165],[126.93067616,37.53048746],[126.93066947,37.53048195]]]}},{"type":"Feature","id":"seoul-building-510966","properties":{"id":"seoul-building-510966","sourceId":"2011193958014476816400000000","pnu":"1156011000100840006","name":"마포대교 전망쉼터","address":"서울특별시 영등포구 여의도동","useName":"제1종근린생활시설","floors":1.0,"height":4.6,"heightSource":"measured","heightRaw":4.6,"sourceDate":"2026-09-09"},"geometry":{"type":"Polygon","coordinates":[[[126.93267736,37.53148331],[126.9322154,37.53119737],[126.93220371,37.53124575],[126.9323157,37.53131636],[126.93256892,37.53147599],[126.93262355,37.53150606],[126.93267736,37.53148331]]]}}]}