{"type":"FeatureCollection","features":[{"type":"Feature","id":"seoul-building-88406","properties":{"id":"seoul-building-88406","sourceId":"1975193140964476395700000000","pnu":"1156011000100110000","name":"여의도순복음교회","address":"서울특별시 영등포구 여의도동","useName":"종교시설","floors":5.0,"height":28.75,"heightSource":"measured","heightRaw":28.75,"sourceDate":"2026-09-09"},"geometry":{"type":"Polygon","coordinates":[[[126.92309519,37.53135919],[126.92315193,37.53129985],[126.92316302,37.53130652],[126.92315792,37.53131193],[126.92320904,37.53132304],[126.92326578,37.53126596],[126.92329768,37.5312721],[126.92333038,37.53127492],[126.92336139,37.53127458],[126.92338785,37.53127081],[126.92341954,37.53126399],[126.9234492,37.53125797],[126.92348585,37.53124736],[126.92351835,37.53123522],[126.92354529,37.53122253],[126.92357924,37.53120165],[126.9236303,37.53116294],[126.92358294,37.53112768],[126.92360005,37.53110211],[126.92361863,37.5310768],[126.92363143,37.5310541],[126.9236447,37.53102312],[126.92365107,37.53099213],[126.92365359,37.53096437],[126.92365237,37.53094257],[126.92364978,37.53092382],[126.92364607,37.53090166],[126.92364168,37.53088769],[126.92365978,37.53088401],[126.92363901,37.53083885],[126.92361694,37.53084532],[126.92360757,37.53082496],[126.92358927,37.53080278],[126.92356915,37.53078294],[126.92355412,37.53077032],[126.923534,37.53075527],[126.92350765,37.5307402],[126.92348526,37.53072911],[126.92345879,37.5307189],[126.92343583,37.53071267],[126.92341615,37.53070591],[126.92339263,37.53070193],[126.92336434,37.53069803],[126.92334183,37.53069577],[126.92331275,37.53069593],[126.92328073,37.53069915],[126.92325415,37.53070121],[126.9232431,37.53065723],[126.9232024,37.53063125],[126.9231766,37.53063763],[126.92306784,37.53056593],[126.92302267,37.53058933],[126.92297943,37.53061309],[126.92294852,37.53063505],[126.92292293,37.53065521],[126.92291172,37.53066521],[126.9228953,37.53067979],[126.92287356,37.53070284],[126.92285045,37.53073031],[126.92282677,37.53076498],[126.92281271,37.53079309],[126.92279933,37.53082182],[126.92278787,37.53085191],[126.92278162,37.53087668],[126.92277515,37.53089938],[126.92277297,37.53092641],[126.92277316,37.53096056],[126.92277493,37.5310003],[126.92278182,37.53102553],[126.92273779,37.53103955],[126.922745,37.53106893],[126.92275775,37.53110228],[126.92277344,37.53113635],[126.9227923,37.53117159],[126.92281104,37.5312034],[126.92285632,37.53118641],[126.92287292,37.53121056],[126.92289044,37.53123211],[126.92291168,37.53125158],[126.9229144,37.53125402],[126.92294119,37.53127719],[126.92297216,37.53129857],[126.92300122,37.53131715],[126.92303175,37.53133239],[126.92306138,37.53134638],[126.92309519,37.53135919]]]}},{"type":"Feature","id":"seoul-building-97098","properties":{"id":"seoul-building-97098","sourceId":"2007193251274476080300000000","pnu":"1156011000100110013","name":"한국가정법률상담소","address":"서울특별시 영등포구 여의도동","useName":"업무시설","floors":10.0,"height":35.2,"heightSource":"measured","heightRaw":35.2,"sourceDate":"2026-09-09"},"geometry":{"type":"Polygon","coordinates":[[[126.92461531,37.53069124],[126.924391,37.53055419],[126.92425725,37.53069238],[126.92448325,37.53082834],[126.92461531,37.53069124]]]}},{"type":"Feature","id":"seoul-building-116353","properties":{"id":"seoul-building-116353","sourceId":"2005192961034476368100000000","pnu":"1156011000100130000","name":"여의도파라곤","address":"서울특별시 영등포구 여의도동","useName":"업무시설","floors":12.0,"height":39.95,"heightSource":"measured","heightRaw":39.95,"sourceDate":"2026-09-09"},"geometry":{"type":"Polygon","coordinates":[[[126.92121038,37.53131623],[126.92161595,37.53090501],[126.92109768,37.5305813],[126.92068837,37.53099162],[126.92121038,37.53131623]],[[126.92099136,37.53097632],[126.92115004,37.53081749],[126.92131725,37.53092086],[126.92115757,37.53108275],[126.92099136,37.53097632]]]}},{"type":"Feature","id":"seoul-building-153159","properties":{"id":"seoul-building-153159","sourceId":"1983192912434475920000000000","pnu":"1156011000100130013","name":"KCTOWER","address":"서울특별시 영등포구 여의도동","useName":"업무시설","floors":11.0,"height":40.65,"heightSource":"measured","heightRaw":40.65,"sourceDate":"2026-09-09"},"geometry":{"type":"Polygon","coordinates":[[[126.92053682,37.53072572],[126.92057816,37.53068331],[126.92058076,37.53068483],[126.92076855,37.53049224],[126.92076538,37.53049017],[126.92080695,37.53044785],[126.92066811,37.53036198],[126.92039742,37.53063949],[126.92053682,37.53072572]]]}},{"type":"Feature","id":"seoul-building-503217","properties":{"id":"seoul-building-503217","sourceId":"0000192870774479710000000000","pnu":"1156011000100820003","name":"서울특별시 영등포구 여의도동","address":"서울특별시 영등포구 여의도동","useName":"","floors":0.0,"height":0,"heightSource":"unknown","heightRaw":0.0,"sourceDate":"2026-09-09"},"geometry":{"type":"Polygon","coordinates":[[[126.92016038,37.53400093],[126.92012639,37.5339104],[126.92009611,37.53391691],[126.9201301,37.53400743],[126.92016038,37.53400093]]]}},{"type":"Feature","id":"seoul-building-504037","properties":{"id":"seoul-building-504037","sourceId":"0000192985084479243500000000","pnu":"1156011000100820009","name":"서울특별시 영등포구 여의도동","address":"서울특별시 영등포구 여의도동","useName":"","floors":0.0,"height":0,"heightSource":"unknown","heightRaw":0.0,"sourceDate":"2026-09-09"},"geometry":{"type":"Polygon","coordinates":[[[126.92144791,37.53354665],[126.92143002,37.53351917],[126.92139608,37.5335323],[126.92141397,37.53355978],[126.92144791,37.53354665]]]}},{"type":"Feature","id":"seoul-building-504130","properties":{"id":"seoul-building-504130","sourceId":"0000192984784479152900000000","pnu":"1156011000100820009","name":"서울특별시 영등포구 여의도동","address":"서울특별시 영등포구 여의도동","useName":"","floors":0.0,"height":0,"heightSource":"unknown","heightRaw":0.0,"sourceDate":"2026-09-09"},"geometry":{"type":"Polygon","coordinates":[[[126.92144568,37.533464],[126.92142638,37.53343589],[126.92139156,37.53345172],[126.92141087,37.53347981],[126.92144568,37.533464]]]}},{"type":"Feature","id":"seoul-building-504243","properties":{"id":"seoul-building-504243","sourceId":"0000192982854479118800000000","pnu":"1156011000100820009","name":"서울특별시 영등포구 여의도동","address":"서울특별시 영등포구 여의도동","useName":"","floors":0.0,"height":0,"heightSource":"unknown","heightRaw":0.0,"sourceDate":"2026-09-09"},"geometry":{"type":"Polygon","coordinates":[[[126.92142214,37.53343383],[126.92140502,37.53340605],[126.92137146,37.53342036],[126.92138857,37.53344815],[126.92142214,37.53343383]]]}},{"type":"Feature","id":"seoul-building-504930","properties":{"id":"seoul-building-504930","sourceId":"0000192980844479083200000000","pnu":"1156011000100820009","name":"서울특별시 영등포구 여의도동","address":"서울특별시 영등포구 여의도동","useName":"","floors":0.0,"height":0,"heightSource":"unknown","heightRaw":0.0,"sourceDate":"2026-09-09"},"geometry":{"type":"Polygon","coordinates":[[[126.92140093,37.53340066],[126.92138187,37.53337356],[126.92134736,37.53338931],[126.92136644,37.53341642],[126.92140093,37.53340066]]]}},{"type":"Feature","id":"seoul-building-506434","properties":{"id":"seoul-building-506434","sourceId":"0000193145554477608800000000","pnu":"1156011000100830006","name":"서울특별시 영등포구 여의도동","address":"서울특별시 영등포구 여의도동","useName":"","floors":0.0,"height":0,"heightSource":"unknown","heightRaw":0.0,"sourceDate":"2026-09-09"},"geometry":{"type":"Polygon","coordinates":[[[126.92328866,37.53206175],[126.92327371,37.53203891],[126.92318951,37.53207388],[126.92320447,37.53209671],[126.92328866,37.53206175]]]}},{"type":"Feature","id":"seoul-building-508142","properties":{"id":"seoul-building-508142","sourceId":"0000193081074476286500000000","pnu":"1156011000100110000","name":"서울특별시 영등포구 여의도동","address":"서울특별시 영등포구 여의도동","useName":"","floors":0.0,"height":0,"heightSource":"unknown","heightRaw":0.0,"sourceDate":"2026-09-09"},"geometry":{"type":"Polygon","coordinates":[[[126.92253985,37.53087932],[126.92250107,37.53085424],[126.92248283,37.53087396],[126.92251924,37.53089696],[126.92253985,37.53087932]]]}},{"type":"Feature","id":"seoul-building-508184","properties":{"id":"seoul-building-508184","sourceId":"0000193064214476486500000000","pnu":"1156011000100110000","name":"서울특별시 영등포구 여의도동","address":"서울특별시 영등포구 여의도동","useName":"","floors":0.0,"height":0,"heightSource":"unknown","heightRaw":0.0,"sourceDate":"2026-09-09"},"geometry":{"type":"Polygon","coordinates":[[[126.92237577,37.53101778],[126.92235169,37.5310029],[126.92226471,37.53109177],[126.9222889,37.53110936],[126.92237577,37.53101778]]]}},{"type":"Feature","id":"seoul-building-510738","properties":{"id":"seoul-building-510738","sourceId":"1997193354364475763100000000","pnu":"1156011000100100001","name":"서울특별시 영등포구 여의도동","address":"서울특별시 영등포구 여의도동","useName":"위험물저장및처리시설","floors":2.0,"height":11.15,"heightSource":"measured","heightRaw":11.15,"sourceDate":"2026-09-09"},"geometry":{"type":"Polygon","coordinates":[[[126.92559454,37.53053151],[126.9257721,37.53048234],[126.92576307,37.5304617],[126.92584235,37.53037453],[126.92562695,37.53024519],[126.92544846,37.53042528],[126.925338,37.53035412],[126.92532639,37.53043124],[126.92547926,37.53052505],[126.92552139,37.53048155],[126.9255846,37.53050889],[126.92559454,37.53053151]]]}},{"type":"Feature","id":"seoul-building-510745","properties":{"id":"seoul-building-510745","sourceId":"0000193152464478922900000000","pnu":"1156011000100830006","name":"서울특별시 영등포구 여의도동","address":"서울특별시 영등포구 여의도동","useName":"","floors":0.0,"height":0,"heightSource":"unknown","heightRaw":0.0,"sourceDate":"2026-09-09"},"geometry":{"type":"Polygon","coordinates":[[[126.92340971,37.53326177],[126.92337496,37.53319417],[126.9232232,37.53323968],[126.92325859,37.53331102],[126.92340971,37.53326177]]]}},{"type":"Feature","id":"seoul-building-510748","properties":{"id":"seoul-building-510748","sourceId":"0000193047674476831200000000","pnu":"1156011000100110000","name":"서울특별시 영등포구 여의도동","address":"서울특별시 영등포구 여의도동","useName":"","floors":0.0,"height":0,"heightSource":"unknown","heightRaw":0.0,"sourceDate":"2026-09-09"},"geometry":{"type":"Polygon","coordinates":[[[126.92217629,37.53137075],[126.92216467,37.53134281],[126.92208726,37.53136403],[126.92209843,37.5313889],[126.92217629,37.53137075]]]}},{"type":"Feature","id":"seoul-building-510749","properties":{"id":"seoul-building-510749","sourceId":"0000193193084476571800000000","pnu":"1156011000100110000","name":"서울특별시 영등포구 여의도동","address":"서울특별시 영등포구 여의도동","useName":"","floors":0.0,"height":0,"heightSource":"unknown","heightRaw":0.0,"sourceDate":"2026-09-09"},"geometry":{"type":"Polygon","coordinates":[[[126.92372204,37.53119111],[126.92378091,37.53114006],[126.92382049,37.53116901],[126.92383328,37.53115793],[126.92381305,37.53114305],[126.92384928,37.53111163],[126.92380417,37.53107763],[126.92374698,37.53112554],[126.92369456,37.531171],[126.92372204,37.53119111]]]}},{"type":"Feature","id":"seoul-building-510781","properties":{"id":"seoul-building-510781","sourceId":"0000193363734477131800000000","pnu":"1156011000100830006","name":"서울특별시 영등포구 여의도동","address":"서울특별시 영등포구 여의도동","useName":"","floors":0.0,"height":0,"heightSource":"unknown","heightRaw":0.0,"sourceDate":"2026-09-09"},"geometry":{"type":"Polygon","coordinates":[[[126.92572178,37.53162236],[126.92571069,37.53160863],[126.92568528,37.53163044],[126.92566495,37.53164019],[126.92568971,37.53165214],[126.92569678,37.53165681],[126.92570971,37.5316712],[126.92571941,37.53165735],[126.92574771,37.53164297],[126.92573414,37.53163317],[126.92572178,37.53162236]]]}},{"type":"Feature","id":"seoul-building-510782","properties":{"id":"seoul-building-510782","sourceId":"0000193368184477091900000000","pnu":"1156011000100830006","name":"서울특별시 영등포구 여의도동","address":"서울특별시 영등포구 여의도동","useName":"","floors":0.0,"height":0,"heightSource":"unknown","heightRaw":0.0,"sourceDate":"2026-09-09"},"geometry":{"type":"Polygon","coordinates":[[[126.92577402,37.53158651],[126.92576711,37.53157115],[126.92573798,37.53159238],[126.9257143,37.53160234],[126.9257431,37.5316187],[126.92575509,37.53163459],[126.92577128,37.53162134],[126.92579984,37.53160837],[126.92578366,37.53159865],[126.92577402,37.53158651]]]}},{"type":"Feature","id":"seoul-building-510786","properties":{"id":"seoul-building-510786","sourceId":"0000193579604476926700000000","pnu":"1156011000100840009","name":"서울특별시 영등포구 여의도동","address":"서울특별시 영등포구 여의도동","useName":"","floors":0.0,"height":0,"heightSource":"unknown","heightRaw":0.0,"sourceDate":"2026-09-09"},"geometry":{"type":"Polygon","coordinates":[[[126.92816758,37.53142692],[126.92816552,37.5314216],[126.92814975,37.53143561],[126.92814158,37.53143966],[126.92813183,37.53144254],[126.92812512,37.53144451],[126.92811229,37.53144611],[126.92810736,37.53144672],[126.92812575,37.53146127],[126.9281292,37.53146556],[126.92813074,37.53146748],[126.92814406,37.53149026],[126.92814789,37.531485],[126.9281547,37.53147941],[126.92816256,37.53147499],[126.92817102,37.53147024],[126.9281799,37.53146899],[126.92818893,37.53146772],[126.92817341,37.53145364],[126.92817006,37.53144345],[126.92816876,37.53143479],[126.92816758,37.53142692]]]}},{"type":"Feature","id":"seoul-building-510804","properties":{"id":"seoul-building-510804","sourceId":"0000193069364476956200000000","pnu":"1156011000100110000","name":"서울특별시 영등포구 여의도동","address":"서울특별시 영등포구 여의도동","useName":"","floors":0.0,"height":0,"heightSource":"unknown","heightRaw":0.0,"sourceDate":"2026-09-09"},"geometry":{"type":"Polygon","coordinates":[[[126.92241373,37.53150345],[126.92238551,37.53144387],[126.92234138,37.5314561],[126.92236983,37.53151396],[126.92241373,37.53150345]]]}},{"type":"Feature","id":"seoul-building-510817","properties":{"id":"seoul-building-510817","sourceId":"1982193216264475594600000000","pnu":"1156011000100110017","name":"서울특별시 영등포구 여의도동","address":"서울특별시 영등포구 여의도동","useName":"","floors":0.0,"height":0,"heightSource":"unknown","heightRaw":0.0,"sourceDate":"2026-09-09"},"geometry":{"type":"Polygon","coordinates":[[[126.92409792,37.53024557],[126.92403461,37.53021066],[126.92398308,37.53025901],[126.92404809,37.5302978],[126.92409792,37.53024557]]]}},{"type":"Feature","id":"seoul-building-510846","properties":{"id":"seoul-building-510846","sourceId":"0000193566594477890100000000","pnu":"1156011000100840001","name":"서울특별시 영등포구 여의도동","address":"서울특별시 영등포구 여의도동","useName":"","floors":0.0,"height":0,"heightSource":"unknown","heightRaw":0.0,"sourceDate":"2026-09-09"},"geometry":{"type":"Polygon","coordinates":[[[126.9281104,37.53225772],[126.92810631,37.53225051],[126.92810171,37.53224486],[126.928084,37.53222938],[126.92805651,37.53225073],[126.92804142,37.53224121],[126.92802147,37.53223609],[126.92800606,37.53223403],[126.9279979,37.53223295],[126.92798328,37.5322329],[126.92797114,37.53223286],[126.92796339,37.53223464],[126.92794949,37.53223783],[126.92793178,37.5322451],[126.92791456,37.53225888],[126.92790261,37.53227535],[126.92789708,37.53229003],[126.92789437,37.53230091],[126.92789351,37.53231698],[126.92786089,37.53232352],[126.9278658,37.53234245],[126.92787218,37.53235567],[126.92788067,37.53236836],[126.92789019,37.53237841],[126.92790846,37.53239172],[126.92792648,37.53240291],[126.92794371,37.5324108],[126.92796282,37.53241731],[126.92797723,37.53241878],[126.92799949,37.53241891],[126.92801121,37.53241898],[126.92802394,37.53241666],[126.92803767,37.53241233],[126.92805826,37.53240583],[126.92807932,37.53239407],[126.92809132,37.53238431],[126.92810254,37.53237267],[126.92811511,37.53235716],[126.92812445,37.53234219],[126.92812712,37.53232751],[126.92812703,37.53230932],[126.92812416,37.53229242],[126.92812122,37.53228316],[126.92811668,37.53226878],[126.9281104,37.53225772]]]}},{"type":"Feature","id":"seoul-building-510862","properties":{"id":"seoul-building-510862","sourceId":"1995192879124476102900000000","pnu":"1156011000100130011","name":"서울특별시 영등포구 여의도동","address":"서울특별시 영등포구 여의도동","useName":"","floors":0.0,"height":0,"heightSource":"unknown","heightRaw":0.0,"sourceDate":"2026-09-09"},"geometry":{"type":"Polygon","coordinates":[[[126.92038212,37.53073094],[126.92015633,37.53059384],[126.92007192,37.53069044],[126.92007866,37.53068777],[126.92007192,37.53069313],[126.92030109,37.53082217],[126.92038212,37.53073094]]]}},{"type":"Feature","id":"seoul-building-510901","properties":{"id":"seoul-building-510901","sourceId":"0000193584974476898000000000","pnu":"1156011000100840009","name":"서울특별시 영등포구 여의도동","address":"서울특별시 영등포구 여의도동","useName":"","floors":0.0,"height":0,"heightSource":"unknown","heightRaw":0.0,"sourceDate":"2026-09-09"},"geometry":{"type":"Polygon","coordinates":[[[126.9282309,37.53140752],[126.92822708,37.53140051],[126.92820859,37.53140864],[126.92819779,37.53141197],[126.9281848,37.53141598],[126.92817697,37.53141841],[126.92816997,37.53142323],[126.92818283,37.53143506],[126.92818701,37.53143891],[126.92819986,37.5314609],[126.92821034,37.5314549],[126.9282226,37.53145006],[126.9282285,37.53144773],[126.92824078,37.53144586],[126.92825308,37.53144397],[126.92823796,37.53142901],[126.92823367,37.53141857],[126.9282309,37.53140752]]]}},{"type":"Feature","id":"seoul-building-510939","properties":{"id":"seoul-building-510939","sourceId":"0000193123654478782400000000","pnu":"1156011000100830006","name":"서울특별시 영등포구 여의도동","address":"서울특별시 영등포구 여의도동","useName":"","floors":0.0,"height":0,"heightSource":"unknown","heightRaw":0.0,"sourceDate":"2026-09-09"},"geometry":{"type":"Polygon","coordinates":[[[126.92303948,37.53312386],[126.92302284,37.53309426],[126.9229408,37.53312621],[126.92295744,37.5331558],[126.92303948,37.53312386]]]}},{"type":"Feature","id":"seoul-building-511025","properties":{"id":"seoul-building-511025","sourceId":"0000193703384475890400000000","pnu":"1156011000100080000","name":"서울특별시 영등포구 여의도동","address":"서울특별시 영등포구 여의도동","useName":"","floors":0.0,"height":0,"heightSource":"unknown","heightRaw":0.0,"sourceDate":"2026-09-09"},"geometry":{"type":"Polygon","coordinates":[[[126.92959861,37.53053283],[126.92953017,37.53048906],[126.92950476,37.53051424],[126.9295732,37.53055802],[126.92959861,37.53053283]]]}},{"type":"Feature","id":"seoul-building-511026","properties":{"id":"seoul-building-511026","sourceId":"0000193723044476046500000000","pnu":"1156011000100840009","name":"서울특별시 영등포구 여의도동","address":"서울특별시 영등포구 여의도동","useName":"","floors":0.0,"height":0,"heightSource":"unknown","heightRaw":0.0,"sourceDate":"2026-09-09"},"geometry":{"type":"Polygon","coordinates":[[[126.92982045,37.53067318],[126.92975212,37.53063044],[126.92972741,37.53065551],[126.92979574,37.53069823],[126.92982045,37.53067318]]]}},{"type":"Feature","id":"seoul-building-511027","properties":{"id":"seoul-building-511027","sourceId":"0000193563424475448300000000","pnu":"1156011000100080000","name":"서울특별시 영등포구 여의도동","address":"서울특별시 영등포구 여의도동","useName":"","floors":0.0,"height":0,"heightSource":"unknown","heightRaw":0.0,"sourceDate":"2026-09-09"},"geometry":{"type":"Polygon","coordinates":[[[126.92798016,37.53021155],[126.92806284,37.53017407],[126.92800702,37.53014278],[126.92804632,37.53012603],[126.92805349,37.53012849],[126.92812175,37.53009514],[126.92807101,37.53005562],[126.92785752,37.53008239],[126.92787506,37.53009399],[126.92780962,37.53012383],[126.92791419,37.53018393],[126.92792457,37.53017864],[126.92798016,37.53021155]]]}},{"type":"Feature","id":"seoul-building-511029","properties":{"id":"seoul-building-511029","sourceId":"0000193545114476247800000000","pnu":"1156011000100840009","name":"서울특별시 영등포구 여의도동","address":"서울특별시 영등포구 여의도동","useName":"","floors":0.0,"height":0,"heightSource":"unknown","heightRaw":0.0,"sourceDate":"2026-09-09"},"geometry":{"type":"Polygon","coordinates":[[[126.92785296,37.53089689],[126.92775128,37.53075466],[126.92766729,37.53079346],[126.92777297,37.53093483],[126.92785296,37.53089689]]]}},{"type":"Feature","id":"seoul-building-511035","properties":{"id":"seoul-building-511035","sourceId":"1997193343644475643800000000","pnu":"1156011000100100001","name":"서울특별시 영등포구 여의도동","address":"서울특별시 영등포구 여의도동","useName":"","floors":0.0,"height":0,"heightSource":"unknown","heightRaw":0.0,"sourceDate":"2026-09-09"},"geometry":{"type":"Polygon","coordinates":[[[126.92562661,37.53024312],[126.92555866,37.53020019],[126.92555628,37.53020262],[126.92551253,37.53017385],[126.92533857,37.53035377],[126.92544846,37.53042492],[126.92562661,37.53024312]]]}},{"type":"Feature","id":"seoul-building-511037","properties":{"id":"seoul-building-511037","sourceId":"1985193449784475416800000000","pnu":"1156011000100100005","name":"서울특별시 영등포구 여의도동","address":"서울특별시 영등포구 여의도동","useName":"제1종근린생활시설","floors":5.0,"height":17.0,"heightSource":"estimated","heightRaw":0.0,"sourceDate":"2026-09-09"},"geometry":{"type":"Polygon","coordinates":[[[126.92666514,37.53018223],[126.92669538,37.53015314],[126.92671121,37.53016307],[126.926724,37.53014911],[126.92674198,37.53015957],[126.92680235,37.53009384],[126.92678844,37.53008581],[126.9267975,37.5300759],[126.92668986,37.53001268],[126.92668522,37.53001772],[126.92666,37.5300032],[126.92657053,37.53010001],[126.92659032,37.5301119],[126.92657491,37.5301283],[126.92666514,37.53018223]]]}},{"type":"Feature","id":"seoul-building-511038","properties":{"id":"seoul-building-511038","sourceId":"2007193409124475452900000000","pnu":"1156011000100100000","name":"세우빌딩","address":"서울특별시 영등포구 여의도동","useName":"업무시설","floors":14.0,"height":48.95,"heightSource":"measured","heightRaw":48.95,"sourceDate":"2026-09-09"},"geometry":{"type":"Polygon","coordinates":[[[126.92613651,37.53036444],[126.92618475,37.53031483],[126.92622319,37.53033855],[126.92627484,37.53028551],[126.92631227,37.53030365],[126.92655054,37.53006665],[126.92623678,37.52986545],[126.92589578,37.53021572],[126.92613651,37.53036444]]]}},{"type":"Feature","id":"seoul-building-511088","properties":{"id":"seoul-building-511088","sourceId":"0000193453104477619000000000","pnu":"1156011000100830006","name":"서울특별시 영등포구 여의도동","address":"서울특별시 영등포구 여의도동","useName":"","floors":0.0,"height":0,"heightSource":"unknown","heightRaw":0.0,"sourceDate":"2026-09-09"},"geometry":{"type":"Polygon","coordinates":[[[126.92673409,37.532054],[126.92673143,37.53204642],[126.92671298,37.53205903],[126.92670512,37.53206303],[126.92669626,37.53206754],[126.92668506,37.53207016],[126.92667338,37.53207449],[126.92669416,37.53208539],[126.92669877,37.53208781],[126.92671248,37.53211272],[126.92671981,37.53210379],[126.92672563,37.53209999],[126.9267348,37.53209675],[126.92674039,37.53209476],[126.92674976,37.53209144],[126.92675694,37.5320889],[126.92674005,37.53207101],[126.9267367,37.53206146],[126.92673409,37.532054]]]}},{"type":"Feature","id":"seoul-building-511104","properties":{"id":"seoul-building-511104","sourceId":"0000193422184477658400000000","pnu":"1156011000100830006","name":"서울특별시 영등포구 여의도동","address":"서울특별시 영등포구 여의도동","useName":"","floors":0.0,"height":0,"heightSource":"unknown","heightRaw":0.0,"sourceDate":"2026-09-09"},"geometry":{"type":"Polygon","coordinates":[[[126.9264063,37.53213676],[126.92636804,37.53207719],[126.92633107,37.53209224],[126.92636933,37.53215182],[126.9264063,37.53213676]]]}},{"type":"Feature","id":"seoul-building-511108","properties":{"id":"seoul-building-511108","sourceId":"1971193207454476218700000000","pnu":"1156011000100110001","name":"서울특별시 영등포구 여의도동","address":"서울특별시 영등포구 여의도동","useName":"공동주택","floors":14.0,"height":42.3,"heightSource":"estimated","heightRaw":0.0,"sourceDate":"2026-09-09"},"geometry":{"type":"Polygon","coordinates":[[[126.92412464,37.53102162],[126.9241509,37.53099308],[126.92416368,37.53100057],[126.92418113,37.53098166],[126.92417141,37.53097597],[126.92418851,37.53095733],[126.92419835,37.53096311],[126.92420955,37.53095095],[126.92420322,37.53094725],[126.92423765,37.53090988],[126.92421029,37.53089391],[126.92421799,37.53088553],[126.92410764,37.53081646],[126.92409994,37.5308242],[126.92405053,37.53079326],[126.92405767,37.53078606],[126.92394709,37.53071679],[126.92393962,37.53072435],[126.92388964,37.53069306],[126.92389712,37.53068549],[126.92378813,37.53061586],[126.92377884,37.53062442],[126.92375533,37.53060836],[126.92371581,37.53064492],[126.92371048,37.53064122],[126.92368251,37.53066715],[126.92369202,37.53067374],[126.92364412,37.53071812],[126.92366853,37.5307349],[126.92365959,37.53074318],[126.92377288,37.53081389],[126.92378001,37.53080669],[126.92380206,37.53081761],[126.92379651,37.53082481],[126.92388085,37.5308782],[126.92389285,37.53087046],[126.92391139,37.53088859],[126.92390063,37.53089561],[126.92395819,37.53092925],[126.9239643,37.53092268],[126.92398635,37.53093549],[126.92397706,37.53094557],[126.92409454,37.53101412],[126.92410055,37.53100755],[126.92412464,37.53102162]]]}},{"type":"Feature","id":"seoul-building-511153","properties":{"id":"seoul-building-511153","sourceId":"0000193434834475591200000000","pnu":"1156011000100010002","name":"서울특별시 영등포구 여의도동","address":"서울특별시 영등포구 여의도동","useName":"","floors":0.0,"height":0,"heightSource":"unknown","heightRaw":0.0,"sourceDate":"2026-09-09"},"geometry":{"type":"Polygon","coordinates":[[[126.92664406,37.53022132],[126.92658009,37.53015759],[126.92638334,37.53028288],[126.92644731,37.53034662],[126.92664406,37.53022132]]]}},{"type":"Feature","id":"seoul-building-511163","properties":{"id":"seoul-building-511163","sourceId":"0000192891984479385100000000","pnu":"1156011000100820009","name":"서울특별시 영등포구 여의도동","address":"서울특별시 영등포구 여의도동","useName":"","floors":0.0,"height":0,"heightSource":"unknown","heightRaw":0.0,"sourceDate":"2026-09-09"},"geometry":{"type":"Polygon","coordinates":[[[126.92036687,37.53362956],[126.92032735,37.53360628],[126.92030792,37.53364018],[126.92028325,37.53366113],[126.92030822,37.53369024],[126.92031928,37.53372184],[126.92035661,37.53370527],[126.92039456,37.53369314],[126.92044666,37.53368172],[126.92051322,37.53367754],[126.92051549,37.53367535],[126.92040975,37.53364717],[126.92036687,37.53362956]]]}},{"type":"Feature","id":"seoul-building-511232","properties":{"id":"seoul-building-511232","sourceId":"0000192879074479685700000000","pnu":"1156011000100820003","name":"서울특별시 영등포구 여의도동","address":"서울특별시 영등포구 여의도동","useName":"","floors":0.0,"height":0,"heightSource":"unknown","heightRaw":0.0,"sourceDate":"2026-09-09"},"geometry":{"type":"Polygon","coordinates":[[[126.92025389,37.53397828],[126.92022163,37.53388884],[126.92019041,37.53389587],[126.92022267,37.53398532],[126.92025389,37.53397828]]]}},{"type":"Feature","id":"seoul-building-511233","properties":{"id":"seoul-building-511233","sourceId":"0000192872944479629700000000","pnu":"1156011000100820003","name":"서울특별시 영등포구 여의도동","address":"서울특별시 영등포구 여의도동","useName":"","floors":0.0,"height":0,"heightSource":"unknown","heightRaw":0.0,"sourceDate":"2026-09-09"},"geometry":{"type":"Polygon","coordinates":[[[126.92017328,37.53389745],[126.92016261,37.53386887],[126.92013248,37.53387558],[126.92014315,37.53390415],[126.92017328,37.53389745]]]}},{"type":"Feature","id":"seoul-building-511234","properties":{"id":"seoul-building-511234","sourceId":"0000192868654479641600000000","pnu":"1156011000100820003","name":"서울특별시 영등포구 여의도동","address":"서울특별시 영등포구 여의도동","useName":"","floors":0.0,"height":0,"heightSource":"unknown","heightRaw":0.0,"sourceDate":"2026-09-09"},"geometry":{"type":"Polygon","coordinates":[[[126.92012361,37.53390678],[126.92011289,37.53388036],[126.92008502,37.5338877],[126.92009575,37.53391411],[126.92012361,37.53390678]]]}},{"type":"Feature","id":"seoul-building-511235","properties":{"id":"seoul-building-511235","sourceId":"0000192932664478523600000000","pnu":"1156011000100820009","name":"서울특별시 영등포구 여의도동","address":"서울특별시 영등포구 여의도동","useName":"","floors":0.0,"height":0,"heightSource":"unknown","heightRaw":0.0,"sourceDate":"2026-09-09"},"geometry":{"type":"Polygon","coordinates":[[[126.92087199,37.53289015],[126.92086155,37.53286913],[126.92078705,37.53289069],[126.92079749,37.53291172],[126.92087199,37.53289015]]]}},{"type":"Feature","id":"seoul-building-511236","properties":{"id":"seoul-building-511236","sourceId":"0000192904674478608900000000","pnu":"1156011000100820009","name":"서울특별시 영등포구 여의도동","address":"서울특별시 영등포구 여의도동","useName":"","floors":0.0,"height":0,"heightSource":"unknown","heightRaw":0.0,"sourceDate":"2026-09-09"},"geometry":{"type":"Polygon","coordinates":[[[126.92063363,37.53298436],[126.92059662,37.53289568],[126.920391,37.5329501],[126.92042987,37.53303829],[126.92063363,37.53298436]]]}},{"type":"Feature","id":"seoul-building-511298","properties":{"id":"seoul-building-511298","sourceId":"0000192941514478493400000000","pnu":"1156011000100820009","name":"서울특별시 영등포구 여의도동","address":"서울특별시 영등포구 여의도동","useName":"","floors":0.0,"height":0,"heightSource":"unknown","heightRaw":0.0,"sourceDate":"2026-09-09"},"geometry":{"type":"Polygon","coordinates":[[[126.92097312,37.53286561],[126.9209619,37.53284252],[126.92088629,37.53286101],[126.92089754,37.5328841],[126.92097312,37.53286561]]]}},{"type":"Feature","id":"seoul-building-511349","properties":{"id":"seoul-building-511349","sourceId":"0000192896184479295800000000","pnu":"1156011000100820009","name":"서울특별시 영등포구 여의도동","address":"서울특별시 영등포구 여의도동","useName":"","floors":0.0,"height":0,"heightSource":"unknown","heightRaw":0.0,"sourceDate":"2026-09-09"},"geometry":{"type":"Polygon","coordinates":[[[126.92043872,37.53354374],[126.92043167,37.5335189],[126.92038883,37.53353421],[126.92035442,37.53354077],[126.92035086,37.53357737],[126.92033528,37.53360327],[126.92037347,37.53360816],[126.92040946,37.533617],[126.92045958,37.53363597],[126.92051698,37.53366834],[126.92052139,37.53366453],[126.92046376,37.53359919],[126.92044994,37.53357372],[126.92043872,37.53354374]]]}},{"type":"Feature","id":"seoul-building-511350","properties":{"id":"seoul-building-511350","sourceId":"0000192894714479481600000000","pnu":"1156011000100820009","name":"서울특별시 영등포구 여의도동","address":"서울특별시 영등포구 여의도동","useName":"","floors":0.0,"height":0,"heightSource":"unknown","heightRaw":0.0,"sourceDate":"2026-09-09"},"geometry":{"type":"Polygon","coordinates":[[[126.92046337,37.53373127],[126.92051674,37.53368286],[126.92044846,37.53370956],[126.92038527,37.53372349],[126.92032383,37.53373078],[126.92033481,37.5337622],[126.9203337,37.53379235],[126.92037548,37.53380164],[126.92040533,37.53381848],[126.92043034,37.53377237],[126.92046337,37.53373127]]]}},{"type":"Feature","id":"seoul-building-511352","properties":{"id":"seoul-building-511352","sourceId":"0000193194804478816600000000","pnu":"1156011000100830006","name":"서울특별시 영등포구 여의도동","address":"서울특별시 영등포구 여의도동","useName":"","floors":0.0,"height":0,"heightSource":"unknown","heightRaw":0.0,"sourceDate":"2026-09-09"},"geometry":{"type":"Polygon","coordinates":[[[126.9238181,37.53315176],[126.92381756,37.53312855],[126.92378628,37.53313786],[126.92375407,37.53314229],[126.9237726,37.53315882],[126.92377511,37.53316707],[126.92378123,37.53318816],[126.92380025,37.53317734],[126.92382916,37.53317066],[126.9238181,37.53315176]]]}},{"type":"Feature","id":"seoul-building-511355","properties":{"id":"seoul-building-511355","sourceId":"0000192876914479616900000000","pnu":"1156011000100820009","name":"서울특별시 영등포구 여의도동","address":"서울특별시 영등포구 여의도동","useName":"","floors":0.0,"height":0,"heightSource":"unknown","heightRaw":0.0,"sourceDate":"2026-09-09"},"geometry":{"type":"Polygon","coordinates":[[[126.92021676,37.53388499],[126.92020593,37.53385808],[126.92017879,37.53386505],[126.92018962,37.53389195],[126.92021676,37.53388499]]]}},{"type":"Feature","id":"seoul-building-511356","properties":{"id":"seoul-building-511356","sourceId":"0000192874914479697600000000","pnu":"1156011000100820003","name":"서울특별시 영등포구 여의도동","address":"서울특별시 영등포구 여의도동","useName":"","floors":0.0,"height":0,"heightSource":"unknown","heightRaw":0.0,"sourceDate":"2026-09-09"},"geometry":{"type":"Polygon","coordinates":[[[126.92020532,37.53398898],[126.92017406,37.53389971],[126.92014478,37.53390645],[126.92017604,37.53399573],[126.92020532,37.53398898]]]}},{"type":"Feature","id":"seoul-building-511372","properties":{"id":"seoul-building-511372","sourceId":"0000192986694479187900000000","pnu":"1156011000100820009","name":"서울특별시 영등포구 여의도동","address":"서울특별시 영등포구 여의도동","useName":"","floors":0.0,"height":0,"heightSource":"unknown","heightRaw":0.0,"sourceDate":"2026-09-09"},"geometry":{"type":"Polygon","coordinates":[[[126.92146665,37.53349566],[126.92144898,37.53346881],[126.9214137,37.53348307],[126.92143137,37.53350992],[126.92146665,37.53349566]]]}},{"type":"Feature","id":"seoul-building-511396","properties":{"id":"seoul-building-511396","sourceId":"0000192865584479382600000000","pnu":"1156011000100820009","name":"서울특별시 영등포구 여의도동","address":"서울특별시 영등포구 여의도동","useName":"","floors":0.0,"height":0,"heightSource":"unknown","heightRaw":0.0,"sourceDate":"2026-09-09"},"geometry":{"type":"Polygon","coordinates":[[[126.92006732,37.53357463],[126.92003295,37.53356554],[126.92000969,37.53358492],[126.9200221,37.53359888],[126.92002703,37.53360708],[126.92002742,37.53361209],[126.92002655,37.53363067],[126.92003998,37.53364719],[126.92004036,37.53365795],[126.92004082,37.53367069],[126.92004279,37.53367322],[126.92005528,37.53368712],[126.92005715,37.53369744],[126.9200566,37.5337077],[126.92005754,37.53371489],[126.92007057,37.5337318],[126.92007221,37.53374462],[126.92007308,37.53375139],[126.9200738,37.53375694],[126.92009673,37.53375939],[126.92010293,37.53376178],[126.92010465,37.53376244],[126.92012878,37.53374277],[126.92011442,37.53372286],[126.92011371,37.53370935],[126.92011315,37.53369837],[126.92009825,37.53367913],[126.92009796,37.53366116],[126.92009615,37.53365391],[126.92009065,37.53364684],[126.92008525,37.53363988],[126.92008127,37.53363477],[126.92008234,37.53362087],[126.92008279,37.53361496],[126.92007325,37.53360015],[126.92006986,37.53358883],[126.92006759,37.53357618],[126.92006732,37.53357463]]]}},{"type":"Feature","id":"seoul-building-511399","properties":{"id":"seoul-building-511399","sourceId":"0000192976624479006200000000","pnu":"1156011000100820009","name":"서울특별시 영등포구 여의도동","address":"서울특별시 영등포구 여의도동","useName":"","floors":0.0,"height":0,"heightSource":"unknown","heightRaw":0.0,"sourceDate":"2026-09-09"},"geometry":{"type":"Polygon","coordinates":[[[126.92135353,37.53333081],[126.92133438,37.53330435],[126.92129932,37.53332029],[126.92131847,37.53334676],[126.92135353,37.53333081]]]}},{"type":"Feature","id":"seoul-building-511400","properties":{"id":"seoul-building-511400","sourceId":"0000192979294479136500000000","pnu":"1156011000100820009","name":"서울특별시 영등포구 여의도동","address":"서울특별시 영등포구 여의도동","useName":"","floors":0.0,"height":0,"heightSource":"unknown","heightRaw":0.0,"sourceDate":"2026-09-09"},"geometry":{"type":"Polygon","coordinates":[[[126.92138371,37.53345114],[126.92136541,37.5334218],[126.92132935,37.5334348],[126.92134763,37.53346415],[126.92138371,37.53345114]]]}},{"type":"Feature","id":"seoul-building-511401","properties":{"id":"seoul-building-511401","sourceId":"0000192974764478972000000000","pnu":"1156011000100820009","name":"서울특별시 영등포구 여의도동","address":"서울특별시 영등포구 여의도동","useName":"","floors":0.0,"height":0,"heightSource":"unknown","heightRaw":0.0,"sourceDate":"2026-09-09"},"geometry":{"type":"Polygon","coordinates":[[[126.92133186,37.5333009],[126.92131239,37.53327386],[126.92127898,37.53328855],[126.92129845,37.53331559],[126.92133186,37.5333009]]]}},{"type":"Feature","id":"seoul-building-511402","properties":{"id":"seoul-building-511402","sourceId":"0000192972784478937200000000","pnu":"1156011000100820009","name":"서울특별시 영등포구 여의도동","address":"서울특별시 영등포구 여의도동","useName":"","floors":0.0,"height":0,"heightSource":"unknown","heightRaw":0.0,"sourceDate":"2026-09-09"},"geometry":{"type":"Polygon","coordinates":[[[126.92131003,37.53327024],[126.92129024,37.53324201],[126.92125615,37.53325645],[126.92127592,37.53328468],[126.92131003,37.53327024]]]}},{"type":"Feature","id":"seoul-building-511403","properties":{"id":"seoul-building-511403","sourceId":"0000192969194478956200000000","pnu":"1156011000100820009","name":"서울특별시 영등포구 여의도동","address":"서울특별시 영등포구 여의도동","useName":"","floors":0.0,"height":0,"heightSource":"unknown","heightRaw":0.0,"sourceDate":"2026-09-09"},"geometry":{"type":"Polygon","coordinates":[[[126.92126776,37.53328699],[126.9212504,37.53326045],[126.92121723,37.53327401],[126.92123459,37.53330055],[126.92126776,37.53328699]]]}},{"type":"Feature","id":"seoul-building-511404","properties":{"id":"seoul-building-511404","sourceId":"0000192967254478920700000000","pnu":"1156011000100820009","name":"서울특별시 영등포구 여의도동","address":"서울특별시 영등포구 여의도동","useName":"","floors":0.0,"height":0,"heightSource":"unknown","heightRaw":0.0,"sourceDate":"2026-09-09"},"geometry":{"type":"Polygon","coordinates":[[[126.92124568,37.53325482],[126.92123038,37.53322691],[126.92119533,37.53324209],[126.92121063,37.53327001],[126.92124568,37.53325482]]]}},{"type":"Feature","id":"seoul-building-511405","properties":{"id":"seoul-building-511405","sourceId":"0000192965294478885100000000","pnu":"1156011000100820009","name":"서울특별시 영등포구 여의도동","address":"서울특별시 영등포구 여의도동","useName":"","floors":0.0,"height":0,"heightSource":"unknown","heightRaw":0.0,"sourceDate":"2026-09-09"},"geometry":{"type":"Polygon","coordinates":[[[126.92122543,37.5332219],[126.92120525,37.53319518],[126.92117131,37.5332108],[126.92119149,37.53323753],[126.92122543,37.5332219]]]}},{"type":"Feature","id":"seoul-building-511406","properties":{"id":"seoul-building-511406","sourceId":"0000192960624478719400000000","pnu":"1156011000100820009","name":"서울특별시 영등포구 여의도동","address":"서울특별시 영등포구 여의도동","useName":"","floors":0.0,"height":0,"heightSource":"unknown","heightRaw":0.0,"sourceDate":"2026-09-09"},"geometry":{"type":"Polygon","coordinates":[[[126.9211717,37.5330741],[126.92115388,37.53304531],[126.92111978,37.53305993],[126.92113759,37.53308872],[126.9211717,37.5330741]]]}},{"type":"Feature","id":"seoul-building-511407","properties":{"id":"seoul-building-511407","sourceId":"0000192962724478753700000000","pnu":"1156011000100820009","name":"서울특별시 영등포구 여의도동","address":"서울특별시 영등포구 여의도동","useName":"","floors":0.0,"height":0,"heightSource":"unknown","heightRaw":0.0,"sourceDate":"2026-09-09"},"geometry":{"type":"Polygon","coordinates":[[[126.92119565,37.53310363],[126.92117618,37.53307766],[126.92114317,37.53309235],[126.92116264,37.53311833],[126.92119565,37.53310363]]]}},{"type":"Feature","id":"seoul-building-511408","properties":{"id":"seoul-building-511408","sourceId":"0000192964564478790400000000","pnu":"1156011000100820009","name":"서울특별시 영등포구 여의도동","address":"서울특별시 영등포구 여의도동","useName":"","floors":0.0,"height":0,"heightSource":"unknown","heightRaw":0.0,"sourceDate":"2026-09-09"},"geometry":{"type":"Polygon","coordinates":[[[126.92121629,37.53313737],[126.92119823,37.53311115],[126.9211642,37.53312477],[126.92118226,37.53315099],[126.92121629,37.53313737]]]}},{"type":"Feature","id":"seoul-building-511409","properties":{"id":"seoul-building-511409","sourceId":"0000192957204478738200000000","pnu":"1156011000100820009","name":"서울특별시 영등포구 여의도동","address":"서울특별시 영등포구 여의도동","useName":"","floors":0.0,"height":0,"heightSource":"unknown","heightRaw":0.0,"sourceDate":"2026-09-09"},"geometry":{"type":"Polygon","coordinates":[[[126.92113225,37.5330904],[126.92111388,37.53306306],[126.92108166,37.53307757],[126.92110003,37.53310492],[126.92113225,37.5330904]]]}},{"type":"Feature","id":"seoul-building-511410","properties":{"id":"seoul-building-511410","sourceId":"0000192955294478703400000000","pnu":"1156011000100820009","name":"서울특별시 영등포구 여의도동","address":"서울특별시 영등포구 여의도동","useName":"","floors":0.0,"height":0,"heightSource":"unknown","heightRaw":0.0,"sourceDate":"2026-09-09"},"geometry":{"type":"Polygon","coordinates":[[[126.92111215,37.53305818],[126.921093,37.53303171],[126.92105865,37.53304709],[126.92107781,37.53307355],[126.92111215,37.53305818]]]}},{"type":"Feature","id":"seoul-building-511411","properties":{"id":"seoul-building-511411","sourceId":"0000192981104479172900000000","pnu":"1156011000100820009","name":"서울특별시 영등포구 여의도동","address":"서울특별시 영등포구 여의도동","useName":"","floors":0.0,"height":0,"heightSource":"unknown","heightRaw":0.0,"sourceDate":"2026-09-09"},"geometry":{"type":"Polygon","coordinates":[[[126.92140238,37.53348431],[126.92138527,37.53345547],[126.92135148,37.53346721],[126.92136859,37.53349607],[126.92140238,37.53348431]]]}},{"type":"Feature","id":"seoul-building-511412","properties":{"id":"seoul-building-511412","sourceId":"0000192983194479208600000000","pnu":"1156011000100820009","name":"서울특별시 영등포구 여의도동","address":"서울특별시 영등포구 여의도동","useName":"","floors":0.0,"height":0,"heightSource":"unknown","heightRaw":0.0,"sourceDate":"2026-09-09"},"geometry":{"type":"Polygon","coordinates":[[[126.92142664,37.53351523],[126.92140788,37.53348714],[126.92137464,37.5335007],[126.9213934,37.5335288],[126.92142664,37.53351523]]]}},{"type":"Feature","id":"seoul-building-511456","properties":{"id":"seoul-building-511456","sourceId":"0000193138224477647800000000","pnu":"1156011000100830006","name":"서울특별시 영등포구 여의도동","address":"서울특별시 영등포구 여의도동","useName":"","floors":0.0,"height":0,"heightSource":"unknown","heightRaw":0.0,"sourceDate":"2026-09-09"},"geometry":{"type":"Polygon","coordinates":[[[126.9232013,37.5321038],[126.92318694,37.53207651],[126.92311077,37.53210192],[126.92312514,37.53212921],[126.9232013,37.5321038]]]}},{"type":"Feature","id":"seoul-building-511457","properties":{"id":"seoul-building-511457","sourceId":"0000193076074476346500000000","pnu":"1156011000100110000","name":"서울특별시 영등포구 여의도동","address":"서울특별시 영등포구 여의도동","useName":"","floors":0.0,"height":0,"heightSource":"unknown","heightRaw":0.0,"sourceDate":"2026-09-09"},"geometry":{"type":"Polygon","coordinates":[[[126.92248357,37.53093],[126.92244784,37.53090637],[126.92242395,37.53092915],[126.92246182,37.53095387],[126.92248357,37.53093]]]}},{"type":"Feature","id":"seoul-building-511458","properties":{"id":"seoul-building-511458","sourceId":"0000193087764476201600000000","pnu":"1156011000100110000","name":"서울특별시 영등포구 여의도동","address":"서울특별시 영등포구 여의도동","useName":"","floors":0.0,"height":0,"heightSource":"unknown","heightRaw":0.0,"sourceDate":"2026-09-09"},"geometry":{"type":"Polygon","coordinates":[[[126.92261732,37.53079999],[126.92257774,37.53077645],[126.92255611,37.53079896],[126.92259489,37.53082268],[126.92261732,37.53079999]]]}},{"type":"Feature","id":"seoul-building-511514","properties":{"id":"seoul-building-511514","sourceId":"0000193121194477691800000000","pnu":"1156011000100830006","name":"서울특별시 영등포구 여의도동","address":"서울특별시 영등포구 여의도동","useName":"","floors":0.0,"height":0,"heightSource":"unknown","heightRaw":0.0,"sourceDate":"2026-09-09"},"geometry":{"type":"Polygon","coordinates":[[[126.92297901,37.5321593],[126.92297834,37.53212522],[126.92294766,37.5321256],[126.92294832,37.53215968],[126.92297901,37.5321593]]]}},{"type":"Feature","id":"seoul-building-511535","properties":{"id":"seoul-building-511535","sourceId":"0000192953294478668400000000","pnu":"1156011000100820009","name":"서울특별시 영등포구 여의도동","address":"서울특별시 영등포구 여의도동","useName":"","floors":0.0,"height":0,"heightSource":"unknown","heightRaw":0.0,"sourceDate":"2026-09-09"},"geometry":{"type":"Polygon","coordinates":[[[126.92108994,37.53302745],[126.92107134,37.53300048],[126.92103573,37.53301473],[126.92105433,37.5330417],[126.92108994,37.53302745]]]}},{"type":"Feature","id":"seoul-building-511536","properties":{"id":"seoul-building-511536","sourceId":"0000192970864478902000000000","pnu":"1156011000100820009","name":"서울특별시 영등포구 여의도동","address":"서울특별시 영등포구 여의도동","useName":"","floors":0.0,"height":0,"heightSource":"unknown","heightRaw":0.0,"sourceDate":"2026-09-09"},"geometry":{"type":"Polygon","coordinates":[[[126.92128804,37.53323826],[126.92126873,37.53321097],[126.92123471,37.53322497],[126.92125401,37.53325226],[126.92128804,37.53323826]]]}},{"type":"Feature","id":"seoul-building-511537","properties":{"id":"seoul-building-511537","sourceId":"0000192971234478991900000000","pnu":"1156011000100820009","name":"서울특별시 영등포구 여의도동","address":"서울특별시 영등포구 여의도동","useName":"","floors":0.0,"height":0,"heightSource":"unknown","heightRaw":0.0,"sourceDate":"2026-09-09"},"geometry":{"type":"Polygon","coordinates":[[[126.92129027,37.53331853],[126.92127372,37.53329205],[126.9212408,37.53330687],[126.92125735,37.53333334],[126.92129027,37.53331853]]]}},{"type":"Feature","id":"seoul-building-511538","properties":{"id":"seoul-building-511538","sourceId":"0000192958804478684200000000","pnu":"1156011000100820009","name":"서울특별시 영등포구 여의도동","address":"서울특별시 영등포구 여의도동","useName":"","floors":0.0,"height":0,"heightSource":"unknown","heightRaw":0.0,"sourceDate":"2026-09-09"},"geometry":{"type":"Polygon","coordinates":[[[126.92115231,37.53304337],[126.92113371,37.53301401],[126.92109795,37.5330272],[126.92111656,37.53305655],[126.92115231,37.53304337]]]}},{"type":"Feature","id":"seoul-building-511539","properties":{"id":"seoul-building-511539","sourceId":"0000192959114478773800000000","pnu":"1156011000100820009","name":"서울특별시 영등포구 여의도동","address":"서울특별시 영등포구 여의도동","useName":"","floors":0.0,"height":0,"heightSource":"unknown","heightRaw":0.0,"sourceDate":"2026-09-09"},"geometry":{"type":"Polygon","coordinates":[[[126.92115478,37.53312208],[126.92113547,37.53309473],[126.92110238,37.53311004],[126.9211217,37.53313739],[126.92115478,37.53312208]]]}},{"type":"Feature","id":"seoul-building-511540","properties":{"id":"seoul-building-511540","sourceId":"0000193247774478615400000000","pnu":"1156011000100830006","name":"서울특별시 영등포구 여의도동","address":"서울특별시 영등포구 여의도동","useName":"","floors":0.0,"height":0,"heightSource":"unknown","heightRaw":0.0,"sourceDate":"2026-09-09"},"geometry":{"type":"Polygon","coordinates":[[[126.92441848,37.53297396],[126.92441731,37.53294593],[126.92438674,37.53295694],[126.92435099,37.53296243],[126.92437298,37.53298183],[126.92438129,37.5330073],[126.92440228,37.53299548],[126.92443142,37.53299231],[126.92441848,37.53297396]]]}},{"type":"Feature","id":"seoul-building-512162","properties":{"id":"seoul-building-512162","sourceId":"0000193298744478415200000000","pnu":"1156011000100830006","name":"서울특별시 영등포구 여의도동","address":"서울특별시 영등포구 여의도동","useName":"","floors":0.0,"height":0,"heightSource":"unknown","heightRaw":0.0,"sourceDate":"2026-09-09"},"geometry":{"type":"Polygon","coordinates":[[[126.92499422,37.53279077],[126.92499062,37.53276405],[126.92496791,37.53277593],[126.92494544,37.53278018],[126.92493074,37.53277973],[126.92494824,37.53280189],[126.9249557,37.53282673],[126.92497385,37.53281597],[126.92500005,37.53281176],[126.92501023,37.5328101],[126.92500005,37.53279781],[126.92499422,37.53279077]]]}},{"type":"Feature","id":"seoul-building-513673","properties":{"id":"seoul-building-513673","sourceId":"2010193005924475343000000000","pnu":"1156011000100130003","name":"맨하탄호텔 별관 C동","address":"서울특별시 영등포구 여의도동","useName":"제2종근린생활시설","floors":4.0,"height":17.8,"heightSource":"measured","heightRaw":17.8,"sourceDate":"2026-09-09"},"geometry":{"type":"Polygon","coordinates":[[[126.92183585,37.52993225],[126.92173208,37.52986788],[126.92148656,37.53011894],[126.92159142,37.5301822],[126.92183585,37.52993225]]]}},{"type":"Feature","id":"seoul-building-513707","properties":{"id":"seoul-building-513707","sourceId":"1978193033784475637300000000","pnu":"1156011000100130003","name":"서울특별시 영등포구 여의도동","address":"서울특별시 영등포구 여의도동","useName":"숙박시설","floors":15.0,"height":66.5,"heightSource":"measured","heightRaw":66.5,"sourceDate":"2026-09-09"},"geometry":{"type":"Polygon","coordinates":[[[126.92196331,37.53054799],[126.92203047,37.53047965],[126.922048,37.53049147],[126.92223656,37.53030878],[126.9222144,37.53029417],[126.92228665,37.53022593],[126.92200954,37.53005014],[126.92199516,37.53006265],[126.92196067,37.53004416],[126.92190426,37.53010791],[126.92189307,37.53009826],[126.92172036,37.53027141],[126.9217302,37.53027854],[126.92167459,37.5303386],[126.92170534,37.53035745],[126.92169424,37.5303706],[126.92196331,37.53054799]]]}},{"type":"Feature","id":"seoul-building-513738","properties":{"id":"seoul-building-513738","sourceId":"2004192905514475739500000000","pnu":"1156011000100130018","name":"벤허호텔","address":"서울특별시 영등포구 여의도동","useName":"숙박시설","floors":10.0,"height":34.45,"heightSource":"measured","heightRaw":34.45,"sourceDate":"2026-09-09"},"geometry":{"type":"Polygon","coordinates":[[[126.9205787,37.530292],[126.92055699,37.53027892],[126.92040172,37.5304246],[126.92049216,37.53048593],[126.92059488,37.53038941],[126.92064789,37.53033403],[126.9205787,37.530292]]]}},{"type":"Feature","id":"seoul-building-513798","properties":{"id":"seoul-building-513798","sourceId":"1989192952854475408100000000","pnu":"1156011000100130019","name":"국민의힘","address":"서울특별시 영등포구 여의도동","useName":"제1종근린생활시설","floors":10.0,"height":32.3,"heightSource":"measured","heightRaw":32.3,"sourceDate":"2026-09-09"},"geometry":{"type":"Polygon","coordinates":[[[126.92123143,37.53002034],[126.92109869,37.52993835],[126.92108986,37.52993888],[126.92089122,37.53014373],[126.92089234,37.53014995],[126.92102383,37.53022833],[126.92103119,37.53022807],[126.92123177,37.53002412],[126.92123143,37.53002034]]]}},{"type":"Feature","id":"seoul-building-513856","properties":{"id":"seoul-building-513856","sourceId":"1975193163654475993500000000","pnu":"1156011000100110000","name":"서울특별시 영등포구 여의도동","address":"서울특별시 영등포구 여의도동","useName":"","floors":0.0,"height":0,"heightSource":"unknown","heightRaw":0.0,"sourceDate":"2026-09-09"},"geometry":{"type":"Polygon","coordinates":[[[126.92345016,37.53064123],[126.92355832,37.53053147],[126.92351524,37.53050225],[126.92340142,37.53062093],[126.92339622,37.53061787],[126.92333472,37.53068207],[126.92334036,37.53069333],[126.92337102,37.53069633],[126.92339308,37.5306985],[126.92340982,37.53070104],[126.92342147,37.53070285],[126.92343064,37.53069438],[126.92345016,37.53064123]]]}},{"type":"Feature","id":"seoul-building-513863","properties":{"id":"seoul-building-513863","sourceId":"1986192977034475900800000000","pnu":"1156011000100130002","name":"서울특별시 영등포구 여의도동","address":"서울특별시 영등포구 여의도동","useName":"제2종근린생활시설","floors":10.0,"height":37.33,"heightSource":"measured","heightRaw":37.33,"sourceDate":"2026-09-09"},"geometry":{"type":"Polygon","coordinates":[[[126.92149229,37.53048119],[126.92134587,37.5303873],[126.9211727,37.53056631],[126.92117248,37.53057108],[126.92117394,37.53057505],[126.92132104,37.53066434],[126.92132466,37.53066444],[126.92132828,37.53066344],[126.92149534,37.53048921],[126.92149489,37.53048489],[126.92149229,37.53048119]]]}},{"type":"Feature","id":"seoul-building-513866","properties":{"id":"seoul-building-513866","sourceId":"1989192932734475638800000000","pnu":"1156011000100130017","name":"굿 피플 빌딩","address":"서울특별시 영등포구 여의도동","useName":"업무시설","floors":10.0,"height":36.25,"heightSource":"measured","heightRaw":36.25,"sourceDate":"2026-09-09"},"geometry":{"type":"Polygon","coordinates":[[[126.92083595,37.53040858],[126.92087548,37.53036671],[126.9208722,37.53036266],[126.92088884,37.53035393],[126.92089903,37.53034916],[126.92090945,37.53034061],[126.92091987,37.53032908],[126.92092577,37.53031548],[126.92092736,37.53030846],[126.92092736,37.53030215],[126.92093755,37.53030216],[126.92097821,37.53026038],[126.92097821,37.53025659],[126.92097629,37.5302511],[126.92097313,37.53025172],[126.9209695,37.5302519],[126.9209643,37.53025424],[126.92096001,37.53024829],[126.9209617,37.53024856],[126.92083474,37.53016991],[126.92068614,37.53032271],[126.92081424,37.53040199],[126.92081786,37.5303983],[126.9208251,37.53040281],[126.92082125,37.53040677],[126.92082373,37.53040831],[126.92082633,37.5304093],[126.92083018,37.5304093],[126.92083323,37.53040921],[126.92083595,37.53040858]]]}},{"type":"Feature","id":"seoul-building-513905","properties":{"id":"seoul-building-513905","sourceId":"0000193064304476979100000000","pnu":"1156011000100110000","name":"서울특별시 영등포구 여의도동","address":"서울특별시 영등포구 여의도동","useName":"","floors":0.0,"height":0,"heightSource":"unknown","heightRaw":0.0,"sourceDate":"2026-09-09"},"geometry":{"type":"Polygon","coordinates":[[[126.92237433,37.53153568],[126.92233187,37.53146087],[126.92226272,37.53147884],[126.92227085,37.5314984],[126.922344,37.53154025],[126.92237433,37.53153568]]]}},{"type":"Feature","id":"seoul-building-513915","properties":{"id":"seoul-building-513915","sourceId":"1977193146574475789900000000","pnu":"1156011000100110000","name":"여의도순복음교회","address":"서울특별시 영등포구 여의도동","useName":"종교시설","floors":10.0,"height":33.0,"heightSource":"estimated","heightRaw":0.0,"sourceDate":"2026-09-09"},"geometry":{"type":"Polygon","coordinates":[[[126.92338457,37.53061181],[126.92342602,37.53056841],[126.92343597,37.53057419],[126.92346394,37.53054745],[126.92345219,37.53054104],[126.92350757,37.53048585],[126.92311919,37.53024566],[126.92306269,37.53030104],[126.92305363,37.53029526],[126.92303936,37.53030922],[126.92305294,37.53031851],[126.92299564,37.53037136],[126.92338457,37.53061181]]]}},{"type":"Feature","id":"seoul-building-513927","properties":{"id":"seoul-building-513927","sourceId":"2001192877864475372800000000","pnu":"1156011000100140005","name":"여의도아크로폴리스","address":"서울특별시 영등포구 여의도동","useName":"업무시설","floors":13.0,"height":40.66,"heightSource":"measured","heightRaw":40.66,"sourceDate":"2026-09-09"},"geometry":{"type":"Polygon","coordinates":[[[126.92045008,37.52995197],[126.92027755,37.52984337],[126.9199756,37.53015338],[126.92014542,37.53025837],[126.92045008,37.52995197]]]}},{"type":"Feature","id":"seoul-building-513949","properties":{"id":"seoul-building-513949","sourceId":"0000192988574480125500000000","pnu":"1156011000100820004","name":"서울특별시 영등포구 여의도동","address":"서울특별시 영등포구 여의도동","useName":"","floors":0.0,"height":0,"heightSource":"unknown","heightRaw":0.0,"sourceDate":"2026-09-09"},"geometry":{"type":"Polygon","coordinates":[[[126.92171871,37.53431923],[126.92169919,37.5342497],[126.921201,37.53434957],[126.92122272,37.5344184],[126.92171871,37.53431923]]]}},{"type":"Feature","id":"seoul-building-513951","properties":{"id":"seoul-building-513951","sourceId":"0000192912564480385800000000","pnu":"1156011000100820001","name":"서울특별시 영등포구 여의도동","address":"서울특별시 영등포구 여의도동","useName":"","floors":0.0,"height":0,"heightSource":"unknown","heightRaw":0.0,"sourceDate":"2026-09-09"},"geometry":{"type":"Polygon","coordinates":[[[126.92044119,37.53467253],[126.92080439,37.53460497],[126.92079463,37.53457173],[126.92080741,37.53456935],[126.92078875,37.53450571],[126.92077631,37.53450803],[126.92076494,37.53446367],[126.92039939,37.53452892],[126.9204129,37.53457689],[126.9203938,37.53457891],[126.92040987,37.53463773],[126.92042907,37.5346344],[126.92044119,37.53467253]]]}},{"type":"Feature","id":"seoul-building-513976","properties":{"id":"seoul-building-513976","sourceId":"2003192891614475922200000000","pnu":"1156011000100130016","name":"여의도 플렉시움 오피스텔","address":"서울특별시 영등포구 여의도동","useName":"업무시설","floors":13.0,"height":38.1,"heightSource":"measured","heightRaw":38.1,"sourceDate":"2026-09-09"},"geometry":{"type":"Polygon","coordinates":[[[126.9204779,37.53049565],[126.92038983,37.53044081],[126.92035834,37.53047296],[126.92037259,37.5304818],[126.9202583,37.53060705],[126.92032488,37.5306516],[126.9204779,37.53049565]]]}},{"type":"Feature","id":"seoul-building-513978","properties":{"id":"seoul-building-513978","sourceId":"0000193011504475903800000000","pnu":"1156011000100130003","name":"서울특별시 영등포구 여의도동","address":"서울특별시 영등포구 여의도동","useName":"","floors":0.0,"height":0,"heightSource":"unknown","heightRaw":0.0,"sourceDate":"2026-09-09"},"geometry":{"type":"Polygon","coordinates":[[[126.92181839,37.53054277],[126.92168532,37.53045997],[126.92162926,37.53051633],[126.92176233,37.53060211],[126.92181839,37.53054277]]]}},{"type":"Feature","id":"seoul-building-513985","properties":{"id":"seoul-building-513985","sourceId":"1995192894044476213000000000","pnu":"1156011000100130011","name":"서울특별시 영등포구 여의도동","address":"서울특별시 영등포구 여의도동","useName":"위험물저장및처리시설","floors":2.0,"height":8.42,"heightSource":"measured","heightRaw":8.42,"sourceDate":"2026-09-09"},"geometry":{"type":"Polygon","coordinates":[[[126.92047311,37.53078738],[126.9203956,37.53074169],[126.92031795,37.53082755],[126.92032132,37.53083024],[126.92039209,37.53087594],[126.92047311,37.53078738]]]}},{"type":"Feature","id":"seoul-building-514024","properties":{"id":"seoul-building-514024","sourceId":"0000193035344479995300000000","pnu":"1156011000100830000","name":"서울특별시 영등포구 여의도동","address":"서울특별시 영등포구 여의도동","useName":"","floors":0.0,"height":0,"heightSource":"unknown","heightRaw":0.0,"sourceDate":"2026-09-09"},"geometry":{"type":"Polygon","coordinates":[[[126.92218783,37.53422497],[126.92215426,37.53412948],[126.92179451,37.53420763],[126.92182526,37.53430581],[126.92218783,37.53422497]]]}},{"type":"Feature","id":"seoul-building-514082","properties":{"id":"seoul-building-514082","sourceId":"0000193058574477538300000000","pnu":"1156011000100080000","name":"서울특별시 영등포구 여의도동","address":"서울특별시 영등포구 여의도동","useName":"","floors":0.0,"height":0,"heightSource":"unknown","heightRaw":0.0,"sourceDate":"2026-09-09"},"geometry":{"type":"Polygon","coordinates":[[[126.92224929,37.5321196],[126.92226458,37.53210816],[126.92227375,37.53209862],[126.92225556,37.53208365],[126.92226382,37.53207725],[126.9222722,37.53206762],[126.92227402,37.53206465],[126.92226498,37.53205609],[126.92228094,37.53204537],[126.92231003,37.53202674],[126.92234287,37.53200261],[126.92237333,37.53197777],[126.92238884,37.53196444],[126.92239405,37.53196075],[126.92236681,37.53193533],[126.9223675,37.53192812],[126.92236536,37.53191974],[126.92235688,37.53191234],[126.92234738,37.53190792],[126.92233879,37.53190675],[126.92234626,37.53189711],[126.9223258,37.53188007],[126.92230543,37.53188816],[126.92226162,37.53191021],[126.92223105,37.53193073],[126.92220116,37.53195197],[126.92215926,37.53198763],[126.92214681,37.53199745],[126.92217981,37.53202917],[126.92216657,37.53203638],[126.92214641,37.53205052],[126.92213497,37.53206141],[126.92215849,37.53207701],[126.92215419,37.53208233],[126.9221492,37.53209312],[126.92215088,37.53210314],[126.92215687,37.53211206],[126.92216671,37.53211819],[126.92217858,37.53212063],[126.92219171,37.5321192],[126.92220054,37.53211623],[126.92222133,37.53213544],[126.92222982,37.53212967],[126.92224929,37.5321196]]]}},{"type":"Feature","id":"seoul-building-514370","properties":{"id":"seoul-building-514370","sourceId":"0000192984094475607400000000","pnu":"1156011000100130003","name":"서울특별시 영등포구 여의도동","address":"서울특별시 영등포구 여의도동","useName":"","floors":0.0,"height":0,"heightSource":"unknown","heightRaw":0.0,"sourceDate":"2026-09-09"},"geometry":{"type":"Polygon","coordinates":[[[126.92152888,37.53021948],[126.92144862,37.5301577],[126.92129618,37.53030816],[126.92138673,37.53036642],[126.92152888,37.53021948]]]}},{"type":"Feature","id":"seoul-building-518793","properties":{"id":"seoul-building-518793","sourceId":"1995193233294475819700000000","pnu":"1156011000100110015","name":"서울특별시 영등포구 여의도동","address":"서울특별시 영등포구 여의도동","useName":"업무시설","floors":11.0,"height":39.9,"heightSource":"measured","heightRaw":39.9,"sourceDate":"2026-09-09"},"geometry":{"type":"Polygon","coordinates":[[[126.92461297,37.53065063],[126.92471238,37.53055195],[126.92471158,37.53054614],[126.92445583,37.53038331],[126.9245107,37.53032885],[126.92433861,37.53021891],[126.92416587,37.53039039],[126.92417382,37.53039546],[126.92413834,37.53043055],[126.92390021,37.53027875],[126.92376069,37.53041682],[126.92416309,37.53067392],[126.9242875,37.53055184],[126.92430736,37.53056453],[126.92437392,37.53049847],[126.92461297,37.53065063]]]}},{"type":"Feature","id":"seoul-building-518848","properties":{"id":"seoul-building-518848","sourceId":"2003192919104475542700000000","pnu":"1156011000100130012","name":"여의도호텔","address":"서울특별시 영등포구 여의도동","useName":"숙박시설","floors":10.0,"height":32.2,"heightSource":"measured","heightRaw":32.2,"sourceDate":"2026-09-09"},"geometry":{"type":"Polygon","coordinates":[[[126.92073014,37.53011199],[126.92069034,37.53008953],[126.9205526,37.53025729],[126.92066227,37.53031918],[126.92078007,37.53018681],[126.92080771,37.53015575],[126.92073014,37.53011199]]]}},{"type":"Feature","id":"seoul-building-519512","properties":{"id":"seoul-building-519512","sourceId":"2013193002254476076200000000","pnu":"1156011000100130001","name":"기독교한국침례회 총회빌딩","address":"서울특별시 영등포구 여의도동","useName":"업무시설","floors":13.0,"height":54.99,"heightSource":"measured","heightRaw":54.99,"sourceDate":"2026-09-09"},"geometry":{"type":"Polygon","coordinates":[[[126.92134011,37.53068205],[126.92133883,37.53068252],[126.92168577,37.5309019],[126.92189898,37.53068928],[126.92155333,37.53046944],[126.92134011,37.53068205]]]}},{"type":"Feature","id":"seoul-building-569193","properties":{"id":"seoul-building-569193","sourceId":"1991193287954476118500000000","pnu":"1156011000100110011","name":"한서리버파크","address":"서울특별시 영등포구 여의도동","useName":"업무시설","floors":16.0,"height":58.6,"heightSource":"estimated","heightRaw":0.0,"sourceDate":"2026-09-09"},"geometry":{"type":"Polygon","coordinates":[[[126.9248422,37.530514],[126.92483971,37.53051337],[126.92483733,37.53051346],[126.92483631,37.53051427],[126.92476496,37.53058828],[126.9247644,37.53058973],[126.92476519,37.53059226],[126.92476869,37.53059468],[126.92485405,37.53064934],[126.92476436,37.53073804],[126.92464077,37.53077688],[126.92462957,37.53078237],[126.92461757,37.53079128],[126.92460965,37.53080002],[126.9246034,37.53081109],[126.92459956,37.53082479],[126.92460022,37.53083749],[126.92460359,37.53084912],[126.92460833,37.53085885],[126.92461456,37.53086678],[126.92462055,37.53087336],[126.92463231,37.5308804],[126.92464712,37.53088663],[126.9246599,37.53088952],[126.92467653,37.53089061],[126.92469079,37.53088954],[126.92470256,37.53088756],[126.92497813,37.53080187],[126.92500002,37.53079149],[126.92500065,37.53079125],[126.92501299,37.53078315],[126.9250276,37.53077064],[126.92504051,37.53075533],[126.92504731,37.53074479],[126.92505343,37.53073263],[126.92505582,37.53072182],[126.9250573,37.53071173],[126.92505822,37.53070047],[126.92505778,37.53069065],[126.92505586,37.53068155],[126.92505237,37.53067028],[126.9250465,37.53065784],[126.92503927,37.53064622],[126.92503113,37.53063594],[126.92501982,37.53062602],[126.92500784,37.53061664],[126.92500001,37.53061176],[126.9248422,37.530514]]]}}]}