{"type":"FeatureCollection","features":[{"type":"Feature","id":"seoul-building-501610","properties":{"id":"seoul-building-501610","sourceId":"0000192821964478897800000000","pnu":"1156011000100820009","name":"서울특별시 영등포구 여의도동","address":"서울특별시 영등포구 여의도동","useName":"","floors":0.0,"height":0,"heightSource":"unknown","heightRaw":0.0,"sourceDate":"2026-09-09"},"geometry":{"type":"Polygon","coordinates":[[[126.9196022,37.53323307],[126.91959255,37.53320948],[126.9195513,37.53322041],[126.91956094,37.53324401],[126.9196022,37.53323307]]]}},{"type":"Feature","id":"seoul-building-501877","properties":{"id":"seoul-building-501877","sourceId":"0000192768174479036000000000","pnu":"1156011000100820003","name":"서울특별시 영등포구 여의도동","address":"서울특별시 영등포구 여의도동","useName":"","floors":0.0,"height":0,"heightSource":"unknown","heightRaw":0.0,"sourceDate":"2026-09-09"},"geometry":{"type":"Polygon","coordinates":[[[126.91899257,37.5333728],[126.91897446,37.53332174],[126.91894358,37.5333288],[126.9189617,37.53337987],[126.91899257,37.5333728]]]}},{"type":"Feature","id":"seoul-building-503754","properties":{"id":"seoul-building-503754","sourceId":"0000192328224480871400000000","pnu":"1156011000100810008","name":"서울특별시 영등포구 여의도동","address":"서울특별시 영등포구 여의도동","useName":"","floors":0.0,"height":0,"heightSource":"unknown","heightRaw":0.0,"sourceDate":"2026-09-09"},"geometry":{"type":"Polygon","coordinates":[[[126.91403838,37.53500728],[126.91403431,37.53498256],[126.91393868,37.53499447],[126.91394275,37.53501918],[126.91403838,37.53500728]]]}},{"type":"Feature","id":"seoul-building-503981","properties":{"id":"seoul-building-503981","sourceId":"0000192301924480908000000000","pnu":"1156011000100810008","name":"서울특별시 영등포구 여의도동","address":"서울특별시 영등포구 여의도동","useName":"","floors":0.0,"height":0,"heightSource":"unknown","heightRaw":0.0,"sourceDate":"2026-09-09"},"geometry":{"type":"Polygon","coordinates":[[[126.91372533,37.53504286],[126.91372259,37.53502103],[126.91365659,37.53502444],[126.91365933,37.53504628],[126.91372533,37.53504286]]]}},{"type":"Feature","id":"seoul-building-504001","properties":{"id":"seoul-building-504001","sourceId":"0000192025274480035300000000","pnu":"1156011000100810008","name":"서울특별시 영등포구 여의도동","address":"서울특별시 영등포구 여의도동","useName":"","floors":0.0,"height":0,"heightSource":"unknown","heightRaw":0.0,"sourceDate":"2026-09-09"},"geometry":{"type":"Polygon","coordinates":[[[126.91057287,37.53423279],[126.91055369,37.53423172],[126.91055084,37.53425718],[126.91057001,37.53425826],[126.91057287,37.53423279]]]}},{"type":"Feature","id":"seoul-building-508479","properties":{"id":"seoul-building-508479","sourceId":"0000192727694477280200000000","pnu":"1156011000100010000","name":"서울특별시 영등포구 여의도동","address":"서울특별시 영등포구 여의도동","useName":"","floors":0.0,"height":0,"heightSource":"unknown","heightRaw":0.0,"sourceDate":"2026-09-09"},"geometry":{"type":"Polygon","coordinates":[[[126.91855641,37.53174276],[126.91853233,37.53172743],[126.91846664,37.53179127],[126.91849535,37.53180894],[126.91855641,37.53174276]]]}},{"type":"Feature","id":"seoul-building-510635","properties":{"id":"seoul-building-510635","sourceId":"1976192523344478853700000000","pnu":"1156011000100010000","name":"서울특별시 영등포구 여의도동","address":"서울특별시 영등포구 여의도동","useName":"방송통신시설","floors":1.0,"height":4.0,"heightSource":"measured","heightRaw":4.0,"sourceDate":"2026-09-09"},"geometry":{"type":"Polygon","coordinates":[[[126.91622357,37.53320572],[126.91621868,37.5331864],[126.91621089,37.53318765],[126.91620265,37.53315516],[126.91617759,37.53315836],[126.91618814,37.53321083],[126.91622357,37.53320572]]]}},{"type":"Feature","id":"seoul-building-510750","properties":{"id":"seoul-building-510750","sourceId":"2009192142634477722800000000","pnu":"1156011000100010000","name":"서울특별시 영등포구 여의도동","address":"서울특별시 영등포구 여의도동","useName":"","floors":0.0,"height":0,"heightSource":"unknown","heightRaw":0.0,"sourceDate":"2026-09-09"},"geometry":{"type":"Polygon","coordinates":[[[126.91181032,37.53212853],[126.9119502,37.5322175],[126.91196325,37.53220421],[126.91192952,37.53218521],[126.91194296,37.53217009],[126.91187279,37.53212416],[126.91185726,37.53213922],[126.91182334,37.53211702],[126.91181032,37.53212853]]]}},{"type":"Feature","id":"seoul-building-510753","properties":{"id":"seoul-building-510753","sourceId":"1976192696054477691900000000","pnu":"1156011000100010000","name":"서울특별시 영등포구 여의도동","address":"서울특별시 영등포구 여의도동","useName":"방송통신시설","floors":1.0,"height":4.0,"heightSource":"measured","heightRaw":4.0,"sourceDate":"2026-09-09"},"geometry":{"type":"Polygon","coordinates":[[[126.91818399,37.53212507],[126.91816217,37.5321128],[126.91812218,37.53215251],[126.91814672,37.53216523],[126.91818399,37.53212507]]]}},{"type":"Feature","id":"seoul-building-510754","properties":{"id":"seoul-building-510754","sourceId":"0000192715904477499100000000","pnu":"1156011000100010000","name":"서울특별시 영등포구 여의도동","address":"서울특별시 영등포구 여의도동","useName":"","floors":0.0,"height":0,"heightSource":"unknown","heightRaw":0.0,"sourceDate":"2026-09-09"},"geometry":{"type":"Polygon","coordinates":[[[126.91850809,37.53185545],[126.91847914,37.53183904],[126.91824604,37.53208097],[126.91826819,37.53209828],[126.91850809,37.53185545]]]}},{"type":"Feature","id":"seoul-building-510797","properties":{"id":"seoul-building-510797","sourceId":"0000192677944477780300000000","pnu":"1156011000100010000","name":"서울특별시 영등포구 여의도동","address":"서울특별시 영등포구 여의도동","useName":"","floors":0.0,"height":0,"heightSource":"unknown","heightRaw":0.0,"sourceDate":"2026-09-09"},"geometry":{"type":"Polygon","coordinates":[[[126.91797458,37.53221521],[126.91794575,37.53219843],[126.91792219,37.53222148],[126.91795159,37.53223934],[126.91797458,37.53221521]]]}},{"type":"Feature","id":"seoul-building-510798","properties":{"id":"seoul-building-510798","sourceId":"0000192697704477736500000000","pnu":"1156011000100010000","name":"서울특별시 영등포구 여의도동","address":"서울특별시 영등포구 여의도동","useName":"","floors":0.0,"height":0,"heightSource":"unknown","heightRaw":0.0,"sourceDate":"2026-09-09"},"geometry":{"type":"Polygon","coordinates":[[[126.91824553,37.53212539],[126.91821738,37.53210942],[126.91809868,37.53223268],[126.91812739,37.5322491],[126.91824553,37.53212539]]]}},{"type":"Feature","id":"seoul-building-510800","properties":{"id":"seoul-building-510800","sourceId":"1976192614964477716900000000","pnu":"1156011000100010000","name":"서울특별시 영등포구 여의도동","address":"서울특별시 영등포구 여의도동","useName":"방송통신시설","floors":1.0,"height":4.0,"heightSource":"measured","heightRaw":4.0,"sourceDate":"2026-09-09"},"geometry":{"type":"Polygon","coordinates":[[[126.91727341,37.53217202],[126.91721213,37.53213539],[126.91719842,37.53214809],[126.91725642,37.53218678],[126.91727341,37.53217202]]]}},{"type":"Feature","id":"seoul-building-510801","properties":{"id":"seoul-building-510801","sourceId":"0000192733654477271400000000","pnu":"1156011000100010000","name":"서울특별시 영등포구 여의도동","address":"서울특별시 영등포구 여의도동","useName":"","floors":0.0,"height":0,"heightSource":"unknown","heightRaw":0.0,"sourceDate":"2026-09-09"},"geometry":{"type":"Polygon","coordinates":[[[126.91865454,37.53170697],[126.91862729,37.53169002],[126.91850326,37.53181599],[126.91853017,37.53183132],[126.91865454,37.53170697]]]}},{"type":"Feature","id":"seoul-building-510807","properties":{"id":"seoul-building-510807","sourceId":"0000192483924478765500000000","pnu":"1156011000100010000","name":"서울특별시 영등포구 여의도동","address":"서울특별시 영등포구 여의도동","useName":"","floors":0.0,"height":0,"heightSource":"unknown","heightRaw":0.0,"sourceDate":"2026-09-09"},"geometry":{"type":"Polygon","coordinates":[[[126.91599304,37.53317367],[126.91594374,37.53295662],[126.91569878,37.53299092],[126.91569404,37.53297304],[126.9155294,37.53300071],[126.91559746,37.5332846],[126.91568665,37.5332733],[126.91568554,37.53326801],[126.91575824,37.5332583],[126.91574898,37.53321446],[126.91599304,37.53317367]]]}},{"type":"Feature","id":"seoul-building-510808","properties":{"id":"seoul-building-510808","sourceId":"0000192445764478526500000000","pnu":"1156011000100010000","name":"서울특별시 영등포구 여의도동","address":"서울특별시 영등포구 여의도동","useName":"","floors":0.0,"height":0,"heightSource":"unknown","heightRaw":0.0,"sourceDate":"2026-09-09"},"geometry":{"type":"Polygon","coordinates":[[[126.91534963,37.53289949],[126.91530693,37.5328656],[126.91529208,37.53287877],[126.91533482,37.53291266],[126.91534963,37.53289949]]]}},{"type":"Feature","id":"seoul-building-510809","properties":{"id":"seoul-building-510809","sourceId":"0000192148554476513200000000","pnu":"1156011000100080002","name":"서울특별시 영등포구 여의도동","address":"서울특별시 영등포구 여의도동","useName":"","floors":0.0,"height":0,"heightSource":"unknown","heightRaw":0.0,"sourceDate":"2026-09-09"},"geometry":{"type":"Polygon","coordinates":[[[126.91198303,37.53105086],[126.91195792,37.53104552],[126.91193964,37.53109723],[126.91195943,37.53110111],[126.91198303,37.53105086]]]}},{"type":"Feature","id":"seoul-building-510814","properties":{"id":"seoul-building-510814","sourceId":"0000192789644479305800000000","pnu":"1156011000100820003","name":"서울특별시 영등포구 여의도동","address":"서울특별시 영등포구 여의도동","useName":"","floors":0.0,"height":0,"heightSource":"unknown","heightRaw":0.0,"sourceDate":"2026-09-09"},"geometry":{"type":"Polygon","coordinates":[[[126.91928319,37.53364594],[126.91923653,37.53351792],[126.91913807,37.53354067],[126.91918577,37.53367152],[126.91928319,37.53364594]]]}},{"type":"Feature","id":"seoul-building-510854","properties":{"id":"seoul-building-510854","sourceId":"0000192584964477408900000000","pnu":"1156011000100010000","name":"서울특별시 영등포구 여의도동","address":"서울특별시 영등포구 여의도동","useName":"","floors":0.0,"height":0,"heightSource":"unknown","heightRaw":0.0,"sourceDate":"2026-09-09"},"geometry":{"type":"Polygon","coordinates":[[[126.91693456,37.53186598],[126.91690799,37.53184974],[126.91685781,37.53190043],[126.91688891,37.53191604],[126.91693456,37.53186598]]]}},{"type":"Feature","id":"seoul-building-510855","properties":{"id":"seoul-building-510855","sourceId":"0000192681494477900000000000","pnu":"1156011000100010000","name":"서울특별시 영등포구 여의도동","address":"서울특별시 영등포구 여의도동","useName":"","floors":0.0,"height":0,"heightSource":"unknown","heightRaw":0.0,"sourceDate":"2026-09-09"},"geometry":{"type":"Polygon","coordinates":[[[126.91803157,37.5323176],[126.91803692,37.53229814],[126.91792691,37.53232933],[126.91794341,37.53233835],[126.9179632,37.53234593],[126.9179795,37.53234828],[126.91798821,37.53234739],[126.91799999,37.53234524],[126.91801854,37.5323348],[126.91803157,37.5323176]]]}},{"type":"Feature","id":"seoul-building-510857","properties":{"id":"seoul-building-510857","sourceId":"1999192727364476004700000000","pnu":"1156011000100010000","name":"방문객용화장실","address":"서울특별시 영등포구 여의도동","useName":"제1종근린생활시설","floors":1.0,"height":5.15,"heightSource":"measured","heightRaw":5.15,"sourceDate":"2026-09-09"},"geometry":{"type":"Polygon","coordinates":[[[126.91859368,37.53065474],[126.91859698,37.53063438],[126.9185971,37.53062636],[126.91859508,37.53061996],[126.9185875,37.53061302],[126.91858287,37.53060896],[126.91857314,37.53060598],[126.91854136,37.53059974],[126.918527,37.53059559],[126.91852417,37.53059243],[126.91852373,37.53058577],[126.91852204,37.53057748],[126.91850531,37.53056395],[126.91849671,37.53056169],[126.91848823,37.53055962],[126.91847986,37.53055853],[126.91846685,37.53055907],[126.91844388,37.53056346],[126.91842587,37.53057741],[126.91842191,37.53058335],[126.91842133,37.53059192],[126.91842223,37.53059741],[126.91842437,37.53060391],[126.91843228,37.53061418],[126.91845127,37.53062708],[126.91847005,37.53063106],[126.91845601,37.53064429],[126.91849354,37.53066692],[126.91850623,37.53065369],[126.9185104,37.53066306],[126.91851583,37.53066901],[126.91853313,37.53067813],[126.91853912,37.53067975],[126.91856469,37.53067851],[126.91859368,37.53065474]]]}},{"type":"Feature","id":"seoul-building-510858","properties":{"id":"seoul-building-510858","sourceId":"0000192698954477651000000000","pnu":"1156011000100010000","name":"서울특별시 영등포구 여의도동","address":"서울특별시 영등포구 여의도동","useName":"","floors":0.0,"height":0,"heightSource":"unknown","heightRaw":0.0,"sourceDate":"2026-09-09"},"geometry":{"type":"Polygon","coordinates":[[[126.91820924,37.53210185],[126.91818154,37.53208408],[126.91816286,37.53210289],[126.91819191,37.53212066],[126.91820924,37.53210185]]]}},{"type":"Feature","id":"seoul-building-510859","properties":{"id":"seoul-building-510859","sourceId":"2007192649024476985000000000","pnu":"1156011000100010000","name":"서울특별시 영등포구 여의도동","address":"서울특별시 영등포구 여의도동","useName":"","floors":0.0,"height":0,"heightSource":"unknown","heightRaw":0.0,"sourceDate":"2026-09-09"},"geometry":{"type":"Polygon","coordinates":[[[126.91782002,37.53151529],[126.91761028,37.53139171],[126.91759883,37.53140513],[126.91752636,37.53136382],[126.91742828,37.53146358],[126.91749634,37.53150768],[126.91748038,37.53152137],[126.91768942,37.5316473],[126.91782002,37.53151529]]]}},{"type":"Feature","id":"seoul-building-510860","properties":{"id":"seoul-building-510860","sourceId":"0000192291564478081800000000","pnu":"1156011000100010000","name":"서울특별시 영등포구 여의도동","address":"서울특별시 영등포구 여의도동","useName":"","floors":0.0,"height":0,"heightSource":"unknown","heightRaw":0.0,"sourceDate":"2026-09-09"},"geometry":{"type":"Polygon","coordinates":[[[126.91371091,37.53251626],[126.9135087,37.53238929],[126.91344213,37.53245859],[126.91364623,37.53258515],[126.91371091,37.53251626]]]}},{"type":"Feature","id":"seoul-building-510863","properties":{"id":"seoul-building-510863","sourceId":"0000192746094479165400000000","pnu":"1156011000100820003","name":"서울특별시 영등포구 여의도동","address":"서울특별시 영등포구 여의도동","useName":"","floors":0.0,"height":0,"heightSource":"unknown","heightRaw":0.0,"sourceDate":"2026-09-09"},"geometry":{"type":"Polygon","coordinates":[[[126.91875709,37.53347374],[126.91874207,37.53342472],[126.91867166,37.53343839],[126.91869567,37.5335106],[126.91876377,37.53349559],[126.91875709,37.53347374]]]}},{"type":"Feature","id":"seoul-building-511052","properties":{"id":"seoul-building-511052","sourceId":"0000192749444479145100000000","pnu":"1156011000100820003","name":"서울특별시 영등포구 여의도동","address":"서울특별시 영등포구 여의도동","useName":"","floors":0.0,"height":0,"heightSource":"unknown","heightRaw":0.0,"sourceDate":"2026-09-09"},"geometry":{"type":"Polygon","coordinates":[[[126.91874207,37.53342472],[126.91875709,37.53347374],[126.91877072,37.53347165],[126.91875347,37.53342297],[126.91874207,37.53342472]]]}},{"type":"Feature","id":"seoul-building-511161","properties":{"id":"seoul-building-511161","sourceId":"0000192691014479937900000000","pnu":"1156011000100820003","name":"서울특별시 영등포구 여의도동","address":"서울특별시 영등포구 여의도동","useName":"","floors":0.0,"height":0,"heightSource":"unknown","heightRaw":0.0,"sourceDate":"2026-09-09"},"geometry":{"type":"Polygon","coordinates":[[[126.9181163,37.53415922],[126.9181127,37.53413463],[126.91808472,37.53414488],[126.91805809,37.53414487],[126.91807073,37.53416609],[126.91807362,37.5341898],[126.91810277,37.53418111],[126.91813365,37.53417856],[126.9181163,37.53415922]]]}},{"type":"Feature","id":"seoul-building-511162","properties":{"id":"seoul-building-511162","sourceId":"0000192685314479957300000000","pnu":"1156011000100820003","name":"서울특별시 영등포구 여의도동","address":"서울특별시 영등포구 여의도동","useName":"","floors":0.0,"height":0,"heightSource":"unknown","heightRaw":0.0,"sourceDate":"2026-09-09"},"geometry":{"type":"Polygon","coordinates":[[[126.918051,37.53417502],[126.91804676,37.53415531],[126.91801416,37.53416294],[126.91799727,37.53416293],[126.91800833,37.53418295],[126.91800541,37.53420667],[126.91803652,37.53419654],[126.91806788,37.53419399],[126.918051,37.53417502]]]}},{"type":"Feature","id":"seoul-building-511216","properties":{"id":"seoul-building-511216","sourceId":"0000192015194480608700000000","pnu":"1156011000100810008","name":"서울특별시 영등포구 여의도동","address":"서울특별시 영등포구 여의도동","useName":"","floors":0.0,"height":0,"heightSource":"unknown","heightRaw":0.0,"sourceDate":"2026-09-09"},"geometry":{"type":"Polygon","coordinates":[[[126.91048356,37.53485782],[126.91048396,37.53482859],[126.91050102,37.53482873],[126.91050309,37.5346752],[126.91039184,37.53467283],[126.91039369,37.53471563],[126.91039151,37.53483025],[126.91041144,37.53483258],[126.91041112,37.53485721],[126.91048356,37.53485782]]]}},{"type":"Feature","id":"seoul-building-511218","properties":{"id":"seoul-building-511218","sourceId":"0000192347084480842100000000","pnu":"1156011000100810008","name":"서울특별시 영등포구 여의도동","address":"서울특별시 영등포구 여의도동","useName":"","floors":0.0,"height":0,"heightSource":"unknown","heightRaw":0.0,"sourceDate":"2026-09-09"},"geometry":{"type":"Polygon","coordinates":[[[126.9142532,37.53498246],[126.91424835,37.53495594],[126.91415068,37.53496677],[126.91415553,37.53499331],[126.9142532,37.53498246]]]}},{"type":"Feature","id":"seoul-building-511219","properties":{"id":"seoul-building-511219","sourceId":"0000192337484480857000000000","pnu":"1156011000100810008","name":"서울특별시 영등포구 여의도동","address":"서울특별시 영등포구 여의도동","useName":"","floors":0.0,"height":0,"heightSource":"unknown","heightRaw":0.0,"sourceDate":"2026-09-09"},"geometry":{"type":"Polygon","coordinates":[[[126.91414477,37.53499537],[126.91413991,37.53496909],[126.91404185,37.53498069],[126.9140467,37.53500697],[126.91414477,37.53499537]]]}},{"type":"Feature","id":"seoul-building-511220","properties":{"id":"seoul-building-511220","sourceId":"0000192320514480883200000000","pnu":"1156011000100810008","name":"서울특별시 영등포구 여의도동","address":"서울특별시 영등포구 여의도동","useName":"","floors":0.0,"height":0,"heightSource":"unknown","heightRaw":0.0,"sourceDate":"2026-09-09"},"geometry":{"type":"Polygon","coordinates":[[[126.91393536,37.535021],[126.91392972,37.53499465],[126.91386718,37.53500195],[126.91387281,37.53502829],[126.91393536,37.535021]]]}},{"type":"Feature","id":"seoul-building-511221","properties":{"id":"seoul-building-511221","sourceId":"0000192314414480896700000000","pnu":"1156011000100810008","name":"서울특별시 영등포구 여의도동","address":"서울특별시 영등포구 여의도동","useName":"","floors":0.0,"height":0,"heightSource":"unknown","heightRaw":0.0,"sourceDate":"2026-09-09"},"geometry":{"type":"Polygon","coordinates":[[[126.91386637,37.53503035],[126.91386253,37.53501046],[126.91379818,37.53501681],[126.91380201,37.5350367],[126.91386637,37.53503035]]]}},{"type":"Feature","id":"seoul-building-511222","properties":{"id":"seoul-building-511222","sourceId":"0000192308294480902100000000","pnu":"1156011000100810008","name":"서울특별시 영등포구 여의도동","address":"서울특별시 영등포구 여의도동","useName":"","floors":0.0,"height":0,"heightSource":"unknown","heightRaw":0.0,"sourceDate":"2026-09-09"},"geometry":{"type":"Polygon","coordinates":[[[126.91379573,37.53503864],[126.91379324,37.53501436],[126.91373045,37.53501822],[126.91373296,37.5350425],[126.91379573,37.53503864]]]}},{"type":"Feature","id":"seoul-building-511223","properties":{"id":"seoul-building-511223","sourceId":"0000192074134480027200000000","pnu":"1156011000100810008","name":"서울특별시 영등포구 여의도동","address":"서울특별시 영등포구 여의도동","useName":"","floors":0.0,"height":0,"heightSource":"unknown","heightRaw":0.0,"sourceDate":"2026-09-09"},"geometry":{"type":"Polygon","coordinates":[[[126.91130316,37.53425067],[126.91093486,37.53419872],[126.91092911,37.5342267],[126.9112974,37.53427729],[126.91130316,37.53425067]]]}},{"type":"Feature","id":"seoul-building-511224","properties":{"id":"seoul-building-511224","sourceId":"0000192021304480140800000000","pnu":"1156011000100810008","name":"서울특별시 영등포구 여의도동","address":"서울특별시 영등포구 여의도동","useName":"","floors":0.0,"height":0,"heightSource":"unknown","heightRaw":0.0,"sourceDate":"2026-09-09"},"geometry":{"type":"Polygon","coordinates":[[[126.91052958,37.53432982],[126.91050648,37.53432825],[126.91050411,37.53435026],[126.91052722,37.53435184],[126.91052958,37.53432982]]]}},{"type":"Feature","id":"seoul-building-511225","properties":{"id":"seoul-building-511225","sourceId":"0000192042214479970500000000","pnu":"1156011000100810003","name":"서울특별시 영등포구 여의도동","address":"서울특별시 영등포구 여의도동","useName":"","floors":0.0,"height":0,"heightSource":"unknown","heightRaw":0.0,"sourceDate":"2026-09-09"},"geometry":{"type":"Polygon","coordinates":[[[126.91090475,37.53419419],[126.91060473,37.53415284],[126.91059772,37.5341775],[126.91089854,37.53422124],[126.91090475,37.53419419]]]}},{"type":"Feature","id":"seoul-building-511228","properties":{"id":"seoul-building-511228","sourceId":"0000192295484480910200000000","pnu":"1156011000100810008","name":"서울특별시 영등포구 여의도동","address":"서울특별시 영등포구 여의도동","useName":"","floors":0.0,"height":0,"heightSource":"unknown","heightRaw":0.0,"sourceDate":"2026-09-09"},"geometry":{"type":"Polygon","coordinates":[[[126.91365162,37.53504659],[126.9136511,37.53502337],[126.91358463,37.5350246],[126.91358515,37.53504781],[126.91365162,37.53504659]]]}},{"type":"Feature","id":"seoul-building-511237","properties":{"id":"seoul-building-511237","sourceId":"0000192842214478814100000000","pnu":"1156011000100820009","name":"서울특별시 영등포구 여의도동","address":"서울특별시 영등포구 여의도동","useName":"","floors":0.0,"height":0,"heightSource":"unknown","heightRaw":0.0,"sourceDate":"2026-09-09"},"geometry":{"type":"Polygon","coordinates":[[[126.91992523,37.53316962],[126.91988915,37.53308082],[126.91968672,37.53313331],[126.9197228,37.5332221],[126.91992523,37.53316962]]]}},{"type":"Feature","id":"seoul-building-511252","properties":{"id":"seoul-building-511252","sourceId":"2011192117584480658500000000","pnu":"1156011000100810008","name":"서울특별시 영등포구 여의도동","address":"서울특별시 영등포구 여의도동","useName":"제2종근린생활시설","floors":4.0,"height":22.6,"heightSource":"measured","heightRaw":22.6,"sourceDate":"2026-09-09"},"geometry":{"type":"Polygon","coordinates":[[[126.91155082,37.53468592],[126.9114761,37.53468513],[126.91142173,37.53469036],[126.91142862,37.5347157],[126.91126302,37.53480073],[126.91133636,37.53485501],[126.91137838,37.53487955],[126.91141176,37.53489658],[126.91144742,37.53491118],[126.91150391,37.53492159],[126.91156133,37.53492925],[126.91163087,37.53492221],[126.91170601,37.53490742],[126.91197248,37.53483383],[126.911915,37.53476627],[126.9117524,37.53472086],[126.91159395,37.53469107],[126.91155082,37.53468592]]]}},{"type":"Feature","id":"seoul-building-511281","properties":{"id":"seoul-building-511281","sourceId":"0000192758394479563200000000","pnu":"1156011000100820003","name":"서울특별시 영등포구 여의도동","address":"서울특별시 영등포구 여의도동","useName":"","floors":0.0,"height":0,"heightSource":"unknown","heightRaw":0.0,"sourceDate":"2026-09-09"},"geometry":{"type":"Polygon","coordinates":[[[126.91889402,37.53382996],[126.9188843,37.53380456],[126.91881962,37.5338215],[126.91882935,37.5338469],[126.91889402,37.53382996]]]}},{"type":"Feature","id":"seoul-building-511282","properties":{"id":"seoul-building-511282","sourceId":"0000192757314479531300000000","pnu":"1156011000100820003","name":"서울특별시 영등포구 여의도동","address":"서울특별시 영등포구 여의도동","useName":"","floors":0.0,"height":0,"heightSource":"unknown","heightRaw":0.0,"sourceDate":"2026-09-09"},"geometry":{"type":"Polygon","coordinates":[[[126.91888217,37.53380162],[126.91887221,37.53377615],[126.91880731,37.53379227],[126.91881727,37.53381774],[126.91888217,37.53380162]]]}},{"type":"Feature","id":"seoul-building-511283","properties":{"id":"seoul-building-511283","sourceId":"0000192753294479469800000000","pnu":"1156011000100820003","name":"서울특별시 영등포구 여의도동","address":"서울특별시 영등포구 여의도동","useName":"","floors":0.0,"height":0,"heightSource":"unknown","heightRaw":0.0,"sourceDate":"2026-09-09"},"geometry":{"type":"Polygon","coordinates":[[[126.91882154,37.53376937],[126.9188024,37.53370767],[126.91877703,37.53371373],[126.91879616,37.53377543],[126.91882154,37.53376937]]]}},{"type":"Feature","id":"seoul-building-511284","properties":{"id":"seoul-building-511284","sourceId":"0000192750474479376600000000","pnu":"1156011000100820003","name":"서울특별시 영등포구 여의도동","address":"서울특별시 영등포구 여의도동","useName":"","floors":0.0,"height":0,"heightSource":"unknown","heightRaw":0.0,"sourceDate":"2026-09-09"},"geometry":{"type":"Polygon","coordinates":[[[126.91878968,37.53368502],[126.91876913,37.53362494],[126.91874517,37.53363006],[126.91876572,37.53369014],[126.91878968,37.53368502]]]}},{"type":"Feature","id":"seoul-building-511285","properties":{"id":"seoul-building-511285","sourceId":"0000192728904480082100000000","pnu":"1156011000100820010","name":"서울특별시 영등포구 여의도동","address":"서울특별시 영등포구 여의도동","useName":"","floors":0.0,"height":0,"heightSource":"unknown","heightRaw":0.0,"sourceDate":"2026-09-09"},"geometry":{"type":"Polygon","coordinates":[[[126.91857246,37.53429524],[126.91855701,37.53426551],[126.91847299,37.53429081],[126.91848846,37.53432054],[126.91857246,37.53429524]]]}},{"type":"Feature","id":"seoul-building-511286","properties":{"id":"seoul-building-511286","sourceId":"0000192468294480665600000000","pnu":"1156011000100810008","name":"서울특별시 영등포구 여의도동","address":"서울특별시 영등포구 여의도동","useName":"","floors":0.0,"height":0,"heightSource":"unknown","heightRaw":0.0,"sourceDate":"2026-09-09"},"geometry":{"type":"Polygon","coordinates":[[[126.91562348,37.53481484],[126.91560323,37.53478442],[126.9155237,37.5348185],[126.91554395,37.53484891],[126.91562348,37.53481484]]]}},{"type":"Feature","id":"seoul-building-511287","properties":{"id":"seoul-building-511287","sourceId":"0000192432044479737900000000","pnu":"1156011000100810000","name":"서울특별시 영등포구 여의도동","address":"서울특별시 영등포구 여의도동","useName":"","floors":0.0,"height":0,"heightSource":"unknown","heightRaw":0.0,"sourceDate":"2026-09-09"},"geometry":{"type":"Polygon","coordinates":[[[126.91518135,37.53399206],[126.91517854,37.53396672],[126.9151475,37.53396895],[126.91515031,37.5339943],[126.91518135,37.53399206]]]}},{"type":"Feature","id":"seoul-building-511288","properties":{"id":"seoul-building-511288","sourceId":"0000192426724479741800000000","pnu":"1156011000100810000","name":"서울특별시 영등포구 여의도동","address":"서울특별시 영등포구 여의도동","useName":"","floors":0.0,"height":0,"heightSource":"unknown","heightRaw":0.0,"sourceDate":"2026-09-09"},"geometry":{"type":"Polygon","coordinates":[[[126.9151441,37.53399517],[126.91514091,37.53396858],[126.91506421,37.53397274],[126.91506742,37.53399933],[126.9151441,37.53399517]]]}},{"type":"Feature","id":"seoul-building-511289","properties":{"id":"seoul-building-511289","sourceId":"0000192351884480794800000000","pnu":"1156011000100810008","name":"서울특별시 영등포구 여의도동","address":"서울특별시 영등포구 여의도동","useName":"","floors":0.0,"height":0,"heightSource":"unknown","heightRaw":0.0,"sourceDate":"2026-09-09"},"geometry":{"type":"Polygon","coordinates":[[[126.91427413,37.53492273],[126.91427019,37.5349214],[126.91424278,37.53492158],[126.91423837,37.53492338],[126.91423594,37.53492545],[126.91423405,37.53493453],[126.91423506,37.53493834],[126.91423687,37.53494054],[126.91424339,37.53494191],[126.91426846,37.53494311],[126.91427333,37.53494186],[126.9142756,37.53493979],[126.91427694,37.53493698],[126.91427789,37.53493191],[126.9142775,37.53492772],[126.91427585,37.53492528],[126.91427413,37.53492273]]]}},{"type":"Feature","id":"seoul-building-511290","properties":{"id":"seoul-building-511290","sourceId":"0000192355144480829100000000","pnu":"1156011000100810008","name":"서울특별시 영등포구 여의도동","address":"서울특별시 영등포구 여의도동","useName":"","floors":0.0,"height":0,"heightSource":"unknown","heightRaw":0.0,"sourceDate":"2026-09-09"},"geometry":{"type":"Polygon","coordinates":[[[126.91432715,37.5349721],[126.91432252,37.53494757],[126.91425919,37.53495386],[126.91426381,37.5349784],[126.91432715,37.5349721]]]}},{"type":"Feature","id":"seoul-building-511291","properties":{"id":"seoul-building-511291","sourceId":"0000192432374479788500000000","pnu":"1156011000100810000","name":"서울특별시 영등포구 여의도동","address":"서울특별시 영등포구 여의도동","useName":"","floors":0.0,"height":0,"heightSource":"unknown","heightRaw":0.0,"sourceDate":"2026-09-09"},"geometry":{"type":"Polygon","coordinates":[[[126.91518806,37.53405551],[126.91518236,37.53399406],[126.91514811,37.53399668],[126.91515381,37.53405812],[126.91518806,37.53405551]]]}},{"type":"Feature","id":"seoul-building-511341","properties":{"id":"seoul-building-511341","sourceId":"0000192586994480267400000000","pnu":"1156011000100820006","name":"서울특별시 영등포구 여의도동","address":"서울특별시 영등포구 여의도동","useName":"","floors":0.0,"height":0,"heightSource":"unknown","heightRaw":0.0,"sourceDate":"2026-09-09"},"geometry":{"type":"Polygon","coordinates":[[[126.91693718,37.53445227],[126.91693262,37.53443175],[126.91690623,37.53444038],[126.91688037,37.53444186],[126.91689301,37.53446176],[126.91689676,37.53448604],[126.91692277,37.53447648],[126.91696027,37.5344723],[126.91693718,37.53445227]]]}},{"type":"Feature","id":"seoul-building-511342","properties":{"id":"seoul-building-511342","sourceId":"0000192581274480284200000000","pnu":"1156011000100820006","name":"서울특별시 영등포구 여의도동","address":"서울특별시 영등포구 여의도동","useName":"","floors":0.0,"height":0,"heightSource":"unknown","heightRaw":0.0,"sourceDate":"2026-09-09"},"geometry":{"type":"Polygon","coordinates":[[[126.91687188,37.53447064],[126.91686984,37.53444661],[126.91685138,37.53445474],[126.91683802,37.53445692],[126.91682552,37.53445692],[126.91681861,37.53445692],[126.91683203,37.53447701],[126.91683179,37.53448101],[126.9168321,37.53449935],[126.91687022,37.53448947],[126.91688891,37.5344873],[126.91687188,37.53447064]]]}},{"type":"Feature","id":"seoul-building-511397","properties":{"id":"seoul-building-511397","sourceId":"0000192858444479140500000000","pnu":"1156011000100820009","name":"서울특별시 영등포구 여의도동","address":"서울특별시 영등포구 여의도동","useName":"","floors":0.0,"height":0,"heightSource":"unknown","heightRaw":0.0,"sourceDate":"2026-09-09"},"geometry":{"type":"Polygon","coordinates":[[[126.91998264,37.53335309],[126.91994878,37.53334839],[126.91993023,37.53336946],[126.91994421,37.53338467],[126.91994435,37.53341259],[126.91996036,37.53342942],[126.91996177,37.53343568],[126.91996042,37.53345494],[126.9199751,37.53347247],[126.91997715,37.5334853],[126.91997698,37.53349337],[126.91997682,37.53350138],[126.91998891,37.53351171],[126.91999354,37.53352448],[126.91999425,37.53353205],[126.919995,37.53354021],[126.92002629,37.53354488],[126.92004092,37.53353331],[126.92004625,37.53352662],[126.92003645,37.53351172],[126.92003457,37.53350284],[126.92003448,37.53349552],[126.92003441,37.53348832],[126.92003436,37.53348307],[126.92002272,37.53347074],[126.92001951,37.53346191],[126.92001975,37.53345135],[126.92001989,37.53344497],[126.92001755,37.53343921],[126.9200057,37.53342237],[126.92000405,37.53341073],[126.92000462,37.53340197],[126.92000503,37.5333953],[126.9199915,37.53338281],[126.91998829,37.5333725],[126.91998711,37.53336223],[126.91998634,37.53335546],[126.91998264,37.53335309]]]}},{"type":"Feature","id":"seoul-building-511398","properties":{"id":"seoul-building-511398","sourceId":"0000192794174479506400000000","pnu":"1156011000100820003","name":"서울특별시 영등포구 여의도동","address":"서울특별시 영등포구 여의도동","useName":"","floors":0.0,"height":0,"heightSource":"unknown","heightRaw":0.0,"sourceDate":"2026-09-09"},"geometry":{"type":"Polygon","coordinates":[[[126.91925364,37.53368356],[126.91922481,37.53367892],[126.91920452,37.53369525],[126.91921104,37.53370569],[126.91921584,37.53371339],[126.91921677,37.53371996],[126.91921742,37.53372456],[126.91921684,37.5337326],[126.91921634,37.53373952],[126.919229,37.53375068],[126.91923128,37.5337577],[126.91923143,37.53376383],[126.91923159,37.53376971],[126.91923183,37.53377978],[126.91924344,37.53379205],[126.91924689,37.53380269],[126.91924775,37.53381083],[126.91924712,37.53382365],[126.91926038,37.53383717],[126.91926541,37.53384856],[126.91926618,37.5338622],[126.91926641,37.5338662],[126.9192855,37.53386753],[126.91929344,37.53386947],[126.91929896,37.53387082],[126.91930853,37.53385959],[126.91931631,37.5338564],[126.91931938,37.53385371],[126.9193076,37.53383456],[126.91930697,37.53382761],[126.91930619,37.5338189],[126.91930566,37.53381294],[126.91930538,37.53380979],[126.91929247,37.53378913],[126.91928918,37.53377431],[126.91928872,37.53376441],[126.91927741,37.53375071],[126.91927459,37.53374201],[126.91927436,37.53372455],[126.91926274,37.53370997],[126.91925576,37.53369333],[126.91925505,37.53368619],[126.91925364,37.53368356]]]}},{"type":"Feature","id":"seoul-building-511467","properties":{"id":"seoul-building-511467","sourceId":"0000192780214478981500000000","pnu":"1156011000100820003","name":"서울특별시 영등포구 여의도동","address":"서울특별시 영등포구 여의도동","useName":"","floors":0.0,"height":0,"heightSource":"unknown","heightRaw":0.0,"sourceDate":"2026-09-09"},"geometry":{"type":"Polygon","coordinates":[[[126.91918579,37.53331599],[126.91916204,37.53325445],[126.91902341,37.53328639],[126.91904748,37.53334984],[126.91918579,37.53331599]]]}},{"type":"Feature","id":"seoul-building-511534","properties":{"id":"seoul-building-511534","sourceId":"1976192741364476563600000000","pnu":"1156011000100010000","name":"서울특별시 영등포구 여의도동","address":"서울특별시 영등포구 여의도동","useName":"방송통신시설","floors":1.0,"height":4.0,"heightSource":"measured","heightRaw":4.0,"sourceDate":"2026-09-09"},"geometry":{"type":"Polygon","coordinates":[[[126.91870187,37.5311193],[126.91866401,37.53109476],[126.9186321,37.53112632],[126.91867126,37.53115144],[126.91870187,37.5311193]]]}},{"type":"Feature","id":"seoul-building-513765","properties":{"id":"seoul-building-513765","sourceId":"2007192177204476224000000000","pnu":"1156011000100010000","name":"서울특별시 영등포구 여의도동","address":"서울특별시 영등포구 여의도동","useName":"","floors":0.0,"height":0,"heightSource":"unknown","heightRaw":0.0,"sourceDate":"2026-09-09"},"geometry":{"type":"Polygon","coordinates":[[[126.91235506,37.53091742],[126.91241635,37.53075619],[126.91221354,37.53070612],[126.91217699,37.53082188],[126.91216783,37.53081971],[126.91215001,37.53086754],[126.91235506,37.53091742]]]}},{"type":"Feature","id":"seoul-building-513770","properties":{"id":"seoul-building-513770","sourceId":"1976192542514478546700000000","pnu":"1156011000100010000","name":"서울특별시 영등포구 여의도동","address":"서울특별시 영등포구 여의도동","useName":"업무시설","floors":2.0,"height":8.0,"heightSource":"measured","heightRaw":8.0,"sourceDate":"2026-09-09"},"geometry":{"type":"Polygon","coordinates":[[[126.91669916,37.53304612],[126.91663969,37.53280065],[126.9166228,37.53273144],[126.91645555,37.53275754],[126.91644024,37.53269554],[126.91618246,37.5327359],[126.91619879,37.53280079],[126.91622154,37.53289135],[126.91619291,37.53289593],[126.9161973,37.53292359],[126.91611085,37.53293254],[126.91614072,37.53306243],[126.91619761,37.53305428],[126.91618295,37.53299845],[126.91624587,37.53298877],[126.91627493,37.53311042],[126.91669916,37.53304612]]]}},{"type":"Feature","id":"seoul-building-513869","properties":{"id":"seoul-building-513869","sourceId":"1976192610064476683100000000","pnu":"1156011000100010000","name":"서울특별시 영등포구 여의도동","address":"서울특별시 영등포구 여의도동","useName":"업무시설","floors":7.0,"height":26.2,"heightSource":"estimated","heightRaw":0.0,"sourceDate":"2026-09-09"},"geometry":{"type":"Polygon","coordinates":[[[126.9177648,37.53110746],[126.9171899,37.53074927],[126.91683168,37.53111394],[126.91659821,37.53135163],[126.91674779,37.53144479],[126.91717334,37.53170982],[126.9177648,37.53110746]]]}},{"type":"Feature","id":"seoul-building-513963","properties":{"id":"seoul-building-513963","sourceId":"1976192374644479056200000000","pnu":"1156011000100010000","name":"서울특별시 영등포구 여의도동","address":"서울특별시 영등포구 여의도동","useName":"업무시설","floors":2.0,"height":8.2,"heightSource":"estimated","heightRaw":0.0,"sourceDate":"2026-09-09"},"geometry":{"type":"Polygon","coordinates":[[[126.91455614,37.53335964],[126.91451392,37.53333308],[126.91447514,37.53337219],[126.91451758,37.53339852],[126.91455614,37.53335964]]]}},{"type":"Feature","id":"seoul-building-513964","properties":{"id":"seoul-building-513964","sourceId":"0000192572524478815900000000","pnu":"1156011000100080002","name":"서울특별시 영등포구 여의도동","address":"서울특별시 영등포구 여의도동","useName":"","floors":0.0,"height":0,"heightSource":"unknown","heightRaw":0.0,"sourceDate":"2026-09-09"},"geometry":{"type":"Polygon","coordinates":[[[126.91679202,37.53317395],[126.91677816,37.53311844],[126.91671729,37.53312785],[126.9167317,37.53318363],[126.91679202,37.53317395]]]}},{"type":"Feature","id":"seoul-building-513970","properties":{"id":"seoul-building-513970","sourceId":"1976192137534477173800000000","pnu":"1156011000100010000","name":"서울특별시 영등포구 여의도동","address":"서울특별시 영등포구 여의도동","useName":"","floors":0.0,"height":0,"heightSource":"unknown","heightRaw":0.0,"sourceDate":"2026-09-09"},"geometry":{"type":"Polygon","coordinates":[[[126.91187743,37.53166283],[126.91182938,37.53163396],[126.91179268,37.53167277],[126.91184073,37.53170155],[126.91187743,37.53166283]]]}},{"type":"Feature","id":"seoul-building-513971","properties":{"id":"seoul-building-513971","sourceId":"2001192332534479144500000000","pnu":"1156011000100010000","name":"방문객용화장실(2차)","address":"서울특별시 영등포구 여의도동","useName":"제1종근린생활시설","floors":1.0,"height":5.45,"heightSource":"measured","heightRaw":5.45,"sourceDate":"2026-09-09"},"geometry":{"type":"Polygon","coordinates":[[[126.91412577,37.5334754],[126.91412052,37.5334144],[126.91407662,37.53341698],[126.91407493,37.53339896],[126.91401655,37.53340243],[126.91401519,37.53341604],[126.91397739,37.53341368],[126.91396917,37.53341863],[126.91395429,37.53342762],[126.91395899,37.53348466],[126.91412577,37.5334754]]]}},{"type":"Feature","id":"seoul-building-513979","properties":{"id":"seoul-building-513979","sourceId":"1976192341634477422000000000","pnu":"1156011000100010000","name":"서울특별시 영등포구 여의도동","address":"서울특별시 영등포구 여의도동","useName":"업무시설","floors":7.0,"height":28.0,"heightSource":"measured","heightRaw":28.0,"sourceDate":"2026-09-09"},"geometry":{"type":"Polygon","coordinates":[[[126.9152285,37.5319163],[126.91385157,37.53106133],[126.91305913,37.53186967],[126.91443674,37.53272501],[126.9152285,37.5319163]]]}},{"type":"Feature","id":"seoul-building-514033","properties":{"id":"seoul-building-514033","sourceId":"2007192171664476400900000000","pnu":"1156011000100010000","name":"국회온실 및 관리동","address":"서울특별시 영등포구 여의도동","useName":"동.식물 관련시설","floors":2.0,"height":10.35,"heightSource":"measured","heightRaw":10.35,"sourceDate":"2026-09-09"},"geometry":{"type":"Polygon","coordinates":[[[126.91235211,37.53092192],[126.91215012,37.53087033],[126.91209122,37.53102121],[126.91229525,37.53107272],[126.91235211,37.53092192]]]}},{"type":"Feature","id":"seoul-building-514084","properties":{"id":"seoul-building-514084","sourceId":"2007192674174477154300000000","pnu":"1156011000100010000","name":"국회의정관","address":"서울특별시 영등포구 여의도동","useName":"업무시설","floors":7.0,"height":34.7,"heightSource":"measured","heightRaw":34.7,"sourceDate":"2026-09-09"},"geometry":{"type":"Polygon","coordinates":[[[126.91759769,37.5320425],[126.91773779,37.531896],[126.91777118,37.5318972],[126.91778556,37.53188207],[126.91781619,37.53190038],[126.91785026,37.53189617],[126.91787731,37.53189403],[126.91794509,37.53187821],[126.91797034,37.53186463],[126.91797905,37.53185995],[126.91802704,37.53184439],[126.91807709,37.53180271],[126.91810983,37.53176318],[126.91813884,37.53172013],[126.91814602,37.53168308],[126.91816034,37.53160933],[126.91817878,37.53160763],[126.91819532,37.53159034],[126.91814738,37.53156139],[126.9181885,37.53151817],[126.9181426,37.53149038],[126.91827421,37.53135235],[126.91808902,37.53124609],[126.9176099,37.5317377],[126.91769108,37.53178695],[126.91766729,37.53181189],[126.91759572,37.5317685],[126.91756186,37.53180389],[126.91759679,37.53182509],[126.91746551,37.53196239],[126.91759769,37.5320425]]]}},{"type":"Feature","id":"seoul-building-514085","properties":{"id":"seoul-building-514085","sourceId":"1998192775734477555000000000","pnu":"1156011000100010000","name":"대한민국헌정기념관","address":"서울특별시 영등포구 여의도동","useName":"업무시설","floors":3.0,"height":16.11,"heightSource":"measured","heightRaw":16.11,"sourceDate":"2026-09-09"},"geometry":{"type":"Polygon","coordinates":[[[126.91884319,37.53248593],[126.91891602,37.53241318],[126.91896581,37.5324006],[126.91900995,37.53238612],[126.91905036,37.53236966],[126.91909643,37.53234996],[126.91913367,37.5323317],[126.91917454,37.53231019],[126.9192136,37.5322867],[126.91926342,37.53224971],[126.91928675,37.5322299],[126.91934405,37.53217453],[126.91922466,37.53209975],[126.91926646,37.53205753],[126.91923186,37.53203669],[126.91933482,37.5319327],[126.91936817,37.5319537],[126.91947045,37.53184899],[126.91905019,37.53158642],[126.91903887,37.5315993],[126.91901625,37.53158622],[126.91873604,37.53187407],[126.91875831,37.53189085],[126.91874494,37.5319021],[126.91900849,37.53206924],[126.91878456,37.53230083],[126.91876613,37.53228954],[126.91867246,37.53238472],[126.91869055,37.53239609],[126.9186568,37.53242958],[126.91864264,37.53244687],[126.91869695,37.53244736],[126.91876993,37.53244092],[126.91884319,37.53248593]]]}},{"type":"Feature","id":"seoul-building-514239","properties":{"id":"seoul-building-514239","sourceId":"2005192853084475653600000000","pnu":"1156011000100140003","name":"아이비피아빌딩","address":"서울특별시 영등포구 여의도동","useName":"업무시설","floors":11.0,"height":42.15,"heightSource":"measured","heightRaw":42.15,"sourceDate":"2026-09-09"},"geometry":{"type":"Polygon","coordinates":[[[126.92009086,37.53028266],[126.91992229,37.53017461],[126.91977121,37.5303265],[126.91994577,37.53043231],[126.92009086,37.53028266]]]}},{"type":"Feature","id":"seoul-building-514420","properties":{"id":"seoul-building-514420","sourceId":"0000192253824479216200000000","pnu":"1156011000100010000","name":"서울특별시 영등포구 여의도동","address":"서울특별시 영등포구 여의도동","useName":"","floors":0.0,"height":0,"heightSource":"unknown","heightRaw":0.0,"sourceDate":"2026-09-09"},"geometry":{"type":"Polygon","coordinates":[[[126.91318471,37.53353617],[126.91317742,37.53347697],[126.91311259,37.53348251],[126.91311885,37.53353982],[126.91318471,37.53353617]]]}},{"type":"Feature","id":"seoul-building-514466","properties":{"id":"seoul-building-514466","sourceId":"2007192153444476880500000000","pnu":"1156011000100010000","name":"어린이집","address":"서울특별시 영등포구 여의도동","useName":"노유자시설","floors":2.0,"height":9.4,"heightSource":"measured","heightRaw":9.4,"sourceDate":"2026-09-09"},"geometry":{"type":"Polygon","coordinates":[[[126.91209453,37.53157523],[126.91216726,37.53139959],[126.91214396,37.5313939],[126.91216268,37.5313431],[126.91218474,37.53134762],[126.91221038,37.53128934],[126.91205779,37.53125229],[126.91206223,37.53123544],[126.91205929,37.53123201],[126.91205171,37.53122904],[126.91204708,37.53122786],[126.91204198,37.53122786],[126.91203553,37.53122857],[126.91203259,37.53122911],[126.91202545,37.53124145],[126.91193972,37.53122093],[126.91187129,37.53139712],[126.911899,37.53140236],[126.91187857,37.53145371],[126.9118581,37.53144892],[126.91183336,37.53151287],[126.91188187,37.53154751],[126.91192755,37.53156511],[126.91196126,37.53156964],[126.91199407,37.53156669],[126.91201988,37.53155778],[126.91209453,37.53157523]]]}},{"type":"Feature","id":"seoul-building-514542","properties":{"id":"seoul-building-514542","sourceId":"1979192845794477320700000000","pnu":"1156011000100010000","name":"서울특별시 영등포구 여의도동","address":"서울특별시 영등포구 여의도동","useName":"업무시설","floors":2.0,"height":8.0,"heightSource":"measured","heightRaw":8.0,"sourceDate":"2026-09-09"},"geometry":{"type":"Polygon","coordinates":[[[126.92001825,37.53176751],[126.91979142,37.53162721],[126.91961655,37.53180665],[126.91990429,37.53198462],[126.92007928,37.53180525],[126.92001825,37.53176751]]]}},{"type":"Feature","id":"seoul-building-520208","properties":{"id":"seoul-building-520208","sourceId":"2016192822764475645900000000","pnu":"1156011000100140000","name":"B & B 타워","address":"서울특별시 영등포구 여의도동","useName":"업무시설","floors":13.0,"height":41.15,"heightSource":"measured","heightRaw":41.15,"sourceDate":"2026-09-09"},"geometry":{"type":"Polygon","coordinates":[[[126.91943365,37.53026776],[126.9196558,37.53039976],[126.91973971,37.53031529],[126.91962169,37.53024184],[126.91960831,37.53025637],[126.91950218,37.53019717],[126.91943365,37.53026776]]]}}]}